<?xml version="1.0"?>
<gpx xmlns="http://www.topografix.com/GPX/1/1" xmlns:xsi="http://www.w3.org/2001/XMLSchema-instance" version="1.1" creator="AllTrails.com" xsi:schemaLocation="http://www.topografix.com/GPX/1/1 http://www.topografix.com/GPX/1/1/gpx.xsd">
  <metadata>
    <name><![CDATA[Spartan Trail]]></name>
    <desc><![CDATA[]]></desc>
    <link href="http://www.alltrails.com">
      <text>AllTrails, LLC</text>
    </link>
    <bounds minlat="10.31347" minlon="123.84194" maxlat="10.33406" maxlon="123.86753"/>
  </metadata>
  <trk>
    <name><![CDATA[Spartan Trail]]></name>
    <src>AllTrails</src>
    <trkseg>
      <trkpt lat="10.31347" lon="123.86753">
        <ele>97.48</ele>
      </trkpt>
      <trkpt lat="10.31369" lon="123.86743">
        <ele>98.39</ele>
      </trkpt>
      <trkpt lat="10.31374" lon="123.8674">
        <ele>98.01</ele>
      </trkpt>
      <trkpt lat="10.31379" lon="123.86737">
        <ele>97.59</ele>
      </trkpt>
      <trkpt lat="10.31383" lon="123.86735">
        <ele>97.25</ele>
      </trkpt>
      <trkpt lat="10.31387" lon="123.86732">
        <ele>96.82</ele>
      </trkpt>
      <trkpt lat="10.31392" lon="123.86729">
        <ele>96.57</ele>
      </trkpt>
      <trkpt lat="10.31396" lon="123.86726">
        <ele>96.49</ele>
      </trkpt>
      <trkpt lat="10.314" lon="123.86724">
        <ele>96.5</ele>
      </trkpt>
      <trkpt lat="10.31406" lon="123.86722">
        <ele>96.65</ele>
      </trkpt>
      <trkpt lat="10.3141" lon="123.8672">
        <ele>97.14</ele>
      </trkpt>
      <trkpt lat="10.31415" lon="123.86718">
        <ele>97.69</ele>
      </trkpt>
      <trkpt lat="10.31419" lon="123.86715">
        <ele>98.27</ele>
      </trkpt>
      <trkpt lat="10.31422" lon="123.86715">
        <ele>98.24</ele>
      </trkpt>
      <trkpt lat="10.31448" lon="123.86701">
        <ele>97.61</ele>
      </trkpt>
      <trkpt lat="10.31452" lon="123.86698">
        <ele>97.05</ele>
      </trkpt>
      <trkpt lat="10.31457" lon="123.86693">
        <ele>96.35</ele>
      </trkpt>
      <trkpt lat="10.31461" lon="123.86688">
        <ele>95.95</ele>
      </trkpt>
      <trkpt lat="10.31464" lon="123.86685">
        <ele>95.27</ele>
      </trkpt>
      <trkpt lat="10.31467" lon="123.86681">
        <ele>94.3</ele>
      </trkpt>
      <trkpt lat="10.3147" lon="123.86677">
        <ele>92.99</ele>
      </trkpt>
      <trkpt lat="10.31475" lon="123.86673">
        <ele>91.59</ele>
      </trkpt>
      <trkpt lat="10.3148" lon="123.86668">
        <ele>91.09</ele>
      </trkpt>
      <trkpt lat="10.31484" lon="123.86663">
        <ele>92.3</ele>
      </trkpt>
      <trkpt lat="10.31484" lon="123.86663">
        <ele>92.3</ele>
      </trkpt>
      <trkpt lat="10.31508" lon="123.86632">
        <ele>101.7</ele>
      </trkpt>
      <trkpt lat="10.31511" lon="123.86628">
        <ele>103.88</ele>
      </trkpt>
      <trkpt lat="10.31515" lon="123.86625">
        <ele>105.97</ele>
      </trkpt>
      <trkpt lat="10.3152" lon="123.86622">
        <ele>108.43</ele>
      </trkpt>
      <trkpt lat="10.31523" lon="123.86617">
        <ele>111.63</ele>
      </trkpt>
      <trkpt lat="10.31523" lon="123.86616">
        <ele>112.14</ele>
      </trkpt>
      <trkpt lat="10.31527" lon="123.86606">
        <ele>116.91</ele>
      </trkpt>
      <trkpt lat="10.31527" lon="123.866">
        <ele>118.24</ele>
      </trkpt>
      <trkpt lat="10.31528" lon="123.86595">
        <ele>119.44</ele>
      </trkpt>
      <trkpt lat="10.31531" lon="123.86591">
        <ele>119.76</ele>
      </trkpt>
      <trkpt lat="10.31535" lon="123.86587">
        <ele>119.91</ele>
      </trkpt>
      <trkpt lat="10.3154" lon="123.86584">
        <ele>119.66</ele>
      </trkpt>
      <trkpt lat="10.31545" lon="123.86582">
        <ele>119.18</ele>
      </trkpt>
      <trkpt lat="10.31545" lon="123.86582">
        <ele>119.18</ele>
      </trkpt>
      <trkpt lat="10.31564" lon="123.86572">
        <ele>122.72</ele>
      </trkpt>
      <trkpt lat="10.31569" lon="123.8657">
        <ele>124.45</ele>
      </trkpt>
      <trkpt lat="10.31574" lon="123.86565">
        <ele>127.36</ele>
      </trkpt>
      <trkpt lat="10.31578" lon="123.86562">
        <ele>129.34</ele>
      </trkpt>
      <trkpt lat="10.31582" lon="123.86558">
        <ele>131.75</ele>
      </trkpt>
      <trkpt lat="10.31587" lon="123.86556">
        <ele>131.25</ele>
      </trkpt>
      <trkpt lat="10.31591" lon="123.86554">
        <ele>129.99</ele>
      </trkpt>
      <trkpt lat="10.31595" lon="123.86551">
        <ele>129.11</ele>
      </trkpt>
      <trkpt lat="10.316" lon="123.86548">
        <ele>128.3</ele>
      </trkpt>
      <trkpt lat="10.31604" lon="123.86546">
        <ele>127.83</ele>
      </trkpt>
      <trkpt lat="10.31608" lon="123.86544">
        <ele>127.61</ele>
      </trkpt>
      <trkpt lat="10.31612" lon="123.86542">
        <ele>127.67</ele>
      </trkpt>
      <trkpt lat="10.31617" lon="123.86539">
        <ele>128.16</ele>
      </trkpt>
      <trkpt lat="10.31621" lon="123.86536">
        <ele>128.64</ele>
      </trkpt>
      <trkpt lat="10.31626" lon="123.86534">
        <ele>128.3</ele>
      </trkpt>
      <trkpt lat="10.3163" lon="123.86532">
        <ele>128.05</ele>
      </trkpt>
      <trkpt lat="10.31635" lon="123.86529">
        <ele>127.73</ele>
      </trkpt>
      <trkpt lat="10.31638" lon="123.86528">
        <ele>127.19</ele>
      </trkpt>
      <trkpt lat="10.31663" lon="123.8652">
        <ele>130.56</ele>
      </trkpt>
      <trkpt lat="10.31669" lon="123.86519">
        <ele>131.01</ele>
      </trkpt>
      <trkpt lat="10.31673" lon="123.86517">
        <ele>131.64</ele>
      </trkpt>
      <trkpt lat="10.31678" lon="123.86516">
        <ele>132.12</ele>
      </trkpt>
      <trkpt lat="10.31683" lon="123.86515">
        <ele>132.62</ele>
      </trkpt>
      <trkpt lat="10.31687" lon="123.86512">
        <ele>133.56</ele>
      </trkpt>
      <trkpt lat="10.31691" lon="123.86509">
        <ele>134.52</ele>
      </trkpt>
      <trkpt lat="10.31695" lon="123.86506">
        <ele>135.58</ele>
      </trkpt>
      <trkpt lat="10.317" lon="123.86503">
        <ele>137.09</ele>
      </trkpt>
      <trkpt lat="10.31704" lon="123.865">
        <ele>138.38</ele>
      </trkpt>
      <trkpt lat="10.31709" lon="123.86498">
        <ele>139.32</ele>
      </trkpt>
      <trkpt lat="10.31716" lon="123.86496">
        <ele>140.69</ele>
      </trkpt>
      <trkpt lat="10.31723" lon="123.86496">
        <ele>141.71</ele>
      </trkpt>
      <trkpt lat="10.31728" lon="123.86495">
        <ele>141.84</ele>
      </trkpt>
      <trkpt lat="10.31729" lon="123.86494">
        <ele>142.05</ele>
      </trkpt>
      <trkpt lat="10.31745" lon="123.86487">
        <ele>144.06</ele>
      </trkpt>
      <trkpt lat="10.3175" lon="123.86484">
        <ele>145.18</ele>
      </trkpt>
      <trkpt lat="10.31753" lon="123.86481">
        <ele>146.27</ele>
      </trkpt>
      <trkpt lat="10.31756" lon="123.86477">
        <ele>147.77</ele>
      </trkpt>
      <trkpt lat="10.3176" lon="123.86474">
        <ele>149.07</ele>
      </trkpt>
      <trkpt lat="10.31765" lon="123.86472">
        <ele>150.12</ele>
      </trkpt>
      <trkpt lat="10.31769" lon="123.86471">
        <ele>150.69</ele>
      </trkpt>
      <trkpt lat="10.31774" lon="123.8647">
        <ele>151.48</ele>
      </trkpt>
      <trkpt lat="10.31779" lon="123.86468">
        <ele>152.95</ele>
      </trkpt>
      <trkpt lat="10.31784" lon="123.86467">
        <ele>154.5</ele>
      </trkpt>
      <trkpt lat="10.31788" lon="123.86466">
        <ele>155.84</ele>
      </trkpt>
      <trkpt lat="10.31792" lon="123.86462">
        <ele>158.5</ele>
      </trkpt>
      <trkpt lat="10.31796" lon="123.86459">
        <ele>160.8</ele>
      </trkpt>
      <trkpt lat="10.31801" lon="123.86456">
        <ele>163.42</ele>
      </trkpt>
      <trkpt lat="10.31806" lon="123.86454">
        <ele>165.45</ele>
      </trkpt>
      <trkpt lat="10.31811" lon="123.86453">
        <ele>165.08</ele>
      </trkpt>
      <trkpt lat="10.31811" lon="123.86453">
        <ele>165.08</ele>
      </trkpt>
      <trkpt lat="10.31824" lon="123.86448">
        <ele>165.1</ele>
      </trkpt>
      <trkpt lat="10.31827" lon="123.86444">
        <ele>166.33</ele>
      </trkpt>
      <trkpt lat="10.31831" lon="123.8644">
        <ele>167.42</ele>
      </trkpt>
      <trkpt lat="10.31834" lon="123.86437">
        <ele>168.45</ele>
      </trkpt>
      <trkpt lat="10.31837" lon="123.86433">
        <ele>170.08</ele>
      </trkpt>
      <trkpt lat="10.3184" lon="123.8643">
        <ele>171.14</ele>
      </trkpt>
      <trkpt lat="10.31843" lon="123.86426">
        <ele>172.48</ele>
      </trkpt>
      <trkpt lat="10.31847" lon="123.86423">
        <ele>173.14</ele>
      </trkpt>
      <trkpt lat="10.31849" lon="123.86418">
        <ele>174.69</ele>
      </trkpt>
      <trkpt lat="10.3185" lon="123.86414">
        <ele>176.32</ele>
      </trkpt>
      <trkpt lat="10.31848" lon="123.86409">
        <ele>179.21</ele>
      </trkpt>
      <trkpt lat="10.31846" lon="123.86404">
        <ele>182.14</ele>
      </trkpt>
      <trkpt lat="10.31846" lon="123.864">
        <ele>184.17</ele>
      </trkpt>
      <trkpt lat="10.31846" lon="123.86399">
        <ele>184.68</ele>
      </trkpt>
      <trkpt lat="10.31858" lon="123.86355">
        <ele>196.1</ele>
      </trkpt>
      <trkpt lat="10.31858" lon="123.86355">
        <ele>196.1</ele>
      </trkpt>
      <trkpt lat="10.31862" lon="123.86324">
        <ele>202.69</ele>
      </trkpt>
      <trkpt lat="10.31863" lon="123.86319">
        <ele>203.76</ele>
      </trkpt>
      <trkpt lat="10.31865" lon="123.86314">
        <ele>205.19</ele>
      </trkpt>
      <trkpt lat="10.31868" lon="123.86311">
        <ele>206.62</ele>
      </trkpt>
      <trkpt lat="10.31868" lon="123.86305">
        <ele>208.28</ele>
      </trkpt>
      <trkpt lat="10.31868" lon="123.86303">
        <ele>208.44</ele>
      </trkpt>
      <trkpt lat="10.31866" lon="123.86277">
        <ele>209.91</ele>
      </trkpt>
      <trkpt lat="10.31866" lon="123.86272">
        <ele>210.88</ele>
      </trkpt>
      <trkpt lat="10.31867" lon="123.86267">
        <ele>212.33</ele>
      </trkpt>
      <trkpt lat="10.31869" lon="123.86262">
        <ele>214.4</ele>
      </trkpt>
      <trkpt lat="10.31871" lon="123.86258">
        <ele>216.44</ele>
      </trkpt>
      <trkpt lat="10.31872" lon="123.86254">
        <ele>218.03</ele>
      </trkpt>
      <trkpt lat="10.3188" lon="123.86236">
        <ele>227.32</ele>
      </trkpt>
      <trkpt lat="10.3188" lon="123.8623">
        <ele>228.65</ele>
      </trkpt>
      <trkpt lat="10.31881" lon="123.86225">
        <ele>230.69</ele>
      </trkpt>
      <trkpt lat="10.31883" lon="123.8622">
        <ele>233.51</ele>
      </trkpt>
      <trkpt lat="10.31886" lon="123.86215">
        <ele>236.7</ele>
      </trkpt>
      <trkpt lat="10.31888" lon="123.86211">
        <ele>238.66</ele>
      </trkpt>
      <trkpt lat="10.31889" lon="123.8621">
        <ele>239.47</ele>
      </trkpt>
      <trkpt lat="10.319" lon="123.86194">
        <ele>243.24</ele>
      </trkpt>
      <trkpt lat="10.31904" lon="123.86192">
        <ele>244.62</ele>
      </trkpt>
      <trkpt lat="10.3191" lon="123.86191">
        <ele>246.52</ele>
      </trkpt>
      <trkpt lat="10.31912" lon="123.86186">
        <ele>247.77</ele>
      </trkpt>
      <trkpt lat="10.31912" lon="123.86181">
        <ele>248.43</ele>
      </trkpt>
      <trkpt lat="10.31913" lon="123.86176">
        <ele>249.42</ele>
      </trkpt>
      <trkpt lat="10.31915" lon="123.86172">
        <ele>250.66</ele>
      </trkpt>
      <trkpt lat="10.31915" lon="123.86166">
        <ele>251.63</ele>
      </trkpt>
      <trkpt lat="10.31916" lon="123.86166">
        <ele>252.0</ele>
      </trkpt>
      <trkpt lat="10.31921" lon="123.86149">
        <ele>259.85</ele>
      </trkpt>
      <trkpt lat="10.31923" lon="123.86144">
        <ele>262.05</ele>
      </trkpt>
      <trkpt lat="10.31924" lon="123.8614">
        <ele>263.52</ele>
      </trkpt>
      <trkpt lat="10.31924" lon="123.86135">
        <ele>264.36</ele>
      </trkpt>
      <trkpt lat="10.31925" lon="123.8613">
        <ele>265.38</ele>
      </trkpt>
      <trkpt lat="10.31927" lon="123.86125">
        <ele>266.96</ele>
      </trkpt>
      <trkpt lat="10.31928" lon="123.86121">
        <ele>268.13</ele>
      </trkpt>
      <trkpt lat="10.3193" lon="123.86116">
        <ele>270.14</ele>
      </trkpt>
      <trkpt lat="10.31935" lon="123.861">
        <ele>275.27</ele>
      </trkpt>
      <trkpt lat="10.3194" lon="123.86096">
        <ele>279.39</ele>
      </trkpt>
      <trkpt lat="10.31945" lon="123.86094">
        <ele>283.15</ele>
      </trkpt>
      <trkpt lat="10.31949" lon="123.86092">
        <ele>283.97</ele>
      </trkpt>
      <trkpt lat="10.31954" lon="123.8609">
        <ele>284.82</ele>
      </trkpt>
      <trkpt lat="10.31959" lon="123.86087">
        <ele>285.66</ele>
      </trkpt>
      <trkpt lat="10.31964" lon="123.86085">
        <ele>286.28</ele>
      </trkpt>
      <trkpt lat="10.31968" lon="123.86082">
        <ele>286.41</ele>
      </trkpt>
      <trkpt lat="10.31973" lon="123.86081">
        <ele>286.64</ele>
      </trkpt>
      <trkpt lat="10.31979" lon="123.86078">
        <ele>287.21</ele>
      </trkpt>
      <trkpt lat="10.31984" lon="123.86075">
        <ele>287.7</ele>
      </trkpt>
      <trkpt lat="10.31989" lon="123.86073">
        <ele>288.46</ele>
      </trkpt>
      <trkpt lat="10.31992" lon="123.86071">
        <ele>288.84</ele>
      </trkpt>
      <trkpt lat="10.32002" lon="123.86069">
        <ele>290.85</ele>
      </trkpt>
      <trkpt lat="10.32005" lon="123.86065">
        <ele>291.1</ele>
      </trkpt>
      <trkpt lat="10.32006" lon="123.8606">
        <ele>290.89</ele>
      </trkpt>
      <trkpt lat="10.32005" lon="123.86056">
        <ele>290.3</ele>
      </trkpt>
      <trkpt lat="10.32003" lon="123.8605">
        <ele>291.43</ele>
      </trkpt>
      <trkpt lat="10.32001" lon="123.86046">
        <ele>292.27</ele>
      </trkpt>
      <trkpt lat="10.31999" lon="123.86041">
        <ele>293.33</ele>
      </trkpt>
      <trkpt lat="10.31998" lon="123.86039">
        <ele>293.57</ele>
      </trkpt>
      <trkpt lat="10.31996" lon="123.8602">
        <ele>297.73</ele>
      </trkpt>
      <trkpt lat="10.31992" lon="123.86016">
        <ele>296.99</ele>
      </trkpt>
      <trkpt lat="10.31988" lon="123.86013">
        <ele>296.19</ele>
      </trkpt>
      <trkpt lat="10.31984" lon="123.8601">
        <ele>295.56</ele>
      </trkpt>
      <trkpt lat="10.31982" lon="123.86005">
        <ele>296.33</ele>
      </trkpt>
      <trkpt lat="10.31984" lon="123.85999">
        <ele>298.51</ele>
      </trkpt>
      <trkpt lat="10.31985" lon="123.85995">
        <ele>299.23</ele>
      </trkpt>
      <trkpt lat="10.31997" lon="123.85982">
        <ele>303.57</ele>
      </trkpt>
      <trkpt lat="10.31998" lon="123.85977">
        <ele>304.2</ele>
      </trkpt>
      <trkpt lat="10.31998" lon="123.85973">
        <ele>304.51</ele>
      </trkpt>
      <trkpt lat="10.31999" lon="123.85968">
        <ele>305.25</ele>
      </trkpt>
      <trkpt lat="10.32" lon="123.85964">
        <ele>305.89</ele>
      </trkpt>
      <trkpt lat="10.32001" lon="123.85959">
        <ele>306.33</ele>
      </trkpt>
      <trkpt lat="10.32002" lon="123.85957">
        <ele>306.48</ele>
      </trkpt>
      <trkpt lat="10.32004" lon="123.8595">
        <ele>307.26</ele>
      </trkpt>
      <trkpt lat="10.32007" lon="123.85946">
        <ele>307.76</ele>
      </trkpt>
      <trkpt lat="10.32007" lon="123.85946">
        <ele>307.76</ele>
      </trkpt>
      <trkpt lat="10.32008" lon="123.85942">
        <ele>308.06</ele>
      </trkpt>
      <trkpt lat="10.32008" lon="123.85942">
        <ele>308.06</ele>
      </trkpt>
      <trkpt lat="10.32008" lon="123.85936">
        <ele>308.22</ele>
      </trkpt>
      <trkpt lat="10.32008" lon="123.85936">
        <ele>308.22</ele>
      </trkpt>
      <trkpt lat="10.3201" lon="123.85932">
        <ele>308.52</ele>
      </trkpt>
      <trkpt lat="10.3201" lon="123.85932">
        <ele>308.52</ele>
      </trkpt>
      <trkpt lat="10.32014" lon="123.85929">
        <ele>309.13</ele>
      </trkpt>
      <trkpt lat="10.32015" lon="123.85926">
        <ele>309.49</ele>
      </trkpt>
      <trkpt lat="10.32016" lon="123.8592">
        <ele>310.16</ele>
      </trkpt>
      <trkpt lat="10.32015" lon="123.85916">
        <ele>310.3</ele>
      </trkpt>
      <trkpt lat="10.3201" lon="123.85912">
        <ele>309.56</ele>
      </trkpt>
      <trkpt lat="10.3201" lon="123.85912">
        <ele>309.56</ele>
      </trkpt>
      <trkpt lat="10.32003" lon="123.85908">
        <ele>308.31</ele>
      </trkpt>
      <trkpt lat="10.32003" lon="123.85908">
        <ele>308.31</ele>
      </trkpt>
      <trkpt lat="10.32" lon="123.85904">
        <ele>307.91</ele>
      </trkpt>
      <trkpt lat="10.32" lon="123.85904">
        <ele>307.91</ele>
      </trkpt>
      <trkpt lat="10.31995" lon="123.859">
        <ele>308.09</ele>
      </trkpt>
      <trkpt lat="10.31995" lon="123.859">
        <ele>308.09</ele>
      </trkpt>
      <trkpt lat="10.31988" lon="123.85897">
        <ele>308.34</ele>
      </trkpt>
      <trkpt lat="10.31988" lon="123.85897">
        <ele>308.34</ele>
      </trkpt>
      <trkpt lat="10.31985" lon="123.85893">
        <ele>308.92</ele>
      </trkpt>
      <trkpt lat="10.31985" lon="123.85893">
        <ele>308.92</ele>
      </trkpt>
      <trkpt lat="10.31975" lon="123.85886">
        <ele>310.09</ele>
      </trkpt>
      <trkpt lat="10.31975" lon="123.85886">
        <ele>310.09</ele>
      </trkpt>
      <trkpt lat="10.31969" lon="123.8588">
        <ele>311.22</ele>
      </trkpt>
      <trkpt lat="10.31969" lon="123.8588">
        <ele>311.22</ele>
      </trkpt>
      <trkpt lat="10.31966" lon="123.85878">
        <ele>311.86</ele>
      </trkpt>
      <trkpt lat="10.31961" lon="123.85875">
        <ele>312.82</ele>
      </trkpt>
      <trkpt lat="10.31957" lon="123.85871">
        <ele>313.52</ele>
      </trkpt>
      <trkpt lat="10.31951" lon="123.85868">
        <ele>314.36</ele>
      </trkpt>
      <trkpt lat="10.3195" lon="123.85868">
        <ele>314.5</ele>
      </trkpt>
      <trkpt lat="10.31946" lon="123.85865">
        <ele>314.95</ele>
      </trkpt>
      <trkpt lat="10.31941" lon="123.85861">
        <ele>314.56</ele>
      </trkpt>
      <trkpt lat="10.31941" lon="123.8586">
        <ele>315.07</ele>
      </trkpt>
      <trkpt lat="10.31937" lon="123.85857">
        <ele>316.42</ele>
      </trkpt>
      <trkpt lat="10.31932" lon="123.85854">
        <ele>318.34</ele>
      </trkpt>
      <trkpt lat="10.31931" lon="123.85854">
        <ele>318.37</ele>
      </trkpt>
      <trkpt lat="10.31924" lon="123.85848">
        <ele>323.97</ele>
      </trkpt>
      <trkpt lat="10.31921" lon="123.85845">
        <ele>327.4</ele>
      </trkpt>
      <trkpt lat="10.3192" lon="123.85845">
        <ele>327.63</ele>
      </trkpt>
      <trkpt lat="10.31918" lon="123.85839">
        <ele>334.38</ele>
      </trkpt>
      <trkpt lat="10.31918" lon="123.85839">
        <ele>334.38</ele>
      </trkpt>
      <trkpt lat="10.31914" lon="123.85831">
        <ele>344.05</ele>
      </trkpt>
      <trkpt lat="10.31911" lon="123.85828">
        <ele>347.49</ele>
      </trkpt>
      <trkpt lat="10.3191" lon="123.85828">
        <ele>348.4</ele>
      </trkpt>
      <trkpt lat="10.31902" lon="123.85821">
        <ele>356.9</ele>
      </trkpt>
      <trkpt lat="10.31902" lon="123.85821">
        <ele>356.9</ele>
      </trkpt>
      <trkpt lat="10.31894" lon="123.85815">
        <ele>364.68</ele>
      </trkpt>
      <trkpt lat="10.31889" lon="123.85813">
        <ele>369.1</ele>
      </trkpt>
      <trkpt lat="10.31889" lon="123.85813">
        <ele>369.1</ele>
      </trkpt>
      <trkpt lat="10.31885" lon="123.85812">
        <ele>369.5</ele>
      </trkpt>
      <trkpt lat="10.31885" lon="123.85812">
        <ele>369.5</ele>
      </trkpt>
      <trkpt lat="10.31883" lon="123.8581">
        <ele>369.72</ele>
      </trkpt>
      <trkpt lat="10.31883" lon="123.8581">
        <ele>369.72</ele>
      </trkpt>
      <trkpt lat="10.31882" lon="123.85807">
        <ele>369.92</ele>
      </trkpt>
      <trkpt lat="10.31883" lon="123.85803">
        <ele>368.55</ele>
      </trkpt>
      <trkpt lat="10.31885" lon="123.858">
        <ele>366.56</ele>
      </trkpt>
      <trkpt lat="10.31887" lon="123.85798">
        <ele>364.93</ele>
      </trkpt>
      <trkpt lat="10.31892" lon="123.85796">
        <ele>360.77</ele>
      </trkpt>
      <trkpt lat="10.31892" lon="123.85796">
        <ele>360.77</ele>
      </trkpt>
      <trkpt lat="10.31901" lon="123.85795">
        <ele>353.31</ele>
      </trkpt>
      <trkpt lat="10.31901" lon="123.85795">
        <ele>353.31</ele>
      </trkpt>
      <trkpt lat="10.31912" lon="123.85796">
        <ele>345.67</ele>
      </trkpt>
      <trkpt lat="10.31912" lon="123.85796">
        <ele>345.67</ele>
      </trkpt>
      <trkpt lat="10.31923" lon="123.85797">
        <ele>339.55</ele>
      </trkpt>
      <trkpt lat="10.31923" lon="123.85797">
        <ele>339.55</ele>
      </trkpt>
      <trkpt lat="10.31932" lon="123.85798">
        <ele>335.55</ele>
      </trkpt>
      <trkpt lat="10.31935" lon="123.85796">
        <ele>332.93</ele>
      </trkpt>
      <trkpt lat="10.31937" lon="123.85794">
        <ele>330.86</ele>
      </trkpt>
      <trkpt lat="10.31937" lon="123.85793">
        <ele>330.33</ele>
      </trkpt>
      <trkpt lat="10.31939" lon="123.85788">
        <ele>326.72</ele>
      </trkpt>
      <trkpt lat="10.31939" lon="123.85788">
        <ele>326.72</ele>
      </trkpt>
      <trkpt lat="10.31941" lon="123.85782">
        <ele>322.67</ele>
      </trkpt>
      <trkpt lat="10.31941" lon="123.85782">
        <ele>322.67</ele>
      </trkpt>
      <trkpt lat="10.31943" lon="123.85776">
        <ele>316.87</ele>
      </trkpt>
      <trkpt lat="10.31945" lon="123.85771">
        <ele>308.09</ele>
      </trkpt>
      <trkpt lat="10.31946" lon="123.85765">
        <ele>298.28</ele>
      </trkpt>
      <trkpt lat="10.31946" lon="123.85765">
        <ele>298.28</ele>
      </trkpt>
      <trkpt lat="10.31949" lon="123.8576">
        <ele>289.47</ele>
      </trkpt>
      <trkpt lat="10.3195" lon="123.85754">
        <ele>279.71</ele>
      </trkpt>
      <trkpt lat="10.31952" lon="123.85749">
        <ele>272.8</ele>
      </trkpt>
      <trkpt lat="10.31954" lon="123.85744">
        <ele>272.02</ele>
      </trkpt>
      <trkpt lat="10.31959" lon="123.85739">
        <ele>269.96</ele>
      </trkpt>
      <trkpt lat="10.3196" lon="123.85736">
        <ele>269.33</ele>
      </trkpt>
      <trkpt lat="10.31965" lon="123.85728">
        <ele>266.36</ele>
      </trkpt>
      <trkpt lat="10.31965" lon="123.85728">
        <ele>266.36</ele>
      </trkpt>
      <trkpt lat="10.31968" lon="123.85721">
        <ele>263.57</ele>
      </trkpt>
      <trkpt lat="10.31968" lon="123.85721">
        <ele>263.57</ele>
      </trkpt>
      <trkpt lat="10.3197" lon="123.85718">
        <ele>261.17</ele>
      </trkpt>
      <trkpt lat="10.3197" lon="123.85718">
        <ele>261.17</ele>
      </trkpt>
      <trkpt lat="10.31971" lon="123.85716">
        <ele>259.72</ele>
      </trkpt>
      <trkpt lat="10.31971" lon="123.85716">
        <ele>259.72</ele>
      </trkpt>
      <trkpt lat="10.31972" lon="123.85716">
        <ele>259.2</ele>
      </trkpt>
      <trkpt lat="10.31973" lon="123.85716">
        <ele>258.78</ele>
      </trkpt>
      <trkpt lat="10.31974" lon="123.85718">
        <ele>259.3</ele>
      </trkpt>
      <trkpt lat="10.31974" lon="123.85718">
        <ele>259.3</ele>
      </trkpt>
      <trkpt lat="10.31974" lon="123.85722">
        <ele>261.13</ele>
      </trkpt>
      <trkpt lat="10.31974" lon="123.85722">
        <ele>261.13</ele>
      </trkpt>
      <trkpt lat="10.31977" lon="123.85728">
        <ele>261.19</ele>
      </trkpt>
      <trkpt lat="10.31977" lon="123.85728">
        <ele>261.19</ele>
      </trkpt>
      <trkpt lat="10.31979" lon="123.8573">
        <ele>260.88</ele>
      </trkpt>
      <trkpt lat="10.3198" lon="123.85731">
        <ele>260.75</ele>
      </trkpt>
      <trkpt lat="10.31983" lon="123.8573">
        <ele>259.4</ele>
      </trkpt>
      <trkpt lat="10.31983" lon="123.8573">
        <ele>259.4</ele>
      </trkpt>
      <trkpt lat="10.31986" lon="123.85728">
        <ele>257.71</ele>
      </trkpt>
      <trkpt lat="10.31986" lon="123.85728">
        <ele>257.71</ele>
      </trkpt>
      <trkpt lat="10.3199" lon="123.85722">
        <ele>254.24</ele>
      </trkpt>
      <trkpt lat="10.3199" lon="123.85722">
        <ele>254.24</ele>
      </trkpt>
      <trkpt lat="10.31994" lon="123.85719">
        <ele>251.54</ele>
      </trkpt>
      <trkpt lat="10.31994" lon="123.85719">
        <ele>251.54</ele>
      </trkpt>
      <trkpt lat="10.31997" lon="123.85715">
        <ele>249.08</ele>
      </trkpt>
      <trkpt lat="10.31997" lon="123.85715">
        <ele>249.08</ele>
      </trkpt>
      <trkpt lat="10.32003" lon="123.85711">
        <ele>247.18</ele>
      </trkpt>
      <trkpt lat="10.32003" lon="123.85711">
        <ele>247.18</ele>
      </trkpt>
      <trkpt lat="10.32006" lon="123.85708">
        <ele>246.77</ele>
      </trkpt>
      <trkpt lat="10.32006" lon="123.85705">
        <ele>245.96</ele>
      </trkpt>
      <trkpt lat="10.32007" lon="123.85703">
        <ele>245.57</ele>
      </trkpt>
      <trkpt lat="10.32007" lon="123.85703">
        <ele>245.57</ele>
      </trkpt>
      <trkpt lat="10.32013" lon="123.85701">
        <ele>246.01</ele>
      </trkpt>
      <trkpt lat="10.32017" lon="123.85698">
        <ele>245.93</ele>
      </trkpt>
      <trkpt lat="10.32019" lon="123.85696">
        <ele>245.79</ele>
      </trkpt>
      <trkpt lat="10.3202" lon="123.85695">
        <ele>245.73</ele>
      </trkpt>
      <trkpt lat="10.32021" lon="123.85692">
        <ele>245.23</ele>
      </trkpt>
      <trkpt lat="10.32021" lon="123.85692">
        <ele>245.23</ele>
      </trkpt>
      <trkpt lat="10.32021" lon="123.85689">
        <ele>244.55</ele>
      </trkpt>
      <trkpt lat="10.32021" lon="123.85689">
        <ele>244.55</ele>
      </trkpt>
      <trkpt lat="10.32022" lon="123.85686">
        <ele>244.02</ele>
      </trkpt>
      <trkpt lat="10.32022" lon="123.85686">
        <ele>244.02</ele>
      </trkpt>
      <trkpt lat="10.32022" lon="123.85682">
        <ele>243.1</ele>
      </trkpt>
      <trkpt lat="10.32022" lon="123.85678">
        <ele>242.19</ele>
      </trkpt>
      <trkpt lat="10.3202" lon="123.85676">
        <ele>241.51</ele>
      </trkpt>
      <trkpt lat="10.3202" lon="123.85676">
        <ele>241.51</ele>
      </trkpt>
      <trkpt lat="10.32016" lon="123.85673">
        <ele>240.46</ele>
      </trkpt>
      <trkpt lat="10.32011" lon="123.85669">
        <ele>239.23</ele>
      </trkpt>
      <trkpt lat="10.32007" lon="123.85665">
        <ele>238.5</ele>
      </trkpt>
      <trkpt lat="10.32005" lon="123.85664">
        <ele>238.39</ele>
      </trkpt>
      <trkpt lat="10.31999" lon="123.85658">
        <ele>238.46</ele>
      </trkpt>
      <trkpt lat="10.31999" lon="123.85656">
        <ele>238.52</ele>
      </trkpt>
      <trkpt lat="10.31998" lon="123.85651">
        <ele>238.8</ele>
      </trkpt>
      <trkpt lat="10.31997" lon="123.85647">
        <ele>239.02</ele>
      </trkpt>
      <trkpt lat="10.31997" lon="123.85646">
        <ele>239.04</ele>
      </trkpt>
      <trkpt lat="10.31994" lon="123.85641">
        <ele>239.41</ele>
      </trkpt>
      <trkpt lat="10.31992" lon="123.85638">
        <ele>239.32</ele>
      </trkpt>
      <trkpt lat="10.31992" lon="123.85634">
        <ele>238.14</ele>
      </trkpt>
      <trkpt lat="10.31993" lon="123.85632">
        <ele>237.46</ele>
      </trkpt>
      <trkpt lat="10.31994" lon="123.85631">
        <ele>237.06</ele>
      </trkpt>
      <trkpt lat="10.31996" lon="123.8563">
        <ele>236.55</ele>
      </trkpt>
      <trkpt lat="10.31999" lon="123.85628">
        <ele>235.59</ele>
      </trkpt>
      <trkpt lat="10.31999" lon="123.85628">
        <ele>235.59</ele>
      </trkpt>
      <trkpt lat="10.32" lon="123.85623">
        <ele>233.85</ele>
      </trkpt>
      <trkpt lat="10.32" lon="123.85623">
        <ele>233.85</ele>
      </trkpt>
      <trkpt lat="10.32004" lon="123.85616">
        <ele>231.3</ele>
      </trkpt>
      <trkpt lat="10.32004" lon="123.85616">
        <ele>231.3</ele>
      </trkpt>
      <trkpt lat="10.32005" lon="123.8561">
        <ele>229.19</ele>
      </trkpt>
      <trkpt lat="10.32005" lon="123.8561">
        <ele>229.19</ele>
      </trkpt>
      <trkpt lat="10.32006" lon="123.85601">
        <ele>225.38</ele>
      </trkpt>
      <trkpt lat="10.32006" lon="123.85601">
        <ele>225.38</ele>
      </trkpt>
      <trkpt lat="10.32009" lon="123.85594">
        <ele>221.79</ele>
      </trkpt>
      <trkpt lat="10.32009" lon="123.85594">
        <ele>221.79</ele>
      </trkpt>
      <trkpt lat="10.3201" lon="123.85592">
        <ele>220.67</ele>
      </trkpt>
      <trkpt lat="10.32012" lon="123.85587">
        <ele>217.83</ele>
      </trkpt>
      <trkpt lat="10.32016" lon="123.85582">
        <ele>214.27</ele>
      </trkpt>
      <trkpt lat="10.32018" lon="123.85577">
        <ele>211.65</ele>
      </trkpt>
      <trkpt lat="10.3202" lon="123.85573">
        <ele>209.49</ele>
      </trkpt>
      <trkpt lat="10.32023" lon="123.85565">
        <ele>205.61</ele>
      </trkpt>
      <trkpt lat="10.32023" lon="123.85565">
        <ele>205.61</ele>
      </trkpt>
      <trkpt lat="10.32024" lon="123.85555">
        <ele>201.62</ele>
      </trkpt>
      <trkpt lat="10.32024" lon="123.85555">
        <ele>201.62</ele>
      </trkpt>
      <trkpt lat="10.32027" lon="123.85549">
        <ele>199.0</ele>
      </trkpt>
      <trkpt lat="10.32027" lon="123.85549">
        <ele>199.0</ele>
      </trkpt>
      <trkpt lat="10.32033" lon="123.85542">
        <ele>194.93</ele>
      </trkpt>
      <trkpt lat="10.32033" lon="123.85542">
        <ele>194.93</ele>
      </trkpt>
      <trkpt lat="10.32034" lon="123.85536">
        <ele>192.37</ele>
      </trkpt>
      <trkpt lat="10.32034" lon="123.85536">
        <ele>192.37</ele>
      </trkpt>
      <trkpt lat="10.32032" lon="123.85528">
        <ele>190.26</ele>
      </trkpt>
      <trkpt lat="10.32032" lon="123.85528">
        <ele>190.26</ele>
      </trkpt>
      <trkpt lat="10.32035" lon="123.85518">
        <ele>187.93</ele>
      </trkpt>
      <trkpt lat="10.32035" lon="123.85518">
        <ele>187.93</ele>
      </trkpt>
      <trkpt lat="10.32034" lon="123.85509">
        <ele>187.37</ele>
      </trkpt>
      <trkpt lat="10.32034" lon="123.85509">
        <ele>187.37</ele>
      </trkpt>
      <trkpt lat="10.32031" lon="123.85506">
        <ele>187.93</ele>
      </trkpt>
      <trkpt lat="10.32031" lon="123.85506">
        <ele>187.93</ele>
      </trkpt>
      <trkpt lat="10.32031" lon="123.85503">
        <ele>187.56</ele>
      </trkpt>
      <trkpt lat="10.32031" lon="123.85503">
        <ele>187.56</ele>
      </trkpt>
      <trkpt lat="10.32032" lon="123.85499">
        <ele>186.67</ele>
      </trkpt>
      <trkpt lat="10.32032" lon="123.85499">
        <ele>186.67</ele>
      </trkpt>
      <trkpt lat="10.32031" lon="123.85494">
        <ele>185.56</ele>
      </trkpt>
      <trkpt lat="10.32031" lon="123.85494">
        <ele>185.56</ele>
      </trkpt>
      <trkpt lat="10.32029" lon="123.85485">
        <ele>183.47</ele>
      </trkpt>
      <trkpt lat="10.32029" lon="123.85485">
        <ele>183.47</ele>
      </trkpt>
      <trkpt lat="10.32032" lon="123.85481">
        <ele>181.88</ele>
      </trkpt>
      <trkpt lat="10.32032" lon="123.85481">
        <ele>181.88</ele>
      </trkpt>
      <trkpt lat="10.32033" lon="123.85475">
        <ele>180.16</ele>
      </trkpt>
      <trkpt lat="10.32033" lon="123.85475">
        <ele>180.16</ele>
      </trkpt>
      <trkpt lat="10.32034" lon="123.85467">
        <ele>177.41</ele>
      </trkpt>
      <trkpt lat="10.32034" lon="123.85467">
        <ele>177.41</ele>
      </trkpt>
      <trkpt lat="10.32034" lon="123.8546">
        <ele>174.83</ele>
      </trkpt>
      <trkpt lat="10.32034" lon="123.8546">
        <ele>174.83</ele>
      </trkpt>
      <trkpt lat="10.32034" lon="123.85455">
        <ele>172.99</ele>
      </trkpt>
      <trkpt lat="10.32034" lon="123.85448">
        <ele>170.41</ele>
      </trkpt>
      <trkpt lat="10.32034" lon="123.85448">
        <ele>170.41</ele>
      </trkpt>
      <trkpt lat="10.32034" lon="123.85438">
        <ele>168.23</ele>
      </trkpt>
      <trkpt lat="10.32034" lon="123.85438">
        <ele>168.23</ele>
      </trkpt>
      <trkpt lat="10.32036" lon="123.85434">
        <ele>167.42</ele>
      </trkpt>
      <trkpt lat="10.32036" lon="123.85434">
        <ele>167.42</ele>
      </trkpt>
      <trkpt lat="10.32037" lon="123.85423">
        <ele>165.84</ele>
      </trkpt>
      <trkpt lat="10.32037" lon="123.85423">
        <ele>165.84</ele>
      </trkpt>
      <trkpt lat="10.32035" lon="123.85417">
        <ele>165.26</ele>
      </trkpt>
      <trkpt lat="10.32034" lon="123.85413">
        <ele>164.55</ele>
      </trkpt>
      <trkpt lat="10.32036" lon="123.85407">
        <ele>163.19</ele>
      </trkpt>
      <trkpt lat="10.32036" lon="123.85407">
        <ele>163.19</ele>
      </trkpt>
      <trkpt lat="10.32038" lon="123.854">
        <ele>161.8</ele>
      </trkpt>
      <trkpt lat="10.32038" lon="123.854">
        <ele>161.8</ele>
      </trkpt>
      <trkpt lat="10.3204" lon="123.85396">
        <ele>161.11</ele>
      </trkpt>
      <trkpt lat="10.3204" lon="123.85396">
        <ele>161.11</ele>
      </trkpt>
      <trkpt lat="10.32047" lon="123.85392">
        <ele>160.78</ele>
      </trkpt>
      <trkpt lat="10.32047" lon="123.85392">
        <ele>160.78</ele>
      </trkpt>
      <trkpt lat="10.32051" lon="123.85387">
        <ele>159.88</ele>
      </trkpt>
      <trkpt lat="10.32051" lon="123.85387">
        <ele>159.88</ele>
      </trkpt>
      <trkpt lat="10.32056" lon="123.85377">
        <ele>155.78</ele>
      </trkpt>
      <trkpt lat="10.32056" lon="123.85377">
        <ele>155.78</ele>
      </trkpt>
      <trkpt lat="10.32056" lon="123.85377">
        <ele>155.78</ele>
      </trkpt>
      <trkpt lat="10.32058" lon="123.85372">
        <ele>153.19</ele>
      </trkpt>
      <trkpt lat="10.32061" lon="123.85366">
        <ele>149.84</ele>
      </trkpt>
      <trkpt lat="10.32065" lon="123.85362">
        <ele>147.04</ele>
      </trkpt>
      <trkpt lat="10.32065" lon="123.85361">
        <ele>146.58</ele>
      </trkpt>
      <trkpt lat="10.32067" lon="123.85356">
        <ele>144.35</ele>
      </trkpt>
      <trkpt lat="10.32069" lon="123.85351">
        <ele>142.15</ele>
      </trkpt>
      <trkpt lat="10.32073" lon="123.85346">
        <ele>139.51</ele>
      </trkpt>
      <trkpt lat="10.32074" lon="123.85345">
        <ele>138.94</ele>
      </trkpt>
      <trkpt lat="10.32078" lon="123.85337">
        <ele>135.37</ele>
      </trkpt>
      <trkpt lat="10.32078" lon="123.85337">
        <ele>135.37</ele>
      </trkpt>
      <trkpt lat="10.32081" lon="123.85331">
        <ele>133.41</ele>
      </trkpt>
      <trkpt lat="10.32081" lon="123.85331">
        <ele>133.41</ele>
      </trkpt>
      <trkpt lat="10.32083" lon="123.85324">
        <ele>132.73</ele>
      </trkpt>
      <trkpt lat="10.32083" lon="123.85324">
        <ele>132.73</ele>
      </trkpt>
      <trkpt lat="10.32086" lon="123.85319">
        <ele>132.09</ele>
      </trkpt>
      <trkpt lat="10.32086" lon="123.85319">
        <ele>132.09</ele>
      </trkpt>
      <trkpt lat="10.32086" lon="123.85312">
        <ele>131.75</ele>
      </trkpt>
      <trkpt lat="10.32086" lon="123.85312">
        <ele>131.75</ele>
      </trkpt>
      <trkpt lat="10.32083" lon="123.85306">
        <ele>132.06</ele>
      </trkpt>
      <trkpt lat="10.32082" lon="123.85302">
        <ele>131.95</ele>
      </trkpt>
      <trkpt lat="10.32084" lon="123.85298">
        <ele>131.41</ele>
      </trkpt>
      <trkpt lat="10.32084" lon="123.85298">
        <ele>131.41</ele>
      </trkpt>
      <trkpt lat="10.32087" lon="123.85292">
        <ele>131.2</ele>
      </trkpt>
      <trkpt lat="10.32087" lon="123.85292">
        <ele>131.2</ele>
      </trkpt>
      <trkpt lat="10.3209" lon="123.85287">
        <ele>131.63</ele>
      </trkpt>
      <trkpt lat="10.32092" lon="123.85284">
        <ele>132.21</ele>
      </trkpt>
      <trkpt lat="10.32092" lon="123.85284">
        <ele>132.21</ele>
      </trkpt>
      <trkpt lat="10.32093" lon="123.85281">
        <ele>132.76</ele>
      </trkpt>
      <trkpt lat="10.32093" lon="123.8528">
        <ele>132.87</ele>
      </trkpt>
      <trkpt lat="10.32091" lon="123.85276">
        <ele>132.94</ele>
      </trkpt>
      <trkpt lat="10.32091" lon="123.85276">
        <ele>132.94</ele>
      </trkpt>
      <trkpt lat="10.32087" lon="123.85271">
        <ele>133.04</ele>
      </trkpt>
      <trkpt lat="10.32087" lon="123.85271">
        <ele>133.04</ele>
      </trkpt>
      <trkpt lat="10.32078" lon="123.85261">
        <ele>134.59</ele>
      </trkpt>
      <trkpt lat="10.32078" lon="123.85261">
        <ele>134.59</ele>
      </trkpt>
      <trkpt lat="10.32066" lon="123.85256">
        <ele>134.15</ele>
      </trkpt>
      <trkpt lat="10.32059" lon="123.85249">
        <ele>132.96</ele>
      </trkpt>
      <trkpt lat="10.32053" lon="123.85243">
        <ele>133.74</ele>
      </trkpt>
      <trkpt lat="10.32048" lon="123.85241">
        <ele>134.75</ele>
      </trkpt>
      <trkpt lat="10.32043" lon="123.85237">
        <ele>135.23</ele>
      </trkpt>
      <trkpt lat="10.32037" lon="123.85235">
        <ele>135.3</ele>
      </trkpt>
      <trkpt lat="10.32037" lon="123.85235">
        <ele>135.3</ele>
      </trkpt>
      <trkpt lat="10.32034" lon="123.85229">
        <ele>133.96</ele>
      </trkpt>
      <trkpt lat="10.32033" lon="123.85225">
        <ele>132.85</ele>
      </trkpt>
      <trkpt lat="10.32033" lon="123.85222">
        <ele>132.11</ele>
      </trkpt>
      <trkpt lat="10.32032" lon="123.85216">
        <ele>131.44</ele>
      </trkpt>
      <trkpt lat="10.3203" lon="123.85209">
        <ele>130.28</ele>
      </trkpt>
      <trkpt lat="10.32029" lon="123.85203">
        <ele>129.37</ele>
      </trkpt>
      <trkpt lat="10.32029" lon="123.85197">
        <ele>128.78</ele>
      </trkpt>
      <trkpt lat="10.32029" lon="123.8519">
        <ele>128.21</ele>
      </trkpt>
      <trkpt lat="10.32028" lon="123.85186">
        <ele>127.49</ele>
      </trkpt>
      <trkpt lat="10.32028" lon="123.85184">
        <ele>127.34</ele>
      </trkpt>
      <trkpt lat="10.3203" lon="123.85179">
        <ele>127.85</ele>
      </trkpt>
      <trkpt lat="10.32031" lon="123.85173">
        <ele>127.85</ele>
      </trkpt>
      <trkpt lat="10.32031" lon="123.85167">
        <ele>127.42</ele>
      </trkpt>
      <trkpt lat="10.32031" lon="123.85161">
        <ele>127.31</ele>
      </trkpt>
      <trkpt lat="10.3203" lon="123.85155">
        <ele>126.71</ele>
      </trkpt>
      <trkpt lat="10.32028" lon="123.85149">
        <ele>125.49</ele>
      </trkpt>
      <trkpt lat="10.32026" lon="123.85144">
        <ele>124.92</ele>
      </trkpt>
      <trkpt lat="10.32026" lon="123.85143">
        <ele>124.88</ele>
      </trkpt>
      <trkpt lat="10.32023" lon="123.85137">
        <ele>124.48</ele>
      </trkpt>
      <trkpt lat="10.3202" lon="123.85133">
        <ele>124.34</ele>
      </trkpt>
      <trkpt lat="10.32019" lon="123.85126">
        <ele>124.69</ele>
      </trkpt>
      <trkpt lat="10.3202" lon="123.8512">
        <ele>125.35</ele>
      </trkpt>
      <trkpt lat="10.3202" lon="123.85114">
        <ele>125.82</ele>
      </trkpt>
      <trkpt lat="10.3202" lon="123.85108">
        <ele>126.99</ele>
      </trkpt>
      <trkpt lat="10.3202" lon="123.85108">
        <ele>126.99</ele>
      </trkpt>
      <trkpt lat="10.32019" lon="123.85102">
        <ele>128.53</ele>
      </trkpt>
      <trkpt lat="10.32018" lon="123.85095">
        <ele>130.35</ele>
      </trkpt>
      <trkpt lat="10.32017" lon="123.85089">
        <ele>131.83</ele>
      </trkpt>
      <trkpt lat="10.32015" lon="123.85082">
        <ele>133.53</ele>
      </trkpt>
      <trkpt lat="10.32013" lon="123.85077">
        <ele>135.21</ele>
      </trkpt>
      <trkpt lat="10.32007" lon="123.85073">
        <ele>134.28</ele>
      </trkpt>
      <trkpt lat="10.32001" lon="123.85071">
        <ele>132.05</ele>
      </trkpt>
      <trkpt lat="10.31995" lon="123.85072">
        <ele>128.71</ele>
      </trkpt>
      <trkpt lat="10.31989" lon="123.85072">
        <ele>125.65</ele>
      </trkpt>
      <trkpt lat="10.31986" lon="123.85071">
        <ele>124.44</ele>
      </trkpt>
      <trkpt lat="10.31983" lon="123.85071">
        <ele>122.92</ele>
      </trkpt>
      <trkpt lat="10.31978" lon="123.85068">
        <ele>121.41</ele>
      </trkpt>
      <trkpt lat="10.31977" lon="123.85066">
        <ele>121.61</ele>
      </trkpt>
      <trkpt lat="10.31975" lon="123.85062">
        <ele>122.03</ele>
      </trkpt>
      <trkpt lat="10.31974" lon="123.85056">
        <ele>123.67</ele>
      </trkpt>
      <trkpt lat="10.31973" lon="123.85049">
        <ele>124.76</ele>
      </trkpt>
      <trkpt lat="10.31972" lon="123.85048">
        <ele>124.54</ele>
      </trkpt>
      <trkpt lat="10.31971" lon="123.85042">
        <ele>125.44</ele>
      </trkpt>
      <trkpt lat="10.3197" lon="123.85036">
        <ele>126.38</ele>
      </trkpt>
      <trkpt lat="10.31967" lon="123.8503">
        <ele>126.61</ele>
      </trkpt>
      <trkpt lat="10.31965" lon="123.85024">
        <ele>126.27</ele>
      </trkpt>
      <trkpt lat="10.31963" lon="123.85019">
        <ele>125.57</ele>
      </trkpt>
      <trkpt lat="10.31959" lon="123.85014">
        <ele>124.64</ele>
      </trkpt>
      <trkpt lat="10.31958" lon="123.85007">
        <ele>124.7</ele>
      </trkpt>
      <trkpt lat="10.31959" lon="123.85002">
        <ele>124.99</ele>
      </trkpt>
      <trkpt lat="10.31959" lon="123.84997">
        <ele>124.78</ele>
      </trkpt>
      <trkpt lat="10.31959" lon="123.84995">
        <ele>124.59</ele>
      </trkpt>
      <trkpt lat="10.31959" lon="123.84989">
        <ele>124.05</ele>
      </trkpt>
      <trkpt lat="10.31959" lon="123.84983">
        <ele>123.5</ele>
      </trkpt>
      <trkpt lat="10.31957" lon="123.84977">
        <ele>122.87</ele>
      </trkpt>
      <trkpt lat="10.31956" lon="123.8497">
        <ele>122.04</ele>
      </trkpt>
      <trkpt lat="10.31959" lon="123.84963">
        <ele>121.05</ele>
      </trkpt>
      <trkpt lat="10.31962" lon="123.84959">
        <ele>120.68</ele>
      </trkpt>
      <trkpt lat="10.31963" lon="123.84958">
        <ele>120.62</ele>
      </trkpt>
      <trkpt lat="10.31968" lon="123.84951">
        <ele>120.21</ele>
      </trkpt>
      <trkpt lat="10.31968" lon="123.84951">
        <ele>120.21</ele>
      </trkpt>
      <trkpt lat="10.31971" lon="123.8494">
        <ele>119.49</ele>
      </trkpt>
      <trkpt lat="10.31972" lon="123.8494">
        <ele>119.65</ele>
      </trkpt>
      <trkpt lat="10.31975" lon="123.8493">
        <ele>121.16</ele>
      </trkpt>
      <trkpt lat="10.31975" lon="123.8493">
        <ele>121.16</ele>
      </trkpt>
      <trkpt lat="10.31976" lon="123.84928">
        <ele>121.78</ele>
      </trkpt>
      <trkpt lat="10.31977" lon="123.84923">
        <ele>122.15</ele>
      </trkpt>
      <trkpt lat="10.31977" lon="123.84922">
        <ele>122.06</ele>
      </trkpt>
      <trkpt lat="10.31979" lon="123.84917">
        <ele>123.15</ele>
      </trkpt>
      <trkpt lat="10.31979" lon="123.84911">
        <ele>123.23</ele>
      </trkpt>
      <trkpt lat="10.31978" lon="123.84905">
        <ele>122.68</ele>
      </trkpt>
      <trkpt lat="10.31974" lon="123.849">
        <ele>120.31</ele>
      </trkpt>
      <trkpt lat="10.31971" lon="123.84895">
        <ele>119.19</ele>
      </trkpt>
      <trkpt lat="10.31969" lon="123.84889">
        <ele>118.95</ele>
      </trkpt>
      <trkpt lat="10.31969" lon="123.84883">
        <ele>120.02</ele>
      </trkpt>
      <trkpt lat="10.31972" lon="123.84878">
        <ele>121.89</ele>
      </trkpt>
      <trkpt lat="10.31975" lon="123.84873">
        <ele>124.02</ele>
      </trkpt>
      <trkpt lat="10.31979" lon="123.84868">
        <ele>126.32</ele>
      </trkpt>
      <trkpt lat="10.31981" lon="123.84863">
        <ele>127.63</ele>
      </trkpt>
      <trkpt lat="10.31981" lon="123.84863">
        <ele>127.63</ele>
      </trkpt>
      <trkpt lat="10.31984" lon="123.84858">
        <ele>129.2</ele>
      </trkpt>
      <trkpt lat="10.31986" lon="123.84853">
        <ele>130.35</ele>
      </trkpt>
      <trkpt lat="10.31988" lon="123.84847">
        <ele>131.43</ele>
      </trkpt>
      <trkpt lat="10.3199" lon="123.84842">
        <ele>132.25</ele>
      </trkpt>
      <trkpt lat="10.31992" lon="123.84836">
        <ele>132.97</ele>
      </trkpt>
      <trkpt lat="10.31993" lon="123.84831">
        <ele>133.25</ele>
      </trkpt>
      <trkpt lat="10.31994" lon="123.84828">
        <ele>133.3</ele>
      </trkpt>
      <trkpt lat="10.31996" lon="123.84825">
        <ele>133.31</ele>
      </trkpt>
      <trkpt lat="10.31997" lon="123.8482">
        <ele>133.13</ele>
      </trkpt>
      <trkpt lat="10.31999" lon="123.84814">
        <ele>132.7</ele>
      </trkpt>
      <trkpt lat="10.31998" lon="123.84808">
        <ele>132.49</ele>
      </trkpt>
      <trkpt lat="10.31999" lon="123.84802">
        <ele>131.66</ele>
      </trkpt>
      <trkpt lat="10.31999" lon="123.84797">
        <ele>130.93</ele>
      </trkpt>
      <trkpt lat="10.32" lon="123.84773">
        <ele>126.62</ele>
      </trkpt>
      <trkpt lat="10.32" lon="123.84773">
        <ele>126.62</ele>
      </trkpt>
      <trkpt lat="10.31999" lon="123.84767">
        <ele>125.0</ele>
      </trkpt>
      <trkpt lat="10.32002" lon="123.84763">
        <ele>124.17</ele>
      </trkpt>
      <trkpt lat="10.32002" lon="123.84762">
        <ele>123.87</ele>
      </trkpt>
      <trkpt lat="10.32004" lon="123.84759">
        <ele>123.35</ele>
      </trkpt>
      <trkpt lat="10.32004" lon="123.84757">
        <ele>122.74</ele>
      </trkpt>
      <trkpt lat="10.32002" lon="123.84749">
        <ele>120.13</ele>
      </trkpt>
      <trkpt lat="10.32002" lon="123.84749">
        <ele>120.13</ele>
      </trkpt>
      <trkpt lat="10.32002" lon="123.84745">
        <ele>119.5</ele>
      </trkpt>
      <trkpt lat="10.32003" lon="123.84743">
        <ele>119.29</ele>
      </trkpt>
      <trkpt lat="10.32006" lon="123.84738">
        <ele>118.67</ele>
      </trkpt>
      <trkpt lat="10.32006" lon="123.84738">
        <ele>118.67</ele>
      </trkpt>
      <trkpt lat="10.32013" lon="123.84731">
        <ele>117.54</ele>
      </trkpt>
      <trkpt lat="10.32013" lon="123.84731">
        <ele>117.54</ele>
      </trkpt>
      <trkpt lat="10.32019" lon="123.84728">
        <ele>116.86</ele>
      </trkpt>
      <trkpt lat="10.32019" lon="123.84728">
        <ele>116.86</ele>
      </trkpt>
      <trkpt lat="10.32031" lon="123.84726">
        <ele>116.4</ele>
      </trkpt>
      <trkpt lat="10.32031" lon="123.84726">
        <ele>116.4</ele>
      </trkpt>
      <trkpt lat="10.32035" lon="123.84725">
        <ele>116.26</ele>
      </trkpt>
      <trkpt lat="10.32041" lon="123.84723">
        <ele>115.78</ele>
      </trkpt>
      <trkpt lat="10.32046" lon="123.84721">
        <ele>115.46</ele>
      </trkpt>
      <trkpt lat="10.32052" lon="123.84719">
        <ele>115.39</ele>
      </trkpt>
      <trkpt lat="10.32057" lon="123.84716">
        <ele>115.54</ele>
      </trkpt>
      <trkpt lat="10.32063" lon="123.84713">
        <ele>116.99</ele>
      </trkpt>
      <trkpt lat="10.32068" lon="123.8471">
        <ele>118.22</ele>
      </trkpt>
      <trkpt lat="10.32073" lon="123.84706">
        <ele>119.42</ele>
      </trkpt>
      <trkpt lat="10.32078" lon="123.84702">
        <ele>120.73</ele>
      </trkpt>
      <trkpt lat="10.32083" lon="123.84697">
        <ele>122.07</ele>
      </trkpt>
      <trkpt lat="10.32088" lon="123.84693">
        <ele>122.8</ele>
      </trkpt>
      <trkpt lat="10.32088" lon="123.84693">
        <ele>122.8</ele>
      </trkpt>
      <trkpt lat="10.32092" lon="123.84688">
        <ele>122.94</ele>
      </trkpt>
      <trkpt lat="10.32095" lon="123.84683">
        <ele>122.87</ele>
      </trkpt>
      <trkpt lat="10.32098" lon="123.84678">
        <ele>122.8</ele>
      </trkpt>
      <trkpt lat="10.32102" lon="123.84673">
        <ele>122.94</ele>
      </trkpt>
      <trkpt lat="10.32107" lon="123.84671">
        <ele>123.74</ele>
      </trkpt>
      <trkpt lat="10.32113" lon="123.8467">
        <ele>124.55</ele>
      </trkpt>
      <trkpt lat="10.32118" lon="123.84668">
        <ele>124.44</ele>
      </trkpt>
      <trkpt lat="10.32124" lon="123.84668">
        <ele>124.66</ele>
      </trkpt>
      <trkpt lat="10.32126" lon="123.84667">
        <ele>124.58</ele>
      </trkpt>
      <trkpt lat="10.3213" lon="123.84666">
        <ele>124.87</ele>
      </trkpt>
      <trkpt lat="10.32136" lon="123.84666">
        <ele>125.12</ele>
      </trkpt>
      <trkpt lat="10.32141" lon="123.84664">
        <ele>126.73</ele>
      </trkpt>
      <trkpt lat="10.32148" lon="123.84665">
        <ele>128.92</ele>
      </trkpt>
      <trkpt lat="10.32153" lon="123.84668">
        <ele>130.03</ele>
      </trkpt>
      <trkpt lat="10.32157" lon="123.84672">
        <ele>131.04</ele>
      </trkpt>
      <trkpt lat="10.32162" lon="123.84676">
        <ele>131.87</ele>
      </trkpt>
      <trkpt lat="10.32166" lon="123.8468">
        <ele>132.0</ele>
      </trkpt>
      <trkpt lat="10.32171" lon="123.84684">
        <ele>133.17</ele>
      </trkpt>
      <trkpt lat="10.32174" lon="123.84689">
        <ele>133.13</ele>
      </trkpt>
      <trkpt lat="10.32177" lon="123.84694">
        <ele>132.85</ele>
      </trkpt>
      <trkpt lat="10.32181" lon="123.84699">
        <ele>134.04</ele>
      </trkpt>
      <trkpt lat="10.32183" lon="123.84703">
        <ele>134.32</ele>
      </trkpt>
      <trkpt lat="10.32183" lon="123.84704">
        <ele>134.25</ele>
      </trkpt>
      <trkpt lat="10.32187" lon="123.84709">
        <ele>134.23</ele>
      </trkpt>
      <trkpt lat="10.3219" lon="123.84714">
        <ele>133.46</ele>
      </trkpt>
      <trkpt lat="10.32193" lon="123.84719">
        <ele>132.1</ele>
      </trkpt>
      <trkpt lat="10.32197" lon="123.84724">
        <ele>132.13</ele>
      </trkpt>
      <trkpt lat="10.32201" lon="123.84728">
        <ele>134.07</ele>
      </trkpt>
      <trkpt lat="10.32204" lon="123.84732">
        <ele>135.62</ele>
      </trkpt>
      <trkpt lat="10.32204" lon="123.84732">
        <ele>135.62</ele>
      </trkpt>
      <trkpt lat="10.32208" lon="123.84737">
        <ele>137.37</ele>
      </trkpt>
      <trkpt lat="10.32211" lon="123.84742">
        <ele>138.75</ele>
      </trkpt>
      <trkpt lat="10.32215" lon="123.84747">
        <ele>140.02</ele>
      </trkpt>
      <trkpt lat="10.32217" lon="123.84753">
        <ele>141.05</ele>
      </trkpt>
      <trkpt lat="10.32219" lon="123.84758">
        <ele>141.8</ele>
      </trkpt>
      <trkpt lat="10.32223" lon="123.84763">
        <ele>142.42</ele>
      </trkpt>
      <trkpt lat="10.32225" lon="123.84769">
        <ele>143.16</ele>
      </trkpt>
      <trkpt lat="10.32228" lon="123.84775">
        <ele>144.05</ele>
      </trkpt>
      <trkpt lat="10.32231" lon="123.84779">
        <ele>144.71</ele>
      </trkpt>
      <trkpt lat="10.32235" lon="123.84784">
        <ele>145.09</ele>
      </trkpt>
      <trkpt lat="10.32238" lon="123.84789">
        <ele>145.15</ele>
      </trkpt>
      <trkpt lat="10.32241" lon="123.84794">
        <ele>144.92</ele>
      </trkpt>
      <trkpt lat="10.32245" lon="123.84799">
        <ele>144.31</ele>
      </trkpt>
      <trkpt lat="10.32248" lon="123.84804">
        <ele>143.5</ele>
      </trkpt>
      <trkpt lat="10.3225" lon="123.84808">
        <ele>143.62</ele>
      </trkpt>
      <trkpt lat="10.32253" lon="123.84813">
        <ele>145.16</ele>
      </trkpt>
      <trkpt lat="10.32252" lon="123.84819">
        <ele>146.5</ele>
      </trkpt>
      <trkpt lat="10.32252" lon="123.84823">
        <ele>147.46</ele>
      </trkpt>
      <trkpt lat="10.32251" lon="123.84829">
        <ele>148.9</ele>
      </trkpt>
      <trkpt lat="10.3225" lon="123.84835">
        <ele>150.06</ele>
      </trkpt>
      <trkpt lat="10.32249" lon="123.84841">
        <ele>150.29</ele>
      </trkpt>
      <trkpt lat="10.32248" lon="123.84846">
        <ele>150.63</ele>
      </trkpt>
      <trkpt lat="10.32246" lon="123.84852">
        <ele>151.4</ele>
      </trkpt>
      <trkpt lat="10.32245" lon="123.84858">
        <ele>152.27</ele>
      </trkpt>
      <trkpt lat="10.32245" lon="123.84864">
        <ele>153.35</ele>
      </trkpt>
      <trkpt lat="10.32244" lon="123.84869">
        <ele>154.93</ele>
      </trkpt>
      <trkpt lat="10.32245" lon="123.84876">
        <ele>156.37</ele>
      </trkpt>
      <trkpt lat="10.32248" lon="123.84881">
        <ele>156.66</ele>
      </trkpt>
      <trkpt lat="10.32252" lon="123.84886">
        <ele>156.67</ele>
      </trkpt>
      <trkpt lat="10.32256" lon="123.8489">
        <ele>155.78</ele>
      </trkpt>
      <trkpt lat="10.32262" lon="123.84893">
        <ele>153.4</ele>
      </trkpt>
      <trkpt lat="10.32267" lon="123.84896">
        <ele>151.31</ele>
      </trkpt>
      <trkpt lat="10.32268" lon="123.84896">
        <ele>150.93</ele>
      </trkpt>
      <trkpt lat="10.32274" lon="123.84898">
        <ele>148.47</ele>
      </trkpt>
      <trkpt lat="10.3228" lon="123.849">
        <ele>146.75</ele>
      </trkpt>
      <trkpt lat="10.32286" lon="123.84903">
        <ele>146.33</ele>
      </trkpt>
      <trkpt lat="10.32291" lon="123.84907">
        <ele>145.88</ele>
      </trkpt>
      <trkpt lat="10.32296" lon="123.8491">
        <ele>145.56</ele>
      </trkpt>
      <trkpt lat="10.32301" lon="123.84914">
        <ele>145.21</ele>
      </trkpt>
      <trkpt lat="10.32307" lon="123.84914">
        <ele>145.23</ele>
      </trkpt>
      <trkpt lat="10.32313" lon="123.84913">
        <ele>145.43</ele>
      </trkpt>
      <trkpt lat="10.32319" lon="123.84912">
        <ele>145.58</ele>
      </trkpt>
      <trkpt lat="10.32324" lon="123.84911">
        <ele>145.67</ele>
      </trkpt>
      <trkpt lat="10.3233" lon="123.8491">
        <ele>145.73</ele>
      </trkpt>
      <trkpt lat="10.32335" lon="123.84909">
        <ele>145.91</ele>
      </trkpt>
      <trkpt lat="10.32341" lon="123.84908">
        <ele>146.58</ele>
      </trkpt>
      <trkpt lat="10.32346" lon="123.84904">
        <ele>147.29</ele>
      </trkpt>
      <trkpt lat="10.32352" lon="123.84901">
        <ele>148.3</ele>
      </trkpt>
      <trkpt lat="10.32357" lon="123.84896">
        <ele>149.5</ele>
      </trkpt>
      <trkpt lat="10.32362" lon="123.84893">
        <ele>150.78</ele>
      </trkpt>
      <trkpt lat="10.32367" lon="123.84889">
        <ele>152.27</ele>
      </trkpt>
      <trkpt lat="10.32373" lon="123.84889">
        <ele>153.57</ele>
      </trkpt>
      <trkpt lat="10.32379" lon="123.84887">
        <ele>155.46</ele>
      </trkpt>
      <trkpt lat="10.32384" lon="123.84885">
        <ele>157.11</ele>
      </trkpt>
      <trkpt lat="10.32384" lon="123.84885">
        <ele>157.11</ele>
      </trkpt>
      <trkpt lat="10.3239" lon="123.84884">
        <ele>158.53</ele>
      </trkpt>
      <trkpt lat="10.32395" lon="123.84882">
        <ele>159.64</ele>
      </trkpt>
      <trkpt lat="10.32401" lon="123.8488">
        <ele>160.87</ele>
      </trkpt>
      <trkpt lat="10.32406" lon="123.84878">
        <ele>161.98</ele>
      </trkpt>
      <trkpt lat="10.32412" lon="123.84878">
        <ele>162.63</ele>
      </trkpt>
      <trkpt lat="10.32418" lon="123.84876">
        <ele>163.84</ele>
      </trkpt>
      <trkpt lat="10.32424" lon="123.84876">
        <ele>164.42</ele>
      </trkpt>
      <trkpt lat="10.32429" lon="123.84875">
        <ele>165.11</ele>
      </trkpt>
      <trkpt lat="10.32436" lon="123.84877">
        <ele>165.41</ele>
      </trkpt>
      <trkpt lat="10.32442" lon="123.84877">
        <ele>166.03</ele>
      </trkpt>
      <trkpt lat="10.32448" lon="123.84878">
        <ele>166.2</ele>
      </trkpt>
      <trkpt lat="10.32448" lon="123.84878">
        <ele>166.2</ele>
      </trkpt>
      <trkpt lat="10.32454" lon="123.84879">
        <ele>166.17</ele>
      </trkpt>
      <trkpt lat="10.3246" lon="123.8488">
        <ele>166.16</ele>
      </trkpt>
      <trkpt lat="10.32467" lon="123.84881">
        <ele>166.2</ele>
      </trkpt>
      <trkpt lat="10.32473" lon="123.84882">
        <ele>166.23</ele>
      </trkpt>
      <trkpt lat="10.32479" lon="123.84884">
        <ele>166.02</ele>
      </trkpt>
      <trkpt lat="10.32485" lon="123.84885">
        <ele>165.81</ele>
      </trkpt>
      <trkpt lat="10.32491" lon="123.84886">
        <ele>165.57</ele>
      </trkpt>
      <trkpt lat="10.32498" lon="123.84887">
        <ele>165.27</ele>
      </trkpt>
      <trkpt lat="10.32503" lon="123.84887">
        <ele>164.7</ele>
      </trkpt>
      <trkpt lat="10.32509" lon="123.84886">
        <ele>163.86</ele>
      </trkpt>
      <trkpt lat="10.32515" lon="123.84887">
        <ele>162.69</ele>
      </trkpt>
      <trkpt lat="10.32522" lon="123.84888">
        <ele>161.26</ele>
      </trkpt>
      <trkpt lat="10.32527" lon="123.84888">
        <ele>160.39</ele>
      </trkpt>
      <trkpt lat="10.32534" lon="123.84889">
        <ele>157.1</ele>
      </trkpt>
      <trkpt lat="10.3254" lon="123.8489">
        <ele>154.52</ele>
      </trkpt>
      <trkpt lat="10.32546" lon="123.8489">
        <ele>151.79</ele>
      </trkpt>
      <trkpt lat="10.32548" lon="123.8489">
        <ele>150.88</ele>
      </trkpt>
      <trkpt lat="10.32569" lon="123.84892">
        <ele>149.09</ele>
      </trkpt>
      <trkpt lat="10.32569" lon="123.84892">
        <ele>149.09</ele>
      </trkpt>
      <trkpt lat="10.32583" lon="123.84892">
        <ele>149.98</ele>
      </trkpt>
      <trkpt lat="10.32583" lon="123.84892">
        <ele>149.98</ele>
      </trkpt>
      <trkpt lat="10.32593" lon="123.84895">
        <ele>151.2</ele>
      </trkpt>
      <trkpt lat="10.32596" lon="123.84898">
        <ele>151.23</ele>
      </trkpt>
      <trkpt lat="10.32597" lon="123.84902">
        <ele>150.83</ele>
      </trkpt>
      <trkpt lat="10.32597" lon="123.84911">
        <ele>149.72</ele>
      </trkpt>
      <trkpt lat="10.32597" lon="123.84911">
        <ele>149.72</ele>
      </trkpt>
      <trkpt lat="10.32597" lon="123.84931">
        <ele>151.36</ele>
      </trkpt>
      <trkpt lat="10.32597" lon="123.84931">
        <ele>151.36</ele>
      </trkpt>
      <trkpt lat="10.32597" lon="123.84932">
        <ele>151.52</ele>
      </trkpt>
      <trkpt lat="10.32596" lon="123.84937">
        <ele>152.54</ele>
      </trkpt>
      <trkpt lat="10.32596" lon="123.84943">
        <ele>153.56</ele>
      </trkpt>
      <trkpt lat="10.32595" lon="123.84949">
        <ele>154.13</ele>
      </trkpt>
      <trkpt lat="10.32595" lon="123.84955">
        <ele>154.22</ele>
      </trkpt>
      <trkpt lat="10.32598" lon="123.84961">
        <ele>153.62</ele>
      </trkpt>
      <trkpt lat="10.32603" lon="123.84964">
        <ele>152.54</ele>
      </trkpt>
      <trkpt lat="10.32609" lon="123.84966">
        <ele>151.25</ele>
      </trkpt>
      <trkpt lat="10.32615" lon="123.84969">
        <ele>151.76</ele>
      </trkpt>
      <trkpt lat="10.3262" lon="123.84972">
        <ele>152.92</ele>
      </trkpt>
      <trkpt lat="10.32626" lon="123.84976">
        <ele>155.48</ele>
      </trkpt>
      <trkpt lat="10.3263" lon="123.8498">
        <ele>157.49</ele>
      </trkpt>
      <trkpt lat="10.3263" lon="123.8498">
        <ele>157.49</ele>
      </trkpt>
      <trkpt lat="10.32634" lon="123.84984">
        <ele>159.29</ele>
      </trkpt>
      <trkpt lat="10.32639" lon="123.84988">
        <ele>160.99</ele>
      </trkpt>
      <trkpt lat="10.32643" lon="123.84992">
        <ele>162.62</ele>
      </trkpt>
      <trkpt lat="10.32645" lon="123.84998">
        <ele>164.39</ele>
      </trkpt>
      <trkpt lat="10.32647" lon="123.85004">
        <ele>165.59</ele>
      </trkpt>
      <trkpt lat="10.32648" lon="123.8501">
        <ele>166.29</ele>
      </trkpt>
      <trkpt lat="10.32651" lon="123.85016">
        <ele>166.87</ele>
      </trkpt>
      <trkpt lat="10.32656" lon="123.85019">
        <ele>166.93</ele>
      </trkpt>
      <trkpt lat="10.32663" lon="123.85021">
        <ele>166.66</ele>
      </trkpt>
      <trkpt lat="10.32669" lon="123.85022">
        <ele>166.8</ele>
      </trkpt>
      <trkpt lat="10.32675" lon="123.85023">
        <ele>167.7</ele>
      </trkpt>
      <trkpt lat="10.32681" lon="123.85023">
        <ele>168.67</ele>
      </trkpt>
      <trkpt lat="10.32687" lon="123.85024">
        <ele>169.5</ele>
      </trkpt>
      <trkpt lat="10.32692" lon="123.85027">
        <ele>169.78</ele>
      </trkpt>
      <trkpt lat="10.32695" lon="123.85033">
        <ele>169.26</ele>
      </trkpt>
      <trkpt lat="10.32695" lon="123.85039">
        <ele>168.42</ele>
      </trkpt>
      <trkpt lat="10.32693" lon="123.85044">
        <ele>167.55</ele>
      </trkpt>
      <trkpt lat="10.32692" lon="123.8505">
        <ele>166.66</ele>
      </trkpt>
      <trkpt lat="10.32695" lon="123.85056">
        <ele>166.21</ele>
      </trkpt>
      <trkpt lat="10.32699" lon="123.8506">
        <ele>167.7</ele>
      </trkpt>
      <trkpt lat="10.32701" lon="123.85063">
        <ele>168.52</ele>
      </trkpt>
      <trkpt lat="10.32703" lon="123.85064">
        <ele>168.82</ele>
      </trkpt>
      <trkpt lat="10.32708" lon="123.85066">
        <ele>169.31</ele>
      </trkpt>
      <trkpt lat="10.32714" lon="123.85066">
        <ele>169.44</ele>
      </trkpt>
      <trkpt lat="10.3272" lon="123.85066">
        <ele>169.57</ele>
      </trkpt>
      <trkpt lat="10.32725" lon="123.85065">
        <ele>169.16</ele>
      </trkpt>
      <trkpt lat="10.32732" lon="123.85066">
        <ele>167.86</ele>
      </trkpt>
      <trkpt lat="10.32737" lon="123.85066">
        <ele>166.96</ele>
      </trkpt>
      <trkpt lat="10.32743" lon="123.85065">
        <ele>165.92</ele>
      </trkpt>
      <trkpt lat="10.32749" lon="123.85066">
        <ele>164.8</ele>
      </trkpt>
      <trkpt lat="10.32751" lon="123.85066">
        <ele>164.79</ele>
      </trkpt>
      <trkpt lat="10.32772" lon="123.85059">
        <ele>169.83</ele>
      </trkpt>
      <trkpt lat="10.32772" lon="123.85059">
        <ele>169.83</ele>
      </trkpt>
      <trkpt lat="10.32778" lon="123.85058">
        <ele>171.44</ele>
      </trkpt>
      <trkpt lat="10.32782" lon="123.8506">
        <ele>171.85</ele>
      </trkpt>
      <trkpt lat="10.32783" lon="123.8506">
        <ele>172.08</ele>
      </trkpt>
      <trkpt lat="10.32788" lon="123.85064">
        <ele>172.0</ele>
      </trkpt>
      <trkpt lat="10.32788" lon="123.85064">
        <ele>172.0</ele>
      </trkpt>
      <trkpt lat="10.32791" lon="123.8507">
        <ele>170.7</ele>
      </trkpt>
      <trkpt lat="10.32791" lon="123.8507">
        <ele>170.7</ele>
      </trkpt>
      <trkpt lat="10.32792" lon="123.85073">
        <ele>169.9</ele>
      </trkpt>
      <trkpt lat="10.32796" lon="123.85078">
        <ele>168.82</ele>
      </trkpt>
      <trkpt lat="10.32799" lon="123.85082">
        <ele>167.77</ele>
      </trkpt>
      <trkpt lat="10.32801" lon="123.85085">
        <ele>167.59</ele>
      </trkpt>
      <trkpt lat="10.32803" lon="123.85087">
        <ele>167.82</ele>
      </trkpt>
      <trkpt lat="10.32809" lon="123.8509">
        <ele>169.22</ele>
      </trkpt>
      <trkpt lat="10.32814" lon="123.85093">
        <ele>170.7</ele>
      </trkpt>
      <trkpt lat="10.32818" lon="123.85093">
        <ele>171.97</ele>
      </trkpt>
      <trkpt lat="10.32827" lon="123.85097">
        <ele>173.85</ele>
      </trkpt>
      <trkpt lat="10.32831" lon="123.85096">
        <ele>175.23</ele>
      </trkpt>
      <trkpt lat="10.32834" lon="123.85095">
        <ele>176.34</ele>
      </trkpt>
      <trkpt lat="10.32836" lon="123.85092">
        <ele>177.71</ele>
      </trkpt>
      <trkpt lat="10.3284" lon="123.85091">
        <ele>178.82</ele>
      </trkpt>
      <trkpt lat="10.32841" lon="123.8509">
        <ele>179.36</ele>
      </trkpt>
      <trkpt lat="10.32846" lon="123.85088">
        <ele>181.07</ele>
      </trkpt>
      <trkpt lat="10.32846" lon="123.85088">
        <ele>181.07</ele>
      </trkpt>
      <trkpt lat="10.32848" lon="123.85087">
        <ele>181.84</ele>
      </trkpt>
      <trkpt lat="10.32848" lon="123.85087">
        <ele>181.84</ele>
      </trkpt>
      <trkpt lat="10.32849" lon="123.85085">
        <ele>182.78</ele>
      </trkpt>
      <trkpt lat="10.32849" lon="123.85085">
        <ele>182.78</ele>
      </trkpt>
      <trkpt lat="10.32849" lon="123.85083">
        <ele>183.5</ele>
      </trkpt>
      <trkpt lat="10.32849" lon="123.85081">
        <ele>184.21</ele>
      </trkpt>
      <trkpt lat="10.3285" lon="123.85079">
        <ele>185.13</ele>
      </trkpt>
      <trkpt lat="10.3285" lon="123.85079">
        <ele>185.13</ele>
      </trkpt>
      <trkpt lat="10.32854" lon="123.85071">
        <ele>188.69</ele>
      </trkpt>
      <trkpt lat="10.32855" lon="123.85068">
        <ele>189.89</ele>
      </trkpt>
      <trkpt lat="10.32856" lon="123.85063">
        <ele>191.75</ele>
      </trkpt>
      <trkpt lat="10.32856" lon="123.85059">
        <ele>193.1</ele>
      </trkpt>
      <trkpt lat="10.32858" lon="123.85056">
        <ele>194.4</ele>
      </trkpt>
      <trkpt lat="10.32858" lon="123.85056">
        <ele>194.4</ele>
      </trkpt>
      <trkpt lat="10.32862" lon="123.85054">
        <ele>194.58</ele>
      </trkpt>
      <trkpt lat="10.32862" lon="123.85054">
        <ele>194.58</ele>
      </trkpt>
      <trkpt lat="10.32865" lon="123.85049">
        <ele>193.42</ele>
      </trkpt>
      <trkpt lat="10.32868" lon="123.85048">
        <ele>193.01</ele>
      </trkpt>
      <trkpt lat="10.32873" lon="123.85046">
        <ele>192.47</ele>
      </trkpt>
      <trkpt lat="10.32873" lon="123.85046">
        <ele>192.47</ele>
      </trkpt>
      <trkpt lat="10.32879" lon="123.8504">
        <ele>192.23</ele>
      </trkpt>
      <trkpt lat="10.32879" lon="123.8504">
        <ele>192.23</ele>
      </trkpt>
      <trkpt lat="10.32885" lon="123.85035">
        <ele>192.73</ele>
      </trkpt>
      <trkpt lat="10.32884" lon="123.85035">
        <ele>192.67</ele>
      </trkpt>
      <trkpt lat="10.32889" lon="123.85029">
        <ele>193.78</ele>
      </trkpt>
      <trkpt lat="10.32889" lon="123.85029">
        <ele>193.78</ele>
      </trkpt>
      <trkpt lat="10.32892" lon="123.85026">
        <ele>192.8</ele>
      </trkpt>
      <trkpt lat="10.32892" lon="123.85026">
        <ele>192.8</ele>
      </trkpt>
      <trkpt lat="10.32898" lon="123.85023">
        <ele>190.71</ele>
      </trkpt>
      <trkpt lat="10.32898" lon="123.85023">
        <ele>190.71</ele>
      </trkpt>
      <trkpt lat="10.32913" lon="123.85017">
        <ele>186.56</ele>
      </trkpt>
      <trkpt lat="10.32913" lon="123.85017">
        <ele>186.56</ele>
      </trkpt>
      <trkpt lat="10.32923" lon="123.8501">
        <ele>186.32</ele>
      </trkpt>
      <trkpt lat="10.32923" lon="123.8501">
        <ele>186.32</ele>
      </trkpt>
      <trkpt lat="10.32929" lon="123.85003">
        <ele>188.67</ele>
      </trkpt>
      <trkpt lat="10.32929" lon="123.85003">
        <ele>188.67</ele>
      </trkpt>
      <trkpt lat="10.32936" lon="123.84994">
        <ele>194.32</ele>
      </trkpt>
      <trkpt lat="10.32936" lon="123.84994">
        <ele>194.32</ele>
      </trkpt>
      <trkpt lat="10.32937" lon="123.84988">
        <ele>198.04</ele>
      </trkpt>
      <trkpt lat="10.32938" lon="123.84986">
        <ele>199.41</ele>
      </trkpt>
      <trkpt lat="10.32943" lon="123.84982">
        <ele>202.74</ele>
      </trkpt>
      <trkpt lat="10.32943" lon="123.84982">
        <ele>202.74</ele>
      </trkpt>
      <trkpt lat="10.32944" lon="123.84981">
        <ele>203.54</ele>
      </trkpt>
      <trkpt lat="10.32945" lon="123.8498">
        <ele>204.22</ele>
      </trkpt>
      <trkpt lat="10.32945" lon="123.84978">
        <ele>205.46</ele>
      </trkpt>
      <trkpt lat="10.32943" lon="123.84977">
        <ele>205.78</ele>
      </trkpt>
      <trkpt lat="10.3294" lon="123.84974">
        <ele>206.97</ele>
      </trkpt>
      <trkpt lat="10.3294" lon="123.84974">
        <ele>206.97</ele>
      </trkpt>
      <trkpt lat="10.3294" lon="123.84969">
        <ele>209.96</ele>
      </trkpt>
      <trkpt lat="10.3294" lon="123.84969">
        <ele>209.96</ele>
      </trkpt>
      <trkpt lat="10.32943" lon="123.8496">
        <ele>216.1</ele>
      </trkpt>
      <trkpt lat="10.32943" lon="123.8496">
        <ele>216.1</ele>
      </trkpt>
      <trkpt lat="10.32945" lon="123.84953">
        <ele>220.69</ele>
      </trkpt>
      <trkpt lat="10.32945" lon="123.84953">
        <ele>220.69</ele>
      </trkpt>
      <trkpt lat="10.32947" lon="123.84948">
        <ele>223.37</ele>
      </trkpt>
      <trkpt lat="10.32947" lon="123.84948">
        <ele>223.37</ele>
      </trkpt>
      <trkpt lat="10.32947" lon="123.84941">
        <ele>225.47</ele>
      </trkpt>
      <trkpt lat="10.32948" lon="123.84939">
        <ele>225.28</ele>
      </trkpt>
      <trkpt lat="10.32954" lon="123.84931">
        <ele>224.27</ele>
      </trkpt>
      <trkpt lat="10.32954" lon="123.84931">
        <ele>224.27</ele>
      </trkpt>
      <trkpt lat="10.32956" lon="123.84929">
        <ele>223.97</ele>
      </trkpt>
      <trkpt lat="10.32957" lon="123.84927">
        <ele>223.86</ele>
      </trkpt>
      <trkpt lat="10.32958" lon="123.84924">
        <ele>223.79</ele>
      </trkpt>
      <trkpt lat="10.32959" lon="123.84922">
        <ele>223.7</ele>
      </trkpt>
      <trkpt lat="10.32968" lon="123.8492">
        <ele>222.4</ele>
      </trkpt>
      <trkpt lat="10.32968" lon="123.8492">
        <ele>222.4</ele>
      </trkpt>
      <trkpt lat="10.32976" lon="123.84915">
        <ele>223.19</ele>
      </trkpt>
      <trkpt lat="10.32976" lon="123.84915">
        <ele>223.19</ele>
      </trkpt>
      <trkpt lat="10.32981" lon="123.84908">
        <ele>225.49</ele>
      </trkpt>
      <trkpt lat="10.32981" lon="123.84908">
        <ele>225.49</ele>
      </trkpt>
      <trkpt lat="10.32986" lon="123.84904">
        <ele>226.81</ele>
      </trkpt>
      <trkpt lat="10.32986" lon="123.84904">
        <ele>226.81</ele>
      </trkpt>
      <trkpt lat="10.32993" lon="123.84903">
        <ele>227.72</ele>
      </trkpt>
      <trkpt lat="10.32993" lon="123.84903">
        <ele>227.72</ele>
      </trkpt>
      <trkpt lat="10.33002" lon="123.84902">
        <ele>228.46</ele>
      </trkpt>
      <trkpt lat="10.33002" lon="123.84902">
        <ele>228.46</ele>
      </trkpt>
      <trkpt lat="10.33011" lon="123.84898">
        <ele>228.41</ele>
      </trkpt>
      <trkpt lat="10.33014" lon="123.84896">
        <ele>228.49</ele>
      </trkpt>
      <trkpt lat="10.33018" lon="123.84892">
        <ele>228.74</ele>
      </trkpt>
      <trkpt lat="10.33018" lon="123.84892">
        <ele>228.74</ele>
      </trkpt>
      <trkpt lat="10.33021" lon="123.84886">
        <ele>229.81</ele>
      </trkpt>
      <trkpt lat="10.33021" lon="123.84886">
        <ele>229.81</ele>
      </trkpt>
      <trkpt lat="10.33024" lon="123.84879">
        <ele>231.8</ele>
      </trkpt>
      <trkpt lat="10.33024" lon="123.84879">
        <ele>231.8</ele>
      </trkpt>
      <trkpt lat="10.33029" lon="123.84873">
        <ele>233.68</ele>
      </trkpt>
      <trkpt lat="10.33031" lon="123.84871">
        <ele>234.39</ele>
      </trkpt>
      <trkpt lat="10.3304" lon="123.84865">
        <ele>236.5</ele>
      </trkpt>
      <trkpt lat="10.3304" lon="123.84865">
        <ele>236.5</ele>
      </trkpt>
      <trkpt lat="10.33046" lon="123.84862">
        <ele>237.46</ele>
      </trkpt>
      <trkpt lat="10.33046" lon="123.84862">
        <ele>237.46</ele>
      </trkpt>
      <trkpt lat="10.3305" lon="123.84858">
        <ele>238.36</ele>
      </trkpt>
      <trkpt lat="10.33054" lon="123.84853">
        <ele>239.61</ele>
      </trkpt>
      <trkpt lat="10.33058" lon="123.84848">
        <ele>241.09</ele>
      </trkpt>
      <trkpt lat="10.33059" lon="123.84847">
        <ele>241.42</ele>
      </trkpt>
      <trkpt lat="10.33062" lon="123.84844">
        <ele>242.5</ele>
      </trkpt>
      <trkpt lat="10.33065" lon="123.84839">
        <ele>244.2</ele>
      </trkpt>
      <trkpt lat="10.33069" lon="123.84834">
        <ele>246.23</ele>
      </trkpt>
      <trkpt lat="10.33073" lon="123.84829">
        <ele>247.71</ele>
      </trkpt>
      <trkpt lat="10.33077" lon="123.84824">
        <ele>249.13</ele>
      </trkpt>
      <trkpt lat="10.3308" lon="123.8482">
        <ele>250.26</ele>
      </trkpt>
      <trkpt lat="10.33082" lon="123.84817">
        <ele>251.08</ele>
      </trkpt>
      <trkpt lat="10.33084" lon="123.8481">
        <ele>252.3</ele>
      </trkpt>
      <trkpt lat="10.33084" lon="123.8481">
        <ele>252.3</ele>
      </trkpt>
      <trkpt lat="10.33087" lon="123.84806">
        <ele>252.67</ele>
      </trkpt>
      <trkpt lat="10.33087" lon="123.84806">
        <ele>252.67</ele>
      </trkpt>
      <trkpt lat="10.33092" lon="123.84801">
        <ele>253.19</ele>
      </trkpt>
      <trkpt lat="10.33094" lon="123.84798">
        <ele>253.63</ele>
      </trkpt>
      <trkpt lat="10.33095" lon="123.84795">
        <ele>254.16</ele>
      </trkpt>
      <trkpt lat="10.33095" lon="123.84795">
        <ele>254.16</ele>
      </trkpt>
      <trkpt lat="10.33097" lon="123.84789">
        <ele>255.28</ele>
      </trkpt>
      <trkpt lat="10.33097" lon="123.84789">
        <ele>255.28</ele>
      </trkpt>
      <trkpt lat="10.33099" lon="123.84782">
        <ele>256.7</ele>
      </trkpt>
      <trkpt lat="10.33099" lon="123.84782">
        <ele>256.7</ele>
      </trkpt>
      <trkpt lat="10.33102" lon="123.84773">
        <ele>258.59</ele>
      </trkpt>
      <trkpt lat="10.33102" lon="123.84773">
        <ele>258.59</ele>
      </trkpt>
      <trkpt lat="10.33107" lon="123.84767">
        <ele>260.07</ele>
      </trkpt>
      <trkpt lat="10.33107" lon="123.84767">
        <ele>260.07</ele>
      </trkpt>
      <trkpt lat="10.33109" lon="123.84763">
        <ele>261.04</ele>
      </trkpt>
      <trkpt lat="10.33109" lon="123.84763">
        <ele>261.04</ele>
      </trkpt>
      <trkpt lat="10.33109" lon="123.84759">
        <ele>261.88</ele>
      </trkpt>
      <trkpt lat="10.3311" lon="123.84758">
        <ele>262.18</ele>
      </trkpt>
      <trkpt lat="10.33114" lon="123.84752">
        <ele>263.95</ele>
      </trkpt>
      <trkpt lat="10.33114" lon="123.84752">
        <ele>263.95</ele>
      </trkpt>
      <trkpt lat="10.33117" lon="123.8475">
        <ele>264.85</ele>
      </trkpt>
      <trkpt lat="10.33122" lon="123.84749">
        <ele>266.09</ele>
      </trkpt>
      <trkpt lat="10.33123" lon="123.84749">
        <ele>266.23</ele>
      </trkpt>
      <trkpt lat="10.33127" lon="123.84745">
        <ele>268.91</ele>
      </trkpt>
      <trkpt lat="10.33129" lon="123.84742">
        <ele>270.79</ele>
      </trkpt>
      <trkpt lat="10.33131" lon="123.84738">
        <ele>273.22</ele>
      </trkpt>
      <trkpt lat="10.33131" lon="123.84738">
        <ele>273.22</ele>
      </trkpt>
      <trkpt lat="10.33134" lon="123.8473">
        <ele>277.97</ele>
      </trkpt>
      <trkpt lat="10.33134" lon="123.8473">
        <ele>277.97</ele>
      </trkpt>
      <trkpt lat="10.33137" lon="123.84726">
        <ele>280.63</ele>
      </trkpt>
      <trkpt lat="10.33137" lon="123.84726">
        <ele>280.63</ele>
      </trkpt>
      <trkpt lat="10.33136" lon="123.84716">
        <ele>286.02</ele>
      </trkpt>
      <trkpt lat="10.33136" lon="123.84716">
        <ele>286.02</ele>
      </trkpt>
      <trkpt lat="10.33138" lon="123.84712">
        <ele>288.7</ele>
      </trkpt>
      <trkpt lat="10.33138" lon="123.84712">
        <ele>288.7</ele>
      </trkpt>
      <trkpt lat="10.33141" lon="123.84706">
        <ele>292.81</ele>
      </trkpt>
      <trkpt lat="10.33141" lon="123.84706">
        <ele>292.81</ele>
      </trkpt>
      <trkpt lat="10.33143" lon="123.84699">
        <ele>297.36</ele>
      </trkpt>
      <trkpt lat="10.33143" lon="123.84699">
        <ele>297.36</ele>
      </trkpt>
      <trkpt lat="10.33142" lon="123.84691">
        <ele>301.78</ele>
      </trkpt>
      <trkpt lat="10.33142" lon="123.84691">
        <ele>301.78</ele>
      </trkpt>
      <trkpt lat="10.33143" lon="123.84687">
        <ele>304.36</ele>
      </trkpt>
      <trkpt lat="10.33143" lon="123.84687">
        <ele>304.36</ele>
      </trkpt>
      <trkpt lat="10.33148" lon="123.84681">
        <ele>309.2</ele>
      </trkpt>
      <trkpt lat="10.33148" lon="123.84681">
        <ele>309.2</ele>
      </trkpt>
      <trkpt lat="10.33149" lon="123.84677">
        <ele>311.82</ele>
      </trkpt>
      <trkpt lat="10.33149" lon="123.84677">
        <ele>311.82</ele>
      </trkpt>
      <trkpt lat="10.33147" lon="123.84671">
        <ele>314.79</ele>
      </trkpt>
      <trkpt lat="10.33147" lon="123.84671">
        <ele>314.79</ele>
      </trkpt>
      <trkpt lat="10.33151" lon="123.84667">
        <ele>318.29</ele>
      </trkpt>
      <trkpt lat="10.33151" lon="123.84667">
        <ele>318.29</ele>
      </trkpt>
      <trkpt lat="10.3315" lon="123.84664">
        <ele>319.01</ele>
      </trkpt>
      <trkpt lat="10.3315" lon="123.84664">
        <ele>319.01</ele>
      </trkpt>
      <trkpt lat="10.3315" lon="123.84658">
        <ele>320.82</ele>
      </trkpt>
      <trkpt lat="10.33151" lon="123.84656">
        <ele>321.73</ele>
      </trkpt>
      <trkpt lat="10.33154" lon="123.84652">
        <ele>323.86</ele>
      </trkpt>
      <trkpt lat="10.33154" lon="123.84652">
        <ele>323.86</ele>
      </trkpt>
      <trkpt lat="10.33158" lon="123.8465">
        <ele>325.72</ele>
      </trkpt>
      <trkpt lat="10.3316" lon="123.8465">
        <ele>326.34</ele>
      </trkpt>
      <trkpt lat="10.33164" lon="123.84653">
        <ele>326.61</ele>
      </trkpt>
      <trkpt lat="10.33164" lon="123.84653">
        <ele>326.61</ele>
      </trkpt>
      <trkpt lat="10.33168" lon="123.84654">
        <ele>326.98</ele>
      </trkpt>
      <trkpt lat="10.33168" lon="123.84654">
        <ele>326.98</ele>
      </trkpt>
      <trkpt lat="10.33173" lon="123.84653">
        <ele>326.85</ele>
      </trkpt>
      <trkpt lat="10.33173" lon="123.84653">
        <ele>326.85</ele>
      </trkpt>
      <trkpt lat="10.33175" lon="123.8465">
        <ele>327.74</ele>
      </trkpt>
      <trkpt lat="10.33175" lon="123.8465">
        <ele>327.74</ele>
      </trkpt>
      <trkpt lat="10.33177" lon="123.84643">
        <ele>330.13</ele>
      </trkpt>
      <trkpt lat="10.33177" lon="123.84643">
        <ele>330.13</ele>
      </trkpt>
      <trkpt lat="10.33181" lon="123.8464">
        <ele>331.06</ele>
      </trkpt>
      <trkpt lat="10.33181" lon="123.8464">
        <ele>331.06</ele>
      </trkpt>
      <trkpt lat="10.33188" lon="123.84633">
        <ele>333.58</ele>
      </trkpt>
      <trkpt lat="10.33188" lon="123.84633">
        <ele>333.58</ele>
      </trkpt>
      <trkpt lat="10.33192" lon="123.84625">
        <ele>336.91</ele>
      </trkpt>
      <trkpt lat="10.33192" lon="123.84625">
        <ele>336.91</ele>
      </trkpt>
      <trkpt lat="10.33194" lon="123.84618">
        <ele>339.99</ele>
      </trkpt>
      <trkpt lat="10.33195" lon="123.84614">
        <ele>341.8</ele>
      </trkpt>
      <trkpt lat="10.33195" lon="123.84613">
        <ele>342.24</ele>
      </trkpt>
      <trkpt lat="10.33194" lon="123.8461">
        <ele>343.43</ele>
      </trkpt>
      <trkpt lat="10.3319" lon="123.84608">
        <ele>343.81</ele>
      </trkpt>
      <trkpt lat="10.33188" lon="123.84606">
        <ele>344.38</ele>
      </trkpt>
      <trkpt lat="10.33188" lon="123.84604">
        <ele>345.2</ele>
      </trkpt>
      <trkpt lat="10.33191" lon="123.84597">
        <ele>348.54</ele>
      </trkpt>
      <trkpt lat="10.33192" lon="123.84592">
        <ele>350.81</ele>
      </trkpt>
      <trkpt lat="10.33193" lon="123.8459">
        <ele>351.85</ele>
      </trkpt>
      <trkpt lat="10.33195" lon="123.84588">
        <ele>353.11</ele>
      </trkpt>
      <trkpt lat="10.33195" lon="123.84588">
        <ele>353.11</ele>
      </trkpt>
      <trkpt lat="10.33201" lon="123.84582">
        <ele>357.17</ele>
      </trkpt>
      <trkpt lat="10.33203" lon="123.84577">
        <ele>359.59</ele>
      </trkpt>
      <trkpt lat="10.33204" lon="123.84576">
        <ele>360.22</ele>
      </trkpt>
      <trkpt lat="10.33207" lon="123.84567">
        <ele>364.37</ele>
      </trkpt>
      <trkpt lat="10.33209" lon="123.84563">
        <ele>366.34</ele>
      </trkpt>
      <trkpt lat="10.3321" lon="123.84558">
        <ele>368.44</ele>
      </trkpt>
      <trkpt lat="10.3321" lon="123.84558">
        <ele>368.44</ele>
      </trkpt>
      <trkpt lat="10.33213" lon="123.84553">
        <ele>370.99</ele>
      </trkpt>
      <trkpt lat="10.33213" lon="123.84553">
        <ele>370.99</ele>
      </trkpt>
      <trkpt lat="10.33219" lon="123.84548">
        <ele>374.26</ele>
      </trkpt>
      <trkpt lat="10.33219" lon="123.84548">
        <ele>374.26</ele>
      </trkpt>
      <trkpt lat="10.33224" lon="123.84546">
        <ele>376.21</ele>
      </trkpt>
      <trkpt lat="10.33224" lon="123.84546">
        <ele>376.21</ele>
      </trkpt>
      <trkpt lat="10.33229" lon="123.84542">
        <ele>378.96</ele>
      </trkpt>
      <trkpt lat="10.3323" lon="123.84538">
        <ele>380.74</ele>
      </trkpt>
      <trkpt lat="10.3323" lon="123.84537">
        <ele>381.12</ele>
      </trkpt>
      <trkpt lat="10.33231" lon="123.84533">
        <ele>382.89</ele>
      </trkpt>
      <trkpt lat="10.33231" lon="123.84533">
        <ele>382.89</ele>
      </trkpt>
      <trkpt lat="10.33234" lon="123.84529">
        <ele>385.08</ele>
      </trkpt>
      <trkpt lat="10.33234" lon="123.84529">
        <ele>385.08</ele>
      </trkpt>
      <trkpt lat="10.33236" lon="123.84523">
        <ele>387.78</ele>
      </trkpt>
      <trkpt lat="10.33235" lon="123.8452">
        <ele>388.69</ele>
      </trkpt>
      <trkpt lat="10.33233" lon="123.84516">
        <ele>389.73</ele>
      </trkpt>
      <trkpt lat="10.33232" lon="123.84511">
        <ele>391.36</ele>
      </trkpt>
      <trkpt lat="10.33232" lon="123.84511">
        <ele>391.36</ele>
      </trkpt>
      <trkpt lat="10.33234" lon="123.84507">
        <ele>393.34</ele>
      </trkpt>
      <trkpt lat="10.33234" lon="123.84506">
        <ele>393.72</ele>
      </trkpt>
      <trkpt lat="10.33236" lon="123.84501">
        <ele>396.09</ele>
      </trkpt>
      <trkpt lat="10.33236" lon="123.84501">
        <ele>396.09</ele>
      </trkpt>
      <trkpt lat="10.33241" lon="123.84496">
        <ele>398.5</ele>
      </trkpt>
      <trkpt lat="10.33241" lon="123.84496">
        <ele>398.5</ele>
      </trkpt>
      <trkpt lat="10.33244" lon="123.84489">
        <ele>400.69</ele>
      </trkpt>
      <trkpt lat="10.33244" lon="123.84489">
        <ele>400.69</ele>
      </trkpt>
      <trkpt lat="10.33249" lon="123.84483">
        <ele>403.38</ele>
      </trkpt>
      <trkpt lat="10.33249" lon="123.84483">
        <ele>403.38</ele>
      </trkpt>
      <trkpt lat="10.33251" lon="123.84478">
        <ele>404.6</ele>
      </trkpt>
      <trkpt lat="10.3325" lon="123.84474">
        <ele>405.62</ele>
      </trkpt>
      <trkpt lat="10.33251" lon="123.84472">
        <ele>405.9</ele>
      </trkpt>
      <trkpt lat="10.33252" lon="123.8447">
        <ele>406.13</ele>
      </trkpt>
      <trkpt lat="10.33256" lon="123.84468">
        <ele>405.99</ele>
      </trkpt>
      <trkpt lat="10.33256" lon="123.84468">
        <ele>405.99</ele>
      </trkpt>
      <trkpt lat="10.33265" lon="123.84459">
        <ele>406.99</ele>
      </trkpt>
      <trkpt lat="10.33265" lon="123.84459">
        <ele>406.99</ele>
      </trkpt>
      <trkpt lat="10.33273" lon="123.84453">
        <ele>407.87</ele>
      </trkpt>
      <trkpt lat="10.33273" lon="123.84453">
        <ele>407.87</ele>
      </trkpt>
      <trkpt lat="10.33277" lon="123.8445">
        <ele>408.44</ele>
      </trkpt>
      <trkpt lat="10.33279" lon="123.84446">
        <ele>409.46</ele>
      </trkpt>
      <trkpt lat="10.3328" lon="123.84442">
        <ele>410.47</ele>
      </trkpt>
      <trkpt lat="10.33279" lon="123.84438">
        <ele>411.56</ele>
      </trkpt>
      <trkpt lat="10.3328" lon="123.84434">
        <ele>412.53</ele>
      </trkpt>
      <trkpt lat="10.3328" lon="123.84434">
        <ele>412.53</ele>
      </trkpt>
      <trkpt lat="10.33285" lon="123.84427">
        <ele>414.2</ele>
      </trkpt>
      <trkpt lat="10.33285" lon="123.84427">
        <ele>414.2</ele>
      </trkpt>
      <trkpt lat="10.33291" lon="123.84415">
        <ele>417.21</ele>
      </trkpt>
      <trkpt lat="10.33291" lon="123.84415">
        <ele>417.21</ele>
      </trkpt>
      <trkpt lat="10.33291" lon="123.84407">
        <ele>418.19</ele>
      </trkpt>
      <trkpt lat="10.33291" lon="123.84407">
        <ele>418.19</ele>
      </trkpt>
      <trkpt lat="10.33297" lon="123.84401">
        <ele>419.3</ele>
      </trkpt>
      <trkpt lat="10.33297" lon="123.84401">
        <ele>419.3</ele>
      </trkpt>
      <trkpt lat="10.33304" lon="123.84396">
        <ele>420.6</ele>
      </trkpt>
      <trkpt lat="10.33304" lon="123.84396">
        <ele>420.6</ele>
      </trkpt>
      <trkpt lat="10.33314" lon="123.84391">
        <ele>422.18</ele>
      </trkpt>
      <trkpt lat="10.33314" lon="123.84391">
        <ele>422.18</ele>
      </trkpt>
      <trkpt lat="10.33318" lon="123.84388">
        <ele>423.08</ele>
      </trkpt>
      <trkpt lat="10.33319" lon="123.84384">
        <ele>424.01</ele>
      </trkpt>
      <trkpt lat="10.33319" lon="123.84384">
        <ele>424.01</ele>
      </trkpt>
      <trkpt lat="10.33318" lon="123.8438">
        <ele>424.75</ele>
      </trkpt>
      <trkpt lat="10.33318" lon="123.8438">
        <ele>424.75</ele>
      </trkpt>
      <trkpt lat="10.33317" lon="123.84377">
        <ele>425.24</ele>
      </trkpt>
      <trkpt lat="10.33317" lon="123.84377">
        <ele>425.24</ele>
      </trkpt>
      <trkpt lat="10.33316" lon="123.84372">
        <ele>426.1</ele>
      </trkpt>
      <trkpt lat="10.33317" lon="123.84368">
        <ele>427.07</ele>
      </trkpt>
      <trkpt lat="10.33323" lon="123.84359">
        <ele>430.24</ele>
      </trkpt>
      <trkpt lat="10.33323" lon="123.84359">
        <ele>430.24</ele>
      </trkpt>
      <trkpt lat="10.33326" lon="123.84354">
        <ele>432.07</ele>
      </trkpt>
      <trkpt lat="10.33325" lon="123.84354">
        <ele>431.84</ele>
      </trkpt>
      <trkpt lat="10.33328" lon="123.84346">
        <ele>434.45</ele>
      </trkpt>
      <trkpt lat="10.33328" lon="123.84346">
        <ele>434.45</ele>
      </trkpt>
      <trkpt lat="10.33324" lon="123.84335">
        <ele>435.93</ele>
      </trkpt>
      <trkpt lat="10.33324" lon="123.84335">
        <ele>435.93</ele>
      </trkpt>
      <trkpt lat="10.33326" lon="123.84326">
        <ele>438.08</ele>
      </trkpt>
      <trkpt lat="10.33326" lon="123.84326">
        <ele>438.08</ele>
      </trkpt>
      <trkpt lat="10.33324" lon="123.84321">
        <ele>438.39</ele>
      </trkpt>
      <trkpt lat="10.33324" lon="123.84321">
        <ele>438.39</ele>
      </trkpt>
      <trkpt lat="10.33326" lon="123.84316">
        <ele>439.71</ele>
      </trkpt>
      <trkpt lat="10.33326" lon="123.84316">
        <ele>439.71</ele>
      </trkpt>
      <trkpt lat="10.3333" lon="123.84309">
        <ele>441.75</ele>
      </trkpt>
      <trkpt lat="10.3333" lon="123.84309">
        <ele>441.75</ele>
      </trkpt>
      <trkpt lat="10.33336" lon="123.84304">
        <ele>443.47</ele>
      </trkpt>
      <trkpt lat="10.33336" lon="123.84304">
        <ele>443.47</ele>
      </trkpt>
      <trkpt lat="10.33339" lon="123.84301">
        <ele>444.23</ele>
      </trkpt>
      <trkpt lat="10.33339" lon="123.84301">
        <ele>444.23</ele>
      </trkpt>
      <trkpt lat="10.3334" lon="123.84298">
        <ele>444.84</ele>
      </trkpt>
      <trkpt lat="10.3334" lon="123.84298">
        <ele>444.84</ele>
      </trkpt>
      <trkpt lat="10.33338" lon="123.84295">
        <ele>445.24</ele>
      </trkpt>
      <trkpt lat="10.33338" lon="123.84295">
        <ele>445.24</ele>
      </trkpt>
      <trkpt lat="10.33339" lon="123.84291">
        <ele>446.03</ele>
      </trkpt>
      <trkpt lat="10.33339" lon="123.84291">
        <ele>446.03</ele>
      </trkpt>
      <trkpt lat="10.33343" lon="123.84287">
        <ele>447.04</ele>
      </trkpt>
      <trkpt lat="10.33343" lon="123.84287">
        <ele>447.04</ele>
      </trkpt>
      <trkpt lat="10.33348" lon="123.84284">
        <ele>447.94</ele>
      </trkpt>
      <trkpt lat="10.33348" lon="123.84284">
        <ele>447.94</ele>
      </trkpt>
      <trkpt lat="10.33354" lon="123.84282">
        <ele>448.73</ele>
      </trkpt>
      <trkpt lat="10.33354" lon="123.84282">
        <ele>448.73</ele>
      </trkpt>
      <trkpt lat="10.33357" lon="123.8428">
        <ele>449.3</ele>
      </trkpt>
      <trkpt lat="10.33357" lon="123.8428">
        <ele>449.3</ele>
      </trkpt>
      <trkpt lat="10.33361" lon="123.84275">
        <ele>450.59</ele>
      </trkpt>
      <trkpt lat="10.33361" lon="123.84275">
        <ele>450.59</ele>
      </trkpt>
      <trkpt lat="10.33369" lon="123.84269">
        <ele>452.84</ele>
      </trkpt>
      <trkpt lat="10.33369" lon="123.84269">
        <ele>452.84</ele>
      </trkpt>
      <trkpt lat="10.33374" lon="123.84266">
        <ele>454.13</ele>
      </trkpt>
      <trkpt lat="10.33374" lon="123.84266">
        <ele>454.13</ele>
      </trkpt>
      <trkpt lat="10.33378" lon="123.84261">
        <ele>455.82</ele>
      </trkpt>
      <trkpt lat="10.33378" lon="123.84261">
        <ele>455.82</ele>
      </trkpt>
      <trkpt lat="10.33383" lon="123.84255">
        <ele>457.93</ele>
      </trkpt>
      <trkpt lat="10.33383" lon="123.84255">
        <ele>457.93</ele>
      </trkpt>
      <trkpt lat="10.33388" lon="123.84252">
        <ele>459.37</ele>
      </trkpt>
      <trkpt lat="10.33388" lon="123.84252">
        <ele>459.37</ele>
      </trkpt>
      <trkpt lat="10.33394" lon="123.84243">
        <ele>464.81</ele>
      </trkpt>
      <trkpt lat="10.33394" lon="123.84243">
        <ele>464.81</ele>
      </trkpt>
      <trkpt lat="10.33399" lon="123.84238">
        <ele>468.53</ele>
      </trkpt>
      <trkpt lat="10.33401" lon="123.84234">
        <ele>471.21</ele>
      </trkpt>
      <trkpt lat="10.33403" lon="123.84229">
        <ele>474.51</ele>
      </trkpt>
      <trkpt lat="10.33402" lon="123.84226">
        <ele>476.12</ele>
      </trkpt>
      <trkpt lat="10.33402" lon="123.84221">
        <ele>479.06</ele>
      </trkpt>
      <trkpt lat="10.33403" lon="123.84217">
        <ele>481.55</ele>
      </trkpt>
      <trkpt lat="10.33403" lon="123.84217">
        <ele>481.55</ele>
      </trkpt>
      <trkpt lat="10.33402" lon="123.8421">
        <ele>485.4</ele>
      </trkpt>
      <trkpt lat="10.33402" lon="123.8421">
        <ele>485.4</ele>
      </trkpt>
      <trkpt lat="10.33402" lon="123.84204">
        <ele>488.86</ele>
      </trkpt>
      <trkpt lat="10.33404" lon="123.842">
        <ele>491.52</ele>
      </trkpt>
      <trkpt lat="10.33404" lon="123.84196">
        <ele>493.82</ele>
      </trkpt>
      <trkpt lat="10.33406" lon="123.84194">
        <ele>495.35</ele>
      </trkpt>
      <trkpt lat="10.33406" lon="123.84194">
        <ele>495.35</ele>
      </trkpt>
    </trkseg>
  </trk>
</gpx>
