<?xml version="1.0" encoding="UTF-8"?>
<gpx creator="Wikiloc - https://www.wikiloc.com" version="1.1" xmlns="http://www.topografix.com/GPX/1/1" xmlns:xsi="http://www.w3.org/2001/XMLSchema-instance" xsi:schemaLocation="http://www.topografix.com/GPX/1/1 http://www.topografix.com/GPX/1/1/gpx.xsd">
  <metadata>
    <name>Wikiloc - Spartan Trail with Detour (Paseo to Pamutan)</name>
    <link href="https://www.wikiloc.com/hiking-trails/spartan-trail-with-detour-paseo-to-pamutan-116295246">
      <text>Spartan Trail with Detour (Paseo to Pamutan) on Wikiloc</text>
    </link>
    <time>2022-10-15T07:08:01Z</time>
  </metadata>
  <trk>
    <name>Spartan Trail with Detour (Paseo to Pamutan)</name>
    <cmt></cmt>
    <desc></desc>
    <trkseg>
      <trkpt lat="10.309197" lon="123.874316">
        <ele>21.985</ele>
        <time>2022-10-15T01:29:45Z</time>
      </trkpt>
      <trkpt lat="10.309162" lon="123.873608">
        <ele>24.389</ele>
        <time>2022-10-15T01:30:59Z</time>
      </trkpt>
      <trkpt lat="10.309058" lon="123.873393">
        <ele>25.417</ele>
        <time>2022-10-15T01:31:21Z</time>
      </trkpt>
      <trkpt lat="10.309156" lon="123.873088">
        <ele>26.609</ele>
        <time>2022-10-15T01:31:45Z</time>
      </trkpt>
      <trkpt lat="10.309288" lon="123.871817">
        <ele>33.279</ele>
        <time>2022-10-15T01:33:43Z</time>
      </trkpt>
      <trkpt lat="10.308987" lon="123.871294">
        <ele>35.829</ele>
        <time>2022-10-15T01:34:41Z</time>
      </trkpt>
      <trkpt lat="10.309054" lon="123.870688">
        <ele>36.564</ele>
        <time>2022-10-15T01:35:35Z</time>
      </trkpt>
      <trkpt lat="10.309133" lon="123.870562">
        <ele>34.530</ele>
        <time>2022-10-15T01:35:49Z</time>
      </trkpt>
      <trkpt lat="10.310064" lon="123.870013">
        <ele>37.037</ele>
        <time>2022-10-15T01:37:27Z</time>
      </trkpt>
      <trkpt lat="10.310311" lon="123.869756">
        <ele>38.743</ele>
        <time>2022-10-15T01:38:01Z</time>
      </trkpt>
      <trkpt lat="10.310529" lon="123.869318">
        <ele>40.620</ele>
        <time>2022-10-15T01:38:46Z</time>
      </trkpt>
      <trkpt lat="10.310581" lon="123.868654">
        <ele>45.972</ele>
        <time>2022-10-15T01:39:47Z</time>
      </trkpt>
      <trkpt lat="10.310713" lon="123.868198">
        <ele>43.674</ele>
        <time>2022-10-15T01:40:29Z</time>
      </trkpt>
      <trkpt lat="10.311313" lon="123.866958">
        <ele>50.365</ele>
        <time>2022-10-15T01:42:31Z</time>
      </trkpt>
      <trkpt lat="10.311157" lon="123.866436">
        <ele>50.368</ele>
        <time>2022-10-15T01:43:20Z</time>
      </trkpt>
      <trkpt lat="10.310883" lon="123.865906">
        <ele>58.914</ele>
        <time>2022-10-15T01:44:18Z</time>
      </trkpt>
      <trkpt lat="10.310854" lon="123.865667">
        <ele>66.109</ele>
        <time>2022-10-15T01:44:44Z</time>
      </trkpt>
      <trkpt lat="10.310709" lon="123.865599">
        <ele>67.877</ele>
        <time>2022-10-15T01:44:54Z</time>
      </trkpt>
      <trkpt lat="10.310620" lon="123.865372">
        <ele>69.497</ele>
        <time>2022-10-15T01:45:18Z</time>
      </trkpt>
      <trkpt lat="10.310889" lon="123.865180">
        <ele>76.282</ele>
        <time>2022-10-15T01:45:53Z</time>
      </trkpt>
      <trkpt lat="10.311029" lon="123.864970">
        <ele>82.628</ele>
        <time>2022-10-15T01:46:16Z</time>
      </trkpt>
      <trkpt lat="10.310960" lon="123.864967">
        <ele>86.065</ele>
        <time>2022-10-15T01:47:13Z</time>
      </trkpt>
      <trkpt lat="10.311268" lon="123.864825">
        <ele>87.971</ele>
        <time>2022-10-15T01:48:05Z</time>
      </trkpt>
      <trkpt lat="10.311577" lon="123.864475">
        <ele>93.628</ele>
        <time>2022-10-15T01:48:44Z</time>
      </trkpt>
      <trkpt lat="10.311745" lon="123.864225">
        <ele>101.220</ele>
        <time>2022-10-15T01:49:18Z</time>
      </trkpt>
      <trkpt lat="10.311769" lon="123.863981">
        <ele>105.412</ele>
        <time>2022-10-15T01:49:35Z</time>
      </trkpt>
      <trkpt lat="10.311922" lon="123.863779">
        <ele>109.493</ele>
        <time>2022-10-15T01:50:06Z</time>
      </trkpt>
      <trkpt lat="10.311923" lon="123.863629">
        <ele>112.565</ele>
        <time>2022-10-15T01:50:29Z</time>
      </trkpt>
      <trkpt lat="10.312650" lon="123.862653">
        <ele>129.321</ele>
        <time>2022-10-15T01:53:43Z</time>
      </trkpt>
      <trkpt lat="10.312808" lon="123.862603">
        <ele>134.609</ele>
        <time>2022-10-15T01:55:28Z</time>
      </trkpt>
      <trkpt lat="10.312947" lon="123.862225">
        <ele>143.530</ele>
        <time>2022-10-15T01:56:58Z</time>
      </trkpt>
      <trkpt lat="10.313257" lon="123.862057">
        <ele>154.190</ele>
        <time>2022-10-15T01:58:00Z</time>
      </trkpt>
      <trkpt lat="10.314291" lon="123.862160">
        <ele>159.295</ele>
        <time>2022-10-15T02:04:12Z</time>
      </trkpt>
      <trkpt lat="10.314754" lon="123.862026">
        <ele>170.891</ele>
        <time>2022-10-15T02:05:13Z</time>
      </trkpt>
      <trkpt lat="10.314893" lon="123.862086">
        <ele>175.738</ele>
        <time>2022-10-15T02:05:35Z</time>
      </trkpt>
      <trkpt lat="10.315272" lon="123.862072">
        <ele>181.394</ele>
        <time>2022-10-15T02:06:13Z</time>
      </trkpt>
      <trkpt lat="10.315586" lon="123.861729">
        <ele>186.571</ele>
        <time>2022-10-15T02:06:59Z</time>
      </trkpt>
      <trkpt lat="10.316283" lon="123.861431">
        <ele>210.373</ele>
        <time>2022-10-15T02:10:46Z</time>
      </trkpt>
      <trkpt lat="10.316595" lon="123.861146">
        <ele>226.525</ele>
        <time>2022-10-15T02:14:11Z</time>
      </trkpt>
      <trkpt lat="10.316779" lon="123.861139">
        <ele>237.195</ele>
        <time>2022-10-15T02:15:07Z</time>
      </trkpt>
      <trkpt lat="10.316863" lon="123.861211">
        <ele>240.249</ele>
        <time>2022-10-15T02:15:38Z</time>
      </trkpt>
      <trkpt lat="10.317054" lon="123.861198">
        <ele>241.823</ele>
        <time>2022-10-15T02:15:40Z</time>
      </trkpt>
      <trkpt lat="10.317094" lon="123.861115">
        <ele>244.709</ele>
        <time>2022-10-15T02:17:08Z</time>
      </trkpt>
      <trkpt lat="10.317115" lon="123.861228">
        <ele>244.740</ele>
        <time>2022-10-15T02:18:08Z</time>
      </trkpt>
      <trkpt lat="10.317395" lon="123.861408">
        <ele>254.110</ele>
        <time>2022-10-15T02:18:45Z</time>
      </trkpt>
      <trkpt lat="10.317444" lon="123.861250">
        <ele>260.325</ele>
        <time>2022-10-15T02:19:33Z</time>
      </trkpt>
      <trkpt lat="10.317642" lon="123.861103">
        <ele>266.651</ele>
        <time>2022-10-15T02:21:07Z</time>
      </trkpt>
      <trkpt lat="10.317672" lon="123.860806">
        <ele>272.098</ele>
        <time>2022-10-15T02:21:49Z</time>
      </trkpt>
      <trkpt lat="10.317603" lon="123.860758">
        <ele>274.324</ele>
        <time>2022-10-15T02:26:29Z</time>
      </trkpt>
      <trkpt lat="10.317602" lon="123.860807">
        <ele>274.311</ele>
        <time>2022-10-15T02:26:38Z</time>
      </trkpt>
      <trkpt lat="10.317767" lon="123.860638">
        <ele>279.643</ele>
        <time>2022-10-15T02:27:34Z</time>
      </trkpt>
      <trkpt lat="10.317835" lon="123.860439">
        <ele>285.615</ele>
        <time>2022-10-15T02:29:59Z</time>
      </trkpt>
      <trkpt lat="10.318162" lon="123.860140">
        <ele>288.731</ele>
        <time>2022-10-15T02:30:43Z</time>
      </trkpt>
      <trkpt lat="10.318157" lon="123.860048">
        <ele>288.561</ele>
        <time>2022-10-15T02:33:53Z</time>
      </trkpt>
      <trkpt lat="10.318349" lon="123.859966">
        <ele>288.707</ele>
        <time>2022-10-15T02:36:08Z</time>
      </trkpt>
      <trkpt lat="10.318862" lon="123.859511">
        <ele>296.509</ele>
        <time>2022-10-15T02:37:37Z</time>
      </trkpt>
      <trkpt lat="10.319257" lon="123.859399">
        <ele>299.234</ele>
        <time>2022-10-15T02:38:21Z</time>
      </trkpt>
      <trkpt lat="10.319817" lon="123.859039">
        <ele>299.284</ele>
        <time>2022-10-15T02:39:47Z</time>
      </trkpt>
      <trkpt lat="10.319781" lon="123.858891">
        <ele>300.279</ele>
        <time>2022-10-15T02:40:05Z</time>
      </trkpt>
      <trkpt lat="10.319684" lon="123.858883">
        <ele>300.625</ele>
        <time>2022-10-15T02:40:17Z</time>
      </trkpt>
      <trkpt lat="10.319554" lon="123.858734">
        <ele>299.942</ele>
        <time>2022-10-15T02:40:35Z</time>
      </trkpt>
      <trkpt lat="10.319294" lon="123.858683">
        <ele>297.398</ele>
        <time>2022-10-15T02:40:57Z</time>
      </trkpt>
      <trkpt lat="10.319102" lon="123.858214">
        <ele>290.825</ele>
        <time>2022-10-15T02:41:48Z</time>
      </trkpt>
      <trkpt lat="10.318628" lon="123.857923">
        <ele>279.377</ele>
        <time>2022-10-15T02:45:38Z</time>
      </trkpt>
      <trkpt lat="10.318522" lon="123.858013">
        <ele>276.379</ele>
        <time>2022-10-15T02:55:08Z</time>
      </trkpt>
      <trkpt lat="10.318564" lon="123.857922">
        <ele>276.356</ele>
        <time>2022-10-15T02:55:41Z</time>
      </trkpt>
      <trkpt lat="10.318517" lon="123.857927">
        <ele>278.159</ele>
        <time>2022-10-15T02:55:55Z</time>
      </trkpt>
      <trkpt lat="10.318531" lon="123.858026">
        <ele>276.714</ele>
        <time>2022-10-15T02:57:07Z</time>
      </trkpt>
      <trkpt lat="10.318624" lon="123.858007">
        <ele>277.109</ele>
        <time>2022-10-15T03:05:32Z</time>
      </trkpt>
      <trkpt lat="10.318577" lon="123.857939">
        <ele>278.646</ele>
        <time>2022-10-15T03:06:05Z</time>
      </trkpt>
      <trkpt lat="10.318707" lon="123.858000">
        <ele>278.836</ele>
        <time>2022-10-15T03:06:26Z</time>
      </trkpt>
      <trkpt lat="10.318985" lon="123.857930">
        <ele>280.311</ele>
        <time>2022-10-15T03:06:55Z</time>
      </trkpt>
      <trkpt lat="10.319341" lon="123.857993">
        <ele>277.167</ele>
        <time>2022-10-15T03:07:37Z</time>
      </trkpt>
      <trkpt lat="10.319609" lon="123.857335">
        <ele>255.134</ele>
        <time>2022-10-15T03:09:05Z</time>
      </trkpt>
      <trkpt lat="10.319727" lon="123.857239">
        <ele>249.590</ele>
        <time>2022-10-15T03:09:17Z</time>
      </trkpt>
      <trkpt lat="10.319734" lon="123.857041">
        <ele>244.317</ele>
        <time>2022-10-15T03:09:34Z</time>
      </trkpt>
      <trkpt lat="10.319545" lon="123.856860">
        <ele>237.419</ele>
        <time>2022-10-15T03:09:54Z</time>
      </trkpt>
      <trkpt lat="10.319687" lon="123.856826">
        <ele>232.951</ele>
        <time>2022-10-15T03:10:04Z</time>
      </trkpt>
      <trkpt lat="10.319631" lon="123.856751">
        <ele>229.931</ele>
        <time>2022-10-15T03:10:15Z</time>
      </trkpt>
      <trkpt lat="10.319674" lon="123.856550">
        <ele>227.061</ele>
        <time>2022-10-15T03:10:29Z</time>
      </trkpt>
      <trkpt lat="10.319402" lon="123.855894">
        <ele>218.907</ele>
        <time>2022-10-15T03:11:33Z</time>
      </trkpt>
      <trkpt lat="10.319749" lon="123.855850">
        <ele>211.109</ele>
        <time>2022-10-15T03:12:09Z</time>
      </trkpt>
      <trkpt lat="10.319766" lon="123.856068">
        <ele>206.924</ele>
        <time>2022-10-15T03:12:29Z</time>
      </trkpt>
      <trkpt lat="10.319898" lon="123.856211">
        <ele>201.794</ele>
        <time>2022-10-15T03:12:49Z</time>
      </trkpt>
      <trkpt lat="10.320108" lon="123.856103">
        <ele>198.169</ele>
        <time>2022-10-15T03:13:28Z</time>
      </trkpt>
      <trkpt lat="10.320367" lon="123.855492">
        <ele>187.815</ele>
        <time>2022-10-15T03:14:59Z</time>
      </trkpt>
      <trkpt lat="10.320249" lon="123.854928">
        <ele>171.752</ele>
        <time>2022-10-15T03:16:38Z</time>
      </trkpt>
      <trkpt lat="10.320409" lon="123.854801">
        <ele>167.948</ele>
        <time>2022-10-15T03:16:53Z</time>
      </trkpt>
      <trkpt lat="10.320418" lon="123.854404">
        <ele>163.675</ele>
        <time>2022-10-15T03:18:03Z</time>
      </trkpt>
      <trkpt lat="10.320324" lon="123.854065">
        <ele>157.177</ele>
        <time>2022-10-15T03:19:08Z</time>
      </trkpt>
      <trkpt lat="10.320478" lon="123.854017">
        <ele>154.179</ele>
        <time>2022-10-15T03:19:23Z</time>
      </trkpt>
      <trkpt lat="10.320840" lon="123.853243">
        <ele>133.998</ele>
        <time>2022-10-15T03:21:13Z</time>
      </trkpt>
      <trkpt lat="10.320759" lon="123.853126">
        <ele>127.615</ele>
        <time>2022-10-15T03:21:51Z</time>
      </trkpt>
      <trkpt lat="10.320779" lon="123.852989">
        <ele>123.726</ele>
        <time>2022-10-15T03:22:11Z</time>
      </trkpt>
      <trkpt lat="10.320866" lon="123.852859">
        <ele>121.509</ele>
        <time>2022-10-15T03:22:21Z</time>
      </trkpt>
      <trkpt lat="10.320964" lon="123.852858">
        <ele>118.350</ele>
        <time>2022-10-15T03:22:41Z</time>
      </trkpt>
      <trkpt lat="10.320768" lon="123.852808">
        <ele>110.470</ele>
        <time>2022-10-15T03:23:22Z</time>
      </trkpt>
      <trkpt lat="10.320683" lon="123.852617">
        <ele>109.955</ele>
        <time>2022-10-15T03:23:45Z</time>
      </trkpt>
      <trkpt lat="10.320587" lon="123.852641">
        <ele>109.931</ele>
        <time>2022-10-15T03:23:51Z</time>
      </trkpt>
      <trkpt lat="10.320430" lon="123.852509">
        <ele>110.658</ele>
        <time>2022-10-15T03:24:19Z</time>
      </trkpt>
      <trkpt lat="10.320205" lon="123.852100">
        <ele>108.724</ele>
        <time>2022-10-15T03:25:23Z</time>
      </trkpt>
      <trkpt lat="10.320265" lon="123.851524">
        <ele>108.181</ele>
        <time>2022-10-15T03:26:15Z</time>
      </trkpt>
      <trkpt lat="10.320100" lon="123.851311">
        <ele>108.293</ele>
        <time>2022-10-15T03:26:35Z</time>
      </trkpt>
      <trkpt lat="10.320091" lon="123.850803">
        <ele>107.935</ele>
        <time>2022-10-15T03:27:36Z</time>
      </trkpt>
      <trkpt lat="10.319989" lon="123.850708">
        <ele>107.879</ele>
        <time>2022-10-15T03:27:58Z</time>
      </trkpt>
      <trkpt lat="10.319749" lon="123.850734">
        <ele>107.105</ele>
        <time>2022-10-15T03:28:33Z</time>
      </trkpt>
      <trkpt lat="10.319563" lon="123.849942">
        <ele>104.925</ele>
        <time>2022-10-15T03:30:08Z</time>
      </trkpt>
      <trkpt lat="10.319466" lon="123.849818">
        <ele>104.909</ele>
        <time>2022-10-15T03:30:27Z</time>
      </trkpt>
      <trkpt lat="10.319491" lon="123.849668">
        <ele>104.878</ele>
        <time>2022-10-15T03:30:45Z</time>
      </trkpt>
      <trkpt lat="10.319828" lon="123.849235">
        <ele>105.778</ele>
        <time>2022-10-15T03:31:53Z</time>
      </trkpt>
      <trkpt lat="10.319749" lon="123.849012">
        <ele>105.773</ele>
        <time>2022-10-15T03:32:23Z</time>
      </trkpt>
      <trkpt lat="10.319609" lon="123.849006">
        <ele>106.059</ele>
        <time>2022-10-15T03:32:48Z</time>
      </trkpt>
      <trkpt lat="10.319847" lon="123.848632">
        <ele>105.256</ele>
        <time>2022-10-15T03:33:35Z</time>
      </trkpt>
      <trkpt lat="10.319835" lon="123.848423">
        <ele>105.322</ele>
        <time>2022-10-15T03:34:00Z</time>
      </trkpt>
      <trkpt lat="10.320057" lon="123.847964">
        <ele>106.319</ele>
        <time>2022-10-15T03:34:53Z</time>
      </trkpt>
      <trkpt lat="10.319819" lon="123.847689">
        <ele>107.091</ele>
        <time>2022-10-15T03:35:48Z</time>
      </trkpt>
      <trkpt lat="10.319863" lon="123.847474">
        <ele>107.693</ele>
        <time>2022-10-15T03:36:07Z</time>
      </trkpt>
      <trkpt lat="10.320772" lon="123.847024">
        <ele>108.857</ele>
        <time>2022-10-15T03:37:57Z</time>
      </trkpt>
      <trkpt lat="10.320896" lon="123.846759">
        <ele>109.600</ele>
        <time>2022-10-15T03:38:37Z</time>
      </trkpt>
      <trkpt lat="10.321100" lon="123.846606">
        <ele>110.120</ele>
        <time>2022-10-15T03:39:05Z</time>
      </trkpt>
      <trkpt lat="10.321588" lon="123.846701">
        <ele>110.709</ele>
        <time>2022-10-15T03:40:04Z</time>
      </trkpt>
      <trkpt lat="10.321915" lon="123.847078">
        <ele>111.266</ele>
        <time>2022-10-15T03:41:25Z</time>
      </trkpt>
      <trkpt lat="10.321954" lon="123.847329">
        <ele>112.016</ele>
        <time>2022-10-15T03:42:00Z</time>
      </trkpt>
      <trkpt lat="10.322342" lon="123.847785">
        <ele>112.941</ele>
        <time>2022-10-15T03:43:25Z</time>
      </trkpt>
      <trkpt lat="10.322431" lon="123.848174">
        <ele>113.737</ele>
        <time>2022-10-15T03:44:32Z</time>
      </trkpt>
      <trkpt lat="10.322296" lon="123.848621">
        <ele>116.564</ele>
        <time>2022-10-15T03:45:55Z</time>
      </trkpt>
      <trkpt lat="10.322346" lon="123.848763">
        <ele>117.620</ele>
        <time>2022-10-15T03:46:48Z</time>
      </trkpt>
      <trkpt lat="10.322479" lon="123.848905">
        <ele>118.037</ele>
        <time>2022-10-15T03:47:22Z</time>
      </trkpt>
      <trkpt lat="10.323017" lon="123.849139">
        <ele>119.039</ele>
        <time>2022-10-15T03:49:02Z</time>
      </trkpt>
      <trkpt lat="10.323259" lon="123.849085">
        <ele>120.241</ele>
        <time>2022-10-15T03:50:33Z</time>
      </trkpt>
      <trkpt lat="10.323270" lon="123.849132">
        <ele>120.476</ele>
        <time>2022-10-15T03:50:52Z</time>
      </trkpt>
      <trkpt lat="10.323367" lon="123.848959">
        <ele>121.590</ele>
        <time>2022-10-15T03:51:22Z</time>
      </trkpt>
      <trkpt lat="10.323811" lon="123.848880">
        <ele>121.719</ele>
        <time>2022-10-15T03:51:56Z</time>
      </trkpt>
      <trkpt lat="10.324001" lon="123.848761">
        <ele>121.909</ele>
        <time>2022-10-15T03:52:18Z</time>
      </trkpt>
      <trkpt lat="10.324059" lon="123.848821">
        <ele>121.778</ele>
        <time>2022-10-15T03:52:59Z</time>
      </trkpt>
      <trkpt lat="10.324167" lon="123.848740">
        <ele>121.968</ele>
        <time>2022-10-15T03:53:28Z</time>
      </trkpt>
      <trkpt lat="10.324668" lon="123.848773">
        <ele>122.653</ele>
        <time>2022-10-15T03:54:47Z</time>
      </trkpt>
      <trkpt lat="10.324886" lon="123.848879">
        <ele>123.239</ele>
        <time>2022-10-15T03:55:30Z</time>
      </trkpt>
      <trkpt lat="10.324927" lon="123.848970">
        <ele>123.496</ele>
        <time>2022-10-15T03:55:39Z</time>
      </trkpt>
      <trkpt lat="10.325165" lon="123.848850">
        <ele>123.622</ele>
        <time>2022-10-15T03:56:14Z</time>
      </trkpt>
      <trkpt lat="10.325287" lon="123.848937">
        <ele>123.749</ele>
        <time>2022-10-15T03:57:06Z</time>
      </trkpt>
      <trkpt lat="10.325739" lon="123.848925">
        <ele>125.571</ele>
        <time>2022-10-15T04:00:59Z</time>
      </trkpt>
      <trkpt lat="10.325844" lon="123.848983">
        <ele>127.183</ele>
        <time>2022-10-15T04:01:46Z</time>
      </trkpt>
      <trkpt lat="10.325891" lon="123.848932">
        <ele>126.618</ele>
        <time>2022-10-15T04:01:53Z</time>
      </trkpt>
      <trkpt lat="10.325955" lon="123.849023">
        <ele>126.698</ele>
        <time>2022-10-15T04:02:04Z</time>
      </trkpt>
      <trkpt lat="10.325997" lon="123.848990">
        <ele>127.017</ele>
        <time>2022-10-15T04:03:06Z</time>
      </trkpt>
      <trkpt lat="10.325899" lon="123.849049">
        <ele>127.309</ele>
        <time>2022-10-15T04:05:29Z</time>
      </trkpt>
      <trkpt lat="10.325952" lon="123.848954">
        <ele>126.632</ele>
        <time>2022-10-15T04:08:27Z</time>
      </trkpt>
      <trkpt lat="10.325966" lon="123.849009">
        <ele>126.422</ele>
        <time>2022-10-15T04:13:28Z</time>
      </trkpt>
      <trkpt lat="10.326148" lon="123.848950">
        <ele>127.347</ele>
        <time>2022-10-15T04:14:01Z</time>
      </trkpt>
      <trkpt lat="10.326373" lon="123.849013">
        <ele>128.743</ele>
        <time>2022-10-15T04:15:14Z</time>
      </trkpt>
      <trkpt lat="10.326528" lon="123.848757">
        <ele>130.350</ele>
        <time>2022-10-15T04:16:00Z</time>
      </trkpt>
      <trkpt lat="10.326647" lon="123.848774">
        <ele>131.046</ele>
        <time>2022-10-15T04:16:23Z</time>
      </trkpt>
      <trkpt lat="10.326571" lon="123.848691">
        <ele>133.533</ele>
        <time>2022-10-15T04:17:30Z</time>
      </trkpt>
      <trkpt lat="10.326633" lon="123.848541">
        <ele>132.775</ele>
        <time>2022-10-15T04:18:06Z</time>
      </trkpt>
      <trkpt lat="10.326831" lon="123.848545">
        <ele>133.317</ele>
        <time>2022-10-15T04:18:34Z</time>
      </trkpt>
      <trkpt lat="10.326988" lon="123.848757">
        <ele>134.782</ele>
        <time>2022-10-15T04:19:28Z</time>
      </trkpt>
      <trkpt lat="10.327149" lon="123.848721">
        <ele>135.843</ele>
        <time>2022-10-15T04:19:57Z</time>
      </trkpt>
      <trkpt lat="10.327300" lon="123.848587">
        <ele>137.017</ele>
        <time>2022-10-15T04:20:26Z</time>
      </trkpt>
      <trkpt lat="10.327673" lon="123.848525">
        <ele>138.709</ele>
        <time>2022-10-15T04:22:06Z</time>
      </trkpt>
      <trkpt lat="10.327675" lon="123.848433">
        <ele>138.899</ele>
        <time>2022-10-15T04:22:48Z</time>
      </trkpt>
      <trkpt lat="10.327763" lon="123.848435">
        <ele>138.889</ele>
        <time>2022-10-15T04:23:09Z</time>
      </trkpt>
      <trkpt lat="10.327864" lon="123.848268">
        <ele>141.154</ele>
        <time>2022-10-15T04:24:32Z</time>
      </trkpt>
      <trkpt lat="10.327727" lon="123.848193">
        <ele>141.080</ele>
        <time>2022-10-15T04:24:52Z</time>
      </trkpt>
      <trkpt lat="10.327654" lon="123.848268">
        <ele>140.737</ele>
        <time>2022-10-15T04:25:13Z</time>
      </trkpt>
      <trkpt lat="10.327643" lon="123.848475">
        <ele>139.233</ele>
        <time>2022-10-15T04:25:51Z</time>
      </trkpt>
      <trkpt lat="10.327649" lon="123.848563">
        <ele>140.320</ele>
        <time>2022-10-15T04:26:27Z</time>
      </trkpt>
      <trkpt lat="10.327708" lon="123.848482">
        <ele>143.132</ele>
        <time>2022-10-15T04:26:59Z</time>
      </trkpt>
      <trkpt lat="10.327777" lon="123.848604">
        <ele>146.354</ele>
        <time>2022-10-15T04:27:34Z</time>
      </trkpt>
      <trkpt lat="10.327761" lon="123.848770">
        <ele>151.276</ele>
        <time>2022-10-15T04:29:18Z</time>
      </trkpt>
      <trkpt lat="10.327900" lon="123.848671">
        <ele>154.790</ele>
        <time>2022-10-15T04:32:48Z</time>
      </trkpt>
      <trkpt lat="10.327781" lon="123.848756">
        <ele>155.119</ele>
        <time>2022-10-15T04:34:16Z</time>
      </trkpt>
      <trkpt lat="10.327815" lon="123.848660">
        <ele>152.809</ele>
        <time>2022-10-15T04:34:46Z</time>
      </trkpt>
      <trkpt lat="10.327643" lon="123.848459">
        <ele>144.438</ele>
        <time>2022-10-15T04:36:43Z</time>
      </trkpt>
      <trkpt lat="10.327433" lon="123.848483">
        <ele>141.528</ele>
        <time>2022-10-15T04:37:03Z</time>
      </trkpt>
      <trkpt lat="10.327372" lon="123.848647">
        <ele>140.723</ele>
        <time>2022-10-15T04:37:45Z</time>
      </trkpt>
      <trkpt lat="10.327201" lon="123.848720">
        <ele>139.949</ele>
        <time>2022-10-15T04:38:06Z</time>
      </trkpt>
      <trkpt lat="10.327116" lon="123.848605">
        <ele>139.446</ele>
        <time>2022-10-15T04:38:44Z</time>
      </trkpt>
      <trkpt lat="10.327344" lon="123.848400">
        <ele>140.922</ele>
        <time>2022-10-15T04:40:01Z</time>
      </trkpt>
      <trkpt lat="10.327404" lon="123.847959">
        <ele>142.829</ele>
        <time>2022-10-15T04:41:49Z</time>
      </trkpt>
      <trkpt lat="10.327525" lon="123.847708">
        <ele>143.851</ele>
        <time>2022-10-15T04:42:25Z</time>
      </trkpt>
      <trkpt lat="10.327469" lon="123.847572">
        <ele>145.443</ele>
        <time>2022-10-15T04:43:15Z</time>
      </trkpt>
      <trkpt lat="10.327506" lon="123.847383">
        <ele>146.712</ele>
        <time>2022-10-15T04:44:07Z</time>
      </trkpt>
      <trkpt lat="10.327613" lon="123.847331">
        <ele>148.132</ele>
        <time>2022-10-15T04:45:06Z</time>
      </trkpt>
      <trkpt lat="10.327527" lon="123.847283">
        <ele>148.605</ele>
        <time>2022-10-15T04:45:13Z</time>
      </trkpt>
      <trkpt lat="10.327534" lon="123.846787">
        <ele>153.009</ele>
        <time>2022-10-15T04:48:34Z</time>
      </trkpt>
      <trkpt lat="10.327358" lon="123.846493">
        <ele>156.992</ele>
        <time>2022-10-15T04:49:39Z</time>
      </trkpt>
      <trkpt lat="10.327556" lon="123.846362">
        <ele>160.682</ele>
        <time>2022-10-15T04:51:23Z</time>
      </trkpt>
      <trkpt lat="10.327467" lon="123.846353">
        <ele>161.687</ele>
        <time>2022-10-15T04:51:41Z</time>
      </trkpt>
      <trkpt lat="10.327459" lon="123.846215">
        <ele>163.193</ele>
        <time>2022-10-15T04:51:56Z</time>
      </trkpt>
      <trkpt lat="10.327377" lon="123.846286">
        <ele>162.310</ele>
        <time>2022-10-15T04:52:25Z</time>
      </trkpt>
      <trkpt lat="10.327347" lon="123.846243">
        <ele>162.026</ele>
        <time>2022-10-15T04:52:39Z</time>
      </trkpt>
      <trkpt lat="10.327534" lon="123.846236">
        <ele>162.333</ele>
        <time>2022-10-15T04:53:14Z</time>
      </trkpt>
      <trkpt lat="10.327740" lon="123.846101">
        <ele>164.415</ele>
        <time>2022-10-15T04:53:48Z</time>
      </trkpt>
      <trkpt lat="10.327782" lon="123.845944">
        <ele>166.377</ele>
        <time>2022-10-15T04:54:42Z</time>
      </trkpt>
      <trkpt lat="10.327658" lon="123.845872">
        <ele>166.785</ele>
        <time>2022-10-15T04:55:29Z</time>
      </trkpt>
      <trkpt lat="10.327625" lon="123.845788">
        <ele>167.289</ele>
        <time>2022-10-15T04:56:29Z</time>
      </trkpt>
      <trkpt lat="10.327672" lon="123.845802">
        <ele>168.517</ele>
        <time>2022-10-15T04:57:11Z</time>
      </trkpt>
      <trkpt lat="10.327718" lon="123.846044">
        <ele>166.409</ele>
        <time>2022-10-15T04:58:04Z</time>
      </trkpt>
      <trkpt lat="10.327605" lon="123.846217">
        <ele>164.619</ele>
        <time>2022-10-15T04:58:36Z</time>
      </trkpt>
      <trkpt lat="10.327392" lon="123.846299">
        <ele>162.069</ele>
        <time>2022-10-15T04:58:59Z</time>
      </trkpt>
      <trkpt lat="10.327566" lon="123.847370">
        <ele>151.254</ele>
        <time>2022-10-15T05:04:07Z</time>
      </trkpt>
      <trkpt lat="10.327316" lon="123.848503">
        <ele>142.840</ele>
        <time>2022-10-15T05:06:59Z</time>
      </trkpt>
      <trkpt lat="10.327109" lon="123.848674">
        <ele>141.827</ele>
        <time>2022-10-15T05:07:45Z</time>
      </trkpt>
      <trkpt lat="10.326881" lon="123.848588">
        <ele>139.833</ele>
        <time>2022-10-15T05:08:28Z</time>
      </trkpt>
      <trkpt lat="10.326737" lon="123.848638">
        <ele>139.380</ele>
        <time>2022-10-15T05:08:43Z</time>
      </trkpt>
      <trkpt lat="10.326646" lon="123.848767">
        <ele>138.272</ele>
        <time>2022-10-15T05:09:09Z</time>
      </trkpt>
      <trkpt lat="10.326531" lon="123.848753">
        <ele>138.414</ele>
        <time>2022-10-15T05:09:31Z</time>
      </trkpt>
      <trkpt lat="10.326324" lon="123.848976">
        <ele>135.955</ele>
        <time>2022-10-15T05:10:29Z</time>
      </trkpt>
      <trkpt lat="10.326372" lon="123.848992">
        <ele>135.707</ele>
        <time>2022-10-15T05:11:32Z</time>
      </trkpt>
      <trkpt lat="10.326331" lon="123.849121">
        <ele>135.917</ele>
        <time>2022-10-15T05:12:02Z</time>
      </trkpt>
      <trkpt lat="10.326130" lon="123.848916">
        <ele>135.609</ele>
        <time>2022-10-15T05:13:39Z</time>
      </trkpt>
      <trkpt lat="10.326023" lon="123.849013">
        <ele>135.426</ele>
        <time>2022-10-15T05:13:56Z</time>
      </trkpt>
      <trkpt lat="10.325870" lon="123.848975">
        <ele>134.716</ele>
        <time>2022-10-15T05:14:17Z</time>
      </trkpt>
      <trkpt lat="10.326026" lon="123.849149">
        <ele>136.091</ele>
        <time>2022-10-15T05:15:45Z</time>
      </trkpt>
      <trkpt lat="10.325938" lon="123.849539">
        <ele>137.237</ele>
        <time>2022-10-15T05:17:04Z</time>
      </trkpt>
      <trkpt lat="10.325989" lon="123.849680">
        <ele>137.774</ele>
        <time>2022-10-15T05:17:23Z</time>
      </trkpt>
      <trkpt lat="10.326277" lon="123.849682">
        <ele>139.250</ele>
        <time>2022-10-15T05:18:08Z</time>
      </trkpt>
      <trkpt lat="10.326457" lon="123.849886">
        <ele>140.947</ele>
        <time>2022-10-15T05:18:45Z</time>
      </trkpt>
      <trkpt lat="10.326495" lon="123.850089">
        <ele>141.979</ele>
        <time>2022-10-15T05:19:11Z</time>
      </trkpt>
      <trkpt lat="10.326381" lon="123.850295">
        <ele>148.631</ele>
        <time>2022-10-15T05:19:57Z</time>
      </trkpt>
      <trkpt lat="10.326546" lon="123.850317">
        <ele>152.454</ele>
        <time>2022-10-15T05:20:34Z</time>
      </trkpt>
      <trkpt lat="10.326663" lon="123.850233">
        <ele>148.956</ele>
        <time>2022-10-15T05:21:04Z</time>
      </trkpt>
      <trkpt lat="10.326904" lon="123.850270">
        <ele>148.611</ele>
        <time>2022-10-15T05:21:30Z</time>
      </trkpt>
      <trkpt lat="10.326957" lon="123.850474">
        <ele>149.509</ele>
        <time>2022-10-15T05:21:52Z</time>
      </trkpt>
      <trkpt lat="10.326888" lon="123.850618">
        <ele>150.736</ele>
        <time>2022-10-15T05:22:31Z</time>
      </trkpt>
      <trkpt lat="10.326837" lon="123.850602">
        <ele>151.916</ele>
        <time>2022-10-15T05:23:41Z</time>
      </trkpt>
      <trkpt lat="10.327349" lon="123.850738">
        <ele>152.851</ele>
        <time>2022-10-15T05:25:24Z</time>
      </trkpt>
      <trkpt lat="10.327837" lon="123.850600">
        <ele>154.847</ele>
        <time>2022-10-15T05:26:31Z</time>
      </trkpt>
      <trkpt lat="10.328051" lon="123.850900">
        <ele>155.984</ele>
        <time>2022-10-15T05:27:43Z</time>
      </trkpt>
      <trkpt lat="10.328366" lon="123.850956">
        <ele>163.080</ele>
        <time>2022-10-15T05:30:34Z</time>
      </trkpt>
      <trkpt lat="10.328710" lon="123.850455">
        <ele>190.247</ele>
        <time>2022-10-15T05:35:02Z</time>
      </trkpt>
      <trkpt lat="10.328922" lon="123.850268">
        <ele>198.759</ele>
        <time>2022-10-15T05:36:05Z</time>
      </trkpt>
      <trkpt lat="10.329175" lon="123.850221">
        <ele>204.771</ele>
        <time>2022-10-15T05:37:17Z</time>
      </trkpt>
      <trkpt lat="10.329306" lon="123.850069">
        <ele>207.839</ele>
        <time>2022-10-15T05:38:17Z</time>
      </trkpt>
      <trkpt lat="10.329278" lon="123.849979">
        <ele>213.901</ele>
        <time>2022-10-15T05:38:52Z</time>
      </trkpt>
      <trkpt lat="10.329362" lon="123.849866">
        <ele>220.021</ele>
        <time>2022-10-15T05:41:04Z</time>
      </trkpt>
      <trkpt lat="10.329283" lon="123.849757">
        <ele>226.809</ele>
        <time>2022-10-15T05:42:35Z</time>
      </trkpt>
      <trkpt lat="10.329323" lon="123.849689">
        <ele>227.014</ele>
        <time>2022-10-15T05:43:18Z</time>
      </trkpt>
      <trkpt lat="10.329270" lon="123.849704">
        <ele>227.144</ele>
        <time>2022-10-15T05:44:03Z</time>
      </trkpt>
      <trkpt lat="10.329369" lon="123.849754">
        <ele>227.119</ele>
        <time>2022-10-15T05:44:24Z</time>
      </trkpt>
      <trkpt lat="10.329331" lon="123.849792">
        <ele>227.155</ele>
        <time>2022-10-15T05:44:32Z</time>
      </trkpt>
      <trkpt lat="10.329483" lon="123.849527">
        <ele>229.822</ele>
        <time>2022-10-15T05:47:06Z</time>
      </trkpt>
      <trkpt lat="10.329465" lon="123.849309">
        <ele>230.628</ele>
        <time>2022-10-15T05:48:16Z</time>
      </trkpt>
      <trkpt lat="10.329969" lon="123.849025">
        <ele>236.995</ele>
        <time>2022-10-15T05:50:54Z</time>
      </trkpt>
      <trkpt lat="10.330160" lon="123.849001">
        <ele>238.967</ele>
        <time>2022-10-15T05:51:30Z</time>
      </trkpt>
      <trkpt lat="10.330335" lon="123.848709">
        <ele>244.089</ele>
        <time>2022-10-15T05:53:06Z</time>
      </trkpt>
      <trkpt lat="10.330735" lon="123.848429">
        <ele>244.817</ele>
        <time>2022-10-15T05:54:22Z</time>
      </trkpt>
      <trkpt lat="10.331092" lon="123.847567">
        <ele>253.887</ele>
        <time>2022-10-15T06:01:55Z</time>
      </trkpt>
      <trkpt lat="10.331330" lon="123.847326">
        <ele>268.815</ele>
        <time>2022-10-15T06:04:35Z</time>
      </trkpt>
      <trkpt lat="10.331343" lon="123.847188">
        <ele>274.109</ele>
        <time>2022-10-15T06:05:12Z</time>
      </trkpt>
      <trkpt lat="10.331497" lon="123.847179">
        <ele>278.572</ele>
        <time>2022-10-15T06:07:08Z</time>
      </trkpt>
      <trkpt lat="10.331394" lon="123.847097">
        <ele>278.932</ele>
        <time>2022-10-15T06:09:53Z</time>
      </trkpt>
      <trkpt lat="10.331425" lon="123.846706">
        <ele>305.417</ele>
        <time>2022-10-15T06:13:16Z</time>
      </trkpt>
      <trkpt lat="10.331513" lon="123.846656">
        <ele>312.143</ele>
        <time>2022-10-15T06:14:27Z</time>
      </trkpt>
      <trkpt lat="10.331570" lon="123.846435">
        <ele>319.770</ele>
        <time>2022-10-15T06:17:07Z</time>
      </trkpt>
      <trkpt lat="10.331791" lon="123.846473">
        <ele>324.556</ele>
        <time>2022-10-15T06:20:27Z</time>
      </trkpt>
      <trkpt lat="10.331771" lon="123.846377">
        <ele>325.043</ele>
        <time>2022-10-15T06:21:11Z</time>
      </trkpt>
      <trkpt lat="10.331932" lon="123.846051">
        <ele>338.585</ele>
        <time>2022-10-15T06:23:26Z</time>
      </trkpt>
      <trkpt lat="10.331876" lon="123.845918">
        <ele>342.197</ele>
        <time>2022-10-15T06:23:56Z</time>
      </trkpt>
      <trkpt lat="10.331974" lon="123.845996">
        <ele>344.161</ele>
        <time>2022-10-15T06:26:11Z</time>
      </trkpt>
      <trkpt lat="10.331900" lon="123.845751">
        <ele>356.321</ele>
        <time>2022-10-15T06:29:49Z</time>
      </trkpt>
      <trkpt lat="10.332135" lon="123.845538">
        <ele>366.213</ele>
        <time>2022-10-15T06:31:55Z</time>
      </trkpt>
      <trkpt lat="10.332184" lon="123.845582">
        <ele>371.009</ele>
        <time>2022-10-15T06:33:34Z</time>
      </trkpt>
      <trkpt lat="10.332206" lon="123.845441">
        <ele>371.727</ele>
        <time>2022-10-15T06:35:24Z</time>
      </trkpt>
      <trkpt lat="10.332299" lon="123.845422">
        <ele>372.277</ele>
        <time>2022-10-15T06:35:38Z</time>
      </trkpt>
      <trkpt lat="10.332282" lon="123.845138">
        <ele>386.032</ele>
        <time>2022-10-15T06:36:56Z</time>
      </trkpt>
      <trkpt lat="10.332502" lon="123.844734">
        <ele>389.248</ele>
        <time>2022-10-15T06:38:32Z</time>
      </trkpt>
      <trkpt lat="10.332780" lon="123.844469">
        <ele>397.295</ele>
        <time>2022-10-15T06:39:53Z</time>
      </trkpt>
      <trkpt lat="10.332947" lon="123.844002">
        <ele>401.081</ele>
        <time>2022-10-15T06:41:38Z</time>
      </trkpt>
      <trkpt lat="10.333129" lon="123.843888">
        <ele>405.848</ele>
        <time>2022-10-15T06:42:30Z</time>
      </trkpt>
      <trkpt lat="10.333071" lon="123.843743">
        <ele>409.070</ele>
        <time>2022-10-15T06:43:36Z</time>
      </trkpt>
      <trkpt lat="10.333258" lon="123.843410">
        <ele>415.362</ele>
        <time>2022-10-15T06:44:38Z</time>
      </trkpt>
      <trkpt lat="10.333237" lon="123.843258">
        <ele>418.657</ele>
        <time>2022-10-15T06:45:10Z</time>
      </trkpt>
      <trkpt lat="10.333313" lon="123.843222">
        <ele>421.000</ele>
        <time>2022-10-15T06:47:38Z</time>
      </trkpt>
      <trkpt lat="10.333227" lon="123.843152">
        <ele>421.220</ele>
        <time>2022-10-15T06:52:51Z</time>
      </trkpt>
      <trkpt lat="10.333593" lon="123.842896">
        <ele>436.409</ele>
        <time>2022-10-15T06:56:23Z</time>
      </trkpt>
      <trkpt lat="10.333604" lon="123.842696">
        <ele>439.966</ele>
        <time>2022-10-15T06:58:35Z</time>
      </trkpt>
      <trkpt lat="10.333785" lon="123.842645">
        <ele>445.526</ele>
        <time>2022-10-15T06:59:12Z</time>
      </trkpt>
      <trkpt lat="10.333946" lon="123.842345">
        <ele>451.431</ele>
        <time>2022-10-15T07:00:05Z</time>
      </trkpt>
      <trkpt lat="10.333990" lon="123.841851">
        <ele>463.067</ele>
        <time>2022-10-15T07:02:30Z</time>
      </trkpt>
      <trkpt lat="10.334168" lon="123.841764">
        <ele>466.984</ele>
        <time>2022-10-15T07:07:20Z</time>
      </trkpt>
      <trkpt lat="10.334127" lon="123.841797">
        <ele>466.810</ele>
        <time>2022-10-15T07:08:01Z</time>
      </trkpt>
    </trkseg>
  </trk></gpx>