<?xml version="1.0" encoding="UTF-8"?><gpx creator="Wikiloc - https://www.wikiloc.com" version="1.1" xmlns="http://www.topografix.com/GPX/1/1" xmlns:xsi="http://www.w3.org/2001/XMLSchema-instance" xsi:schemaLocation="http://www.topografix.com/GPX/1/1 http://www.topografix.com/GPX/1/1/gpx.xsd"><metadata><name>Wikiloc - Osmena's Peak (Hiking route from Mantalongon to Peak)</name><author><name>paulbaguio</name><link href="https://www.wikiloc.com/wikiloc/user.do?id=117359"><text>paulbaguio on Wikiloc</text></link></author><link href="https://www.wikiloc.com/hiking-trails/osmenas-peak-hiking-route-from-mantalongon-to-peak-682127"><text>Osmena's Peak (Hiking route from Mantalongon to Peak) on Wikiloc</text></link><time>2007-07-07T01:55:20Z</time></metadata><trk><name>Osmena's Peak (Hiking route from Mantalongon to Peak)</name><cmt></cmt><desc></desc><trkseg><trkpt lat="9.807640" lon="123.464632"><ele>786.595</ele><time>2007-07-07T08:01:30Z</time></trkpt><trkpt lat="9.807607" lon="123.464637"><ele>765.849</ele><time>2007-07-07T08:03:25Z</time></trkpt><trkpt lat="9.807604" lon="123.464629"><ele>770.123</ele><time>2007-07-07T08:03:52Z</time></trkpt><trkpt lat="9.807568" lon="123.464643"><ele>770.606</ele><time>2007-07-07T08:04:12Z</time></trkpt><trkpt lat="9.807533" lon="123.464760"><ele>772.535</ele><time>2007-07-07T08:04:32Z</time></trkpt><trkpt lat="9.807447" lon="123.464800"><ele>772.087</ele><time>2007-07-07T08:04:55Z</time></trkpt><trkpt lat="9.807446" lon="123.464807"><ele>773.411</ele><time>2007-07-07T08:05:14Z</time></trkpt><trkpt lat="9.807438" lon="123.464802"><ele>773.940</ele><time>2007-07-07T08:05:58Z</time></trkpt><trkpt lat="9.807451" lon="123.464828"><ele>771.521</ele><time>2007-07-07T08:06:49Z</time></trkpt><trkpt lat="9.807468" lon="123.464847"><ele>770.126</ele><time>2007-07-07T08:07:03Z</time></trkpt><trkpt lat="9.807480" lon="123.464846"><ele>768.246</ele><time>2007-07-07T08:07:22Z</time></trkpt><trkpt lat="9.807470" lon="123.464845"><ele>764.488</ele><time>2007-07-07T08:08:28Z</time></trkpt><trkpt lat="9.807435" lon="123.464815"><ele>764.916</ele><time>2007-07-07T08:08:43Z</time></trkpt><trkpt lat="9.807449" lon="123.464816"><ele>765.906</ele><time>2007-07-07T08:09:02Z</time></trkpt><trkpt lat="9.807476" lon="123.464829"><ele>769.780</ele><time>2007-07-07T08:11:29Z</time></trkpt><trkpt lat="9.807552" lon="123.464828"><ele>775.592</ele><time>2007-07-07T08:13:19Z</time></trkpt><trkpt lat="9.807605" lon="123.464802"><ele>774.156</ele><time>2007-07-07T08:13:27Z</time></trkpt><trkpt lat="9.807750" lon="123.464701"><ele>769.385</ele><time>2007-07-07T08:13:49Z</time></trkpt><trkpt lat="9.807751" lon="123.464706"><ele>769.386</ele><time>2007-07-07T08:13:50Z</time></trkpt><trkpt lat="9.807805" lon="123.464688"><ele>769.841</ele><time>2007-07-07T08:13:55Z</time></trkpt><trkpt lat="9.808049" lon="123.464492"><ele>771.274</ele><time>2007-07-07T08:14:22Z</time></trkpt><trkpt lat="9.808307" lon="123.464253"><ele>771.256</ele><time>2007-07-07T08:14:52Z</time></trkpt><trkpt lat="9.808516" lon="123.464085"><ele>771.721</ele><time>2007-07-07T08:15:17Z</time></trkpt><trkpt lat="9.808726" lon="123.463909"><ele>772.206</ele><time>2007-07-07T08:15:43Z</time></trkpt><trkpt lat="9.808779" lon="123.463859"><ele>773.223</ele><time>2007-07-07T08:15:50Z</time></trkpt><trkpt lat="9.808968" lon="123.463589"><ele>773.785</ele><time>2007-07-07T08:16:20Z</time></trkpt><trkpt lat="9.809150" lon="123.463376"><ele>773.729</ele><time>2007-07-07T08:16:46Z</time></trkpt><trkpt lat="9.809337" lon="123.463149"><ele>776.688</ele><time>2007-07-07T08:17:15Z</time></trkpt><trkpt lat="9.809448" lon="123.462893"><ele>777.679</ele><time>2007-07-07T08:17:43Z</time></trkpt><trkpt lat="9.809524" lon="123.462750"><ele>777.684</ele><time>2007-07-07T08:18:00Z</time></trkpt><trkpt lat="9.809620" lon="123.462519"><ele>778.191</ele><time>2007-07-07T08:18:24Z</time></trkpt><trkpt lat="9.809793" lon="123.462297"><ele>777.681</ele><time>2007-07-07T08:18:52Z</time></trkpt><trkpt lat="9.809912" lon="123.462214"><ele>777.119</ele><time>2007-07-07T08:19:10Z</time></trkpt><trkpt lat="9.810033" lon="123.462113"><ele>775.706</ele><time>2007-07-07T08:19:30Z</time></trkpt><trkpt lat="9.810209" lon="123.462024"><ele>777.155</ele><time>2007-07-07T08:19:51Z</time></trkpt><trkpt lat="9.810505" lon="123.461968"><ele>775.717</ele><time>2007-07-07T08:20:21Z</time></trkpt><trkpt lat="9.810734" lon="123.462008"><ele>773.391</ele><time>2007-07-07T08:20:44Z</time></trkpt><trkpt lat="9.810976" lon="123.462072"><ele>772.340</ele><time>2007-07-07T08:21:07Z</time></trkpt><trkpt lat="9.811248" lon="123.462053"><ele>774.741</ele><time>2007-07-07T08:21:33Z</time></trkpt><trkpt lat="9.811413" lon="123.461991"><ele>775.726</ele><time>2007-07-07T08:21:51Z</time></trkpt><trkpt lat="9.811554" lon="123.461828"><ele>779.173</ele><time>2007-07-07T08:22:16Z</time></trkpt><trkpt lat="9.811570" lon="123.461651"><ele>779.185</ele><time>2007-07-07T08:22:38Z</time></trkpt><trkpt lat="9.811563" lon="123.461656"><ele>779.613</ele><time>2007-07-07T08:22:55Z</time></trkpt><trkpt lat="9.811558" lon="123.461637"><ele>777.706</ele><time>2007-07-07T08:23:02Z</time></trkpt><trkpt lat="9.811596" lon="123.461521"><ele>778.253</ele><time>2007-07-07T08:23:24Z</time></trkpt><trkpt lat="9.811557" lon="123.461504"><ele>779.275</ele><time>2007-07-07T08:23:49Z</time></trkpt><trkpt lat="9.811649" lon="123.461552"><ele>789.349</ele><time>2007-07-07T08:26:00Z</time></trkpt><trkpt lat="9.811652" lon="123.461289"><ele>788.888</ele><time>2007-07-07T08:26:36Z</time></trkpt><trkpt lat="9.811679" lon="123.461147"><ele>789.819</ele><time>2007-07-07T08:26:53Z</time></trkpt><trkpt lat="9.811641" lon="123.461003"><ele>792.714</ele><time>2007-07-07T08:27:10Z</time></trkpt><trkpt lat="9.811490" lon="123.460810"><ele>791.718</ele><time>2007-07-07T08:27:34Z</time></trkpt><trkpt lat="9.811494" lon="123.460791"><ele>792.298</ele><time>2007-07-07T08:27:36Z</time></trkpt><trkpt lat="9.811532" lon="123.460651"><ele>792.717</ele><time>2007-07-07T08:27:52Z</time></trkpt><trkpt lat="9.811728" lon="123.460496"><ele>795.606</ele><time>2007-07-07T08:28:18Z</time></trkpt><trkpt lat="9.811879" lon="123.460347"><ele>795.187</ele><time>2007-07-07T08:28:41Z</time></trkpt><trkpt lat="9.811996" lon="123.460144"><ele>797.029</ele><time>2007-07-07T08:29:06Z</time></trkpt><trkpt lat="9.811994" lon="123.460111"><ele>796.083</ele><time>2007-07-07T08:29:09Z</time></trkpt><trkpt lat="9.811974" lon="123.459901"><ele>797.452</ele><time>2007-07-07T08:29:33Z</time></trkpt><trkpt lat="9.811890" lon="123.459751"><ele>801.773</ele><time>2007-07-07T08:29:55Z</time></trkpt><trkpt lat="9.811780" lon="123.459593"><ele>805.168</ele><time>2007-07-07T08:30:18Z</time></trkpt><trkpt lat="9.811680" lon="123.459421"><ele>807.092</ele><time>2007-07-07T08:30:40Z</time></trkpt><trkpt lat="9.811598" lon="123.459213"><ele>811.873</ele><time>2007-07-07T08:31:04Z</time></trkpt><trkpt lat="9.811547" lon="123.458987"><ele>814.720</ele><time>2007-07-07T08:31:28Z</time></trkpt><trkpt lat="9.811504" lon="123.458755"><ele>817.106</ele><time>2007-07-07T08:31:53Z</time></trkpt><trkpt lat="9.811541" lon="123.458567"><ele>818.545</ele><time>2007-07-07T08:32:15Z</time></trkpt><trkpt lat="9.811552" lon="123.458539"><ele>818.527</ele><time>2007-07-07T08:32:18Z</time></trkpt><trkpt lat="9.811764" lon="123.458365"><ele>819.011</ele><time>2007-07-07T08:32:45Z</time></trkpt><trkpt lat="9.811862" lon="123.458150"><ele>820.940</ele><time>2007-07-07T08:33:07Z</time></trkpt><trkpt lat="9.811830" lon="123.457923"><ele>823.821</ele><time>2007-07-07T08:33:30Z</time></trkpt><trkpt lat="9.811874" lon="123.457641"><ele>823.876</ele><time>2007-07-07T08:33:56Z</time></trkpt><trkpt lat="9.811895" lon="123.457362"><ele>827.688</ele><time>2007-07-07T08:34:21Z</time></trkpt><trkpt lat="9.811915" lon="123.457128"><ele>827.624</ele><time>2007-07-07T08:34:44Z</time></trkpt><trkpt lat="9.811940" lon="123.456988"><ele>827.626</ele><time>2007-07-07T08:34:57Z</time></trkpt><trkpt lat="9.811954" lon="123.456903"><ele>830.006</ele><time>2007-07-07T08:35:16Z</time></trkpt><trkpt lat="9.811975" lon="123.456760"><ele>830.024</ele><time>2007-07-07T08:36:29Z</time></trkpt><trkpt lat="9.811887" lon="123.456907"><ele>830.066</ele><time>2007-07-07T08:46:12Z</time></trkpt><trkpt lat="9.811922" lon="123.456924"><ele>829.560</ele><time>2007-07-07T08:46:37Z</time></trkpt><trkpt lat="9.811930" lon="123.456811"><ele>833.379</ele><time>2007-07-07T08:47:12Z</time></trkpt><trkpt lat="9.811971" lon="123.456640"><ele>835.260</ele><time>2007-07-07T08:47:34Z</time></trkpt><trkpt lat="9.812040" lon="123.456466"><ele>839.055</ele><time>2007-07-07T08:47:57Z</time></trkpt><trkpt lat="9.812059" lon="123.456415"><ele>840.076</ele><time>2007-07-07T08:48:03Z</time></trkpt><trkpt lat="9.812194" lon="123.456171"><ele>844.390</ele><time>2007-07-07T08:48:31Z</time></trkpt><trkpt lat="9.812241" lon="123.455960"><ele>847.219</ele><time>2007-07-07T08:48:53Z</time></trkpt><trkpt lat="9.812150" lon="123.455734"><ele>851.006</ele><time>2007-07-07T08:49:18Z</time></trkpt><trkpt lat="9.811874" lon="123.455609"><ele>853.463</ele><time>2007-07-07T08:49:49Z</time></trkpt><trkpt lat="9.811634" lon="123.455410"><ele>855.855</ele><time>2007-07-07T08:50:20Z</time></trkpt><trkpt lat="9.811604" lon="123.455132"><ele>857.779</ele><time>2007-07-07T08:50:46Z</time></trkpt><trkpt lat="9.811530" lon="123.454791"><ele>860.178</ele><time>2007-07-07T08:51:18Z</time></trkpt><trkpt lat="9.811477" lon="123.454529"><ele>863.049</ele><time>2007-07-07T08:51:45Z</time></trkpt><trkpt lat="9.811343" lon="123.454311"><ele>866.454</ele><time>2007-07-07T08:52:13Z</time></trkpt><trkpt lat="9.811195" lon="123.454108"><ele>868.856</ele><time>2007-07-07T08:52:39Z</time></trkpt><trkpt lat="9.811070" lon="123.453970"><ele>871.259</ele><time>2007-07-07T08:53:02Z</time></trkpt><trkpt lat="9.810922" lon="123.453863"><ele>873.614</ele><time>2007-07-07T08:53:22Z</time></trkpt><trkpt lat="9.810835" lon="123.453719"><ele>875.506</ele><time>2007-07-07T08:53:41Z</time></trkpt><trkpt lat="9.810839" lon="123.453710"><ele>875.571</ele><time>2007-07-07T08:53:42Z</time></trkpt><trkpt lat="9.810962" lon="123.453554"><ele>877.433</ele><time>2007-07-07T08:54:04Z</time></trkpt><trkpt lat="9.811001" lon="123.453523"><ele>877.937</ele><time>2007-07-07T08:54:10Z</time></trkpt><trkpt lat="9.811096" lon="123.453381"><ele>880.396</ele><time>2007-07-07T08:54:29Z</time></trkpt><trkpt lat="9.811221" lon="123.453177"><ele>881.787</ele><time>2007-07-07T08:54:52Z</time></trkpt><trkpt lat="9.811382" lon="123.452990"><ele>881.732</ele><time>2007-07-07T08:55:14Z</time></trkpt><trkpt lat="9.811479" lon="123.452819"><ele>879.867</ele><time>2007-07-07T08:55:33Z</time></trkpt><trkpt lat="9.811628" lon="123.452702"><ele>879.881</ele><time>2007-07-07T08:55:51Z</time></trkpt><trkpt lat="9.811735" lon="123.452652"><ele>881.219</ele><time>2007-07-07T08:56:07Z</time></trkpt><trkpt lat="9.811934" lon="123.452503"><ele>883.606</ele><time>2007-07-07T08:56:31Z</time></trkpt><trkpt lat="9.812002" lon="123.452339"><ele>885.012</ele><time>2007-07-07T08:56:49Z</time></trkpt><trkpt lat="9.811964" lon="123.452183"><ele>886.014</ele><time>2007-07-07T08:57:09Z</time></trkpt><trkpt lat="9.811968" lon="123.452051"><ele>887.098</ele><time>2007-07-07T08:57:24Z</time></trkpt><trkpt lat="9.811946" lon="123.451884"><ele>890.457</ele><time>2007-07-07T08:57:45Z</time></trkpt><trkpt lat="9.811930" lon="123.451690"><ele>892.848</ele><time>2007-07-07T08:58:06Z</time></trkpt><trkpt lat="9.811874" lon="123.451527"><ele>894.743</ele><time>2007-07-07T08:58:24Z</time></trkpt><trkpt lat="9.811746" lon="123.451352"><ele>895.725</ele><time>2007-07-07T08:58:45Z</time></trkpt><trkpt lat="9.811671" lon="123.451214"><ele>896.726</ele><time>2007-07-07T08:59:03Z</time></trkpt><trkpt lat="9.811626" lon="123.450979"><ele>898.608</ele><time>2007-07-07T08:59:27Z</time></trkpt><trkpt lat="9.811595" lon="123.450777"><ele>901.006</ele><time>2007-07-07T08:59:48Z</time></trkpt><trkpt lat="9.811579" lon="123.450488"><ele>902.028</ele><time>2007-07-07T09:00:15Z</time></trkpt><trkpt lat="9.811649" lon="123.450299"><ele>903.470</ele><time>2007-07-07T09:00:40Z</time></trkpt><trkpt lat="9.811686" lon="123.450173"><ele>903.474</ele><time>2007-07-07T09:00:56Z</time></trkpt><trkpt lat="9.811716" lon="123.450122"><ele>902.983</ele><time>2007-07-07T09:01:11Z</time></trkpt><trkpt lat="9.811723" lon="123.449978"><ele>903.934</ele><time>2007-07-07T09:01:35Z</time></trkpt><trkpt lat="9.811612" lon="123.449814"><ele>904.959</ele><time>2007-07-07T09:01:58Z</time></trkpt><trkpt lat="9.811510" lon="123.449675"><ele>905.912</ele><time>2007-07-07T09:02:16Z</time></trkpt><trkpt lat="9.811499" lon="123.449615"><ele>905.932</ele><time>2007-07-07T09:02:21Z</time></trkpt><trkpt lat="9.811520" lon="123.449576"><ele>905.405</ele><time>2007-07-07T09:02:25Z</time></trkpt><trkpt lat="9.811480" lon="123.449383"><ele>908.806</ele><time>2007-07-07T09:02:45Z</time></trkpt><trkpt lat="9.811465" lon="123.449361"><ele>908.857</ele><time>2007-07-07T09:02:47Z</time></trkpt><trkpt lat="9.811398" lon="123.449105"><ele>907.879</ele><time>2007-07-07T09:03:09Z</time></trkpt><trkpt lat="9.811464" lon="123.448901"><ele>910.763</ele><time>2007-07-07T09:03:28Z</time></trkpt><trkpt lat="9.811494" lon="123.448806"><ele>913.162</ele><time>2007-07-07T09:03:48Z</time></trkpt><trkpt lat="9.811528" lon="123.448664"><ele>914.543</ele><time>2007-07-07T09:04:04Z</time></trkpt><trkpt lat="9.811531" lon="123.448607"><ele>914.598</ele><time>2007-07-07T09:04:23Z</time></trkpt><trkpt lat="9.811535" lon="123.448601"><ele>914.043</ele><time>2007-07-07T09:04:37Z</time></trkpt><trkpt lat="9.811582" lon="123.448547"><ele>914.564</ele><time>2007-07-07T09:04:43Z</time></trkpt><trkpt lat="9.811762" lon="123.448325"><ele>918.810</ele><time>2007-07-07T09:05:08Z</time></trkpt><trkpt lat="9.811774" lon="123.448251"><ele>920.706</ele><time>2007-07-07T09:05:19Z</time></trkpt><trkpt lat="9.811768" lon="123.448055"><ele>923.150</ele><time>2007-07-07T09:05:39Z</time></trkpt><trkpt lat="9.811813" lon="123.447787"><ele>924.572</ele><time>2007-07-07T09:06:04Z</time></trkpt><trkpt lat="9.811830" lon="123.447681"><ele>925.026</ele><time>2007-07-07T09:06:14Z</time></trkpt><trkpt lat="9.811884" lon="123.447407"><ele>926.925</ele><time>2007-07-07T09:06:41Z</time></trkpt><trkpt lat="9.812110" lon="123.447304"><ele>929.836</ele><time>2007-07-07T09:07:06Z</time></trkpt><trkpt lat="9.812334" lon="123.447264"><ele>931.211</ele><time>2007-07-07T09:07:31Z</time></trkpt><trkpt lat="9.812382" lon="123.447172"><ele>933.669</ele><time>2007-07-07T09:07:46Z</time></trkpt><trkpt lat="9.812353" lon="123.447025"><ele>936.504</ele><time>2007-07-07T09:08:02Z</time></trkpt><trkpt lat="9.812323" lon="123.446992"><ele>938.924</ele><time>2007-07-07T09:08:18Z</time></trkpt><trkpt lat="9.812322" lon="123.446998"><ele>941.306</ele><time>2007-07-07T09:08:45Z</time></trkpt><trkpt lat="9.812313" lon="123.446998"><ele>943.752</ele><time>2007-07-07T09:09:08Z</time></trkpt><trkpt lat="9.812289" lon="123.446892"><ele>945.654</ele><time>2007-07-07T09:09:24Z</time></trkpt><trkpt lat="9.812307" lon="123.446811"><ele>945.168</ele><time>2007-07-07T09:09:40Z</time></trkpt><trkpt lat="9.812365" lon="123.446729"><ele>946.587</ele><time>2007-07-07T09:10:00Z</time></trkpt><trkpt lat="9.812364" lon="123.446699"><ele>946.038</ele><time>2007-07-07T09:10:19Z</time></trkpt><trkpt lat="9.812358" lon="123.446686"><ele>947.033</ele><time>2007-07-07T09:10:37Z</time></trkpt><trkpt lat="9.812360" lon="123.446674"><ele>944.674</ele><time>2007-07-07T09:10:57Z</time></trkpt><trkpt lat="9.812386" lon="123.446635"><ele>944.156</ele><time>2007-07-07T09:11:15Z</time></trkpt><trkpt lat="9.812388" lon="123.446635"><ele>943.621</ele><time>2007-07-07T09:11:35Z</time></trkpt><trkpt lat="9.812387" lon="123.446626"><ele>941.206</ele><time>2007-07-07T09:12:03Z</time></trkpt><trkpt lat="9.812415" lon="123.446620"><ele>942.233</ele><time>2007-07-07T09:12:40Z</time></trkpt><trkpt lat="9.812422" lon="123.446618"><ele>941.775</ele><time>2007-07-07T09:13:06Z</time></trkpt><trkpt lat="9.812417" lon="123.446624"><ele>942.249</ele><time>2007-07-07T09:13:39Z</time></trkpt><trkpt lat="9.812375" lon="123.446687"><ele>941.718</ele><time>2007-07-07T09:13:56Z</time></trkpt><trkpt lat="9.812393" lon="123.446726"><ele>940.319</ele><time>2007-07-07T09:14:13Z</time></trkpt><trkpt lat="9.812426" lon="123.446729"><ele>940.314</ele><time>2007-07-07T09:14:30Z</time></trkpt><trkpt lat="9.812392" lon="123.446725"><ele>939.868</ele><time>2007-07-07T09:14:43Z</time></trkpt><trkpt lat="9.812374" lon="123.446704"><ele>941.742</ele><time>2007-07-07T09:15:01Z</time></trkpt><trkpt lat="9.812368" lon="123.446697"><ele>941.726</ele><time>2007-07-07T09:15:33Z</time></trkpt><trkpt lat="9.812371" lon="123.446693"><ele>941.206</ele><time>2007-07-07T09:16:06Z</time></trkpt><trkpt lat="9.812365" lon="123.446677"><ele>941.282</ele><time>2007-07-07T09:16:23Z</time></trkpt><trkpt lat="9.812431" lon="123.446568"><ele>940.784</ele><time>2007-07-07T09:16:58Z</time></trkpt><trkpt lat="9.812513" lon="123.446408"><ele>938.338</ele><time>2007-07-07T09:17:19Z</time></trkpt><trkpt lat="9.812597" lon="123.446301"><ele>935.997</ele><time>2007-07-07T09:17:41Z</time></trkpt><trkpt lat="9.812680" lon="123.446247"><ele>932.548</ele><time>2007-07-07T09:18:14Z</time></trkpt><trkpt lat="9.812694" lon="123.446239"><ele>933.993</ele><time>2007-07-07T09:18:49Z</time></trkpt><trkpt lat="9.812748" lon="123.446172"><ele>932.018</ele><time>2007-07-07T09:19:08Z</time></trkpt><trkpt lat="9.812728" lon="123.446051"><ele>929.698</ele><time>2007-07-07T09:19:22Z</time></trkpt><trkpt lat="9.812635" lon="123.445813"><ele>924.317</ele><time>2007-07-07T09:19:45Z</time></trkpt><trkpt lat="9.812747" lon="123.445721"><ele>924.306</ele><time>2007-07-07T09:20:04Z</time></trkpt><trkpt lat="9.812799" lon="123.445718"><ele>924.387</ele><time>2007-07-07T09:20:10Z</time></trkpt><trkpt lat="9.812964" lon="123.445705"><ele>923.819</ele><time>2007-07-07T09:20:31Z</time></trkpt><trkpt lat="9.813017" lon="123.445687"><ele>922.883</ele><time>2007-07-07T09:20:47Z</time></trkpt><trkpt lat="9.813161" lon="123.445612"><ele>921.492</ele><time>2007-07-07T09:21:05Z</time></trkpt><trkpt lat="9.813300" lon="123.445512"><ele>919.563</ele><time>2007-07-07T09:21:24Z</time></trkpt><trkpt lat="9.813348" lon="123.445477"><ele>918.548</ele><time>2007-07-07T09:21:31Z</time></trkpt><trkpt lat="9.813529" lon="123.445406"><ele>916.131</ele><time>2007-07-07T09:21:50Z</time></trkpt><trkpt lat="9.813710" lon="123.445432"><ele>913.761</ele><time>2007-07-07T09:22:11Z</time></trkpt><trkpt lat="9.813891" lon="123.445461"><ele>910.807</ele><time>2007-07-07T09:22:34Z</time></trkpt><trkpt lat="9.814019" lon="123.445504"><ele>909.406</ele><time>2007-07-07T09:22:55Z</time></trkpt><trkpt lat="9.814051" lon="123.445529"><ele>908.449</ele><time>2007-07-07T09:23:13Z</time></trkpt><trkpt lat="9.814166" lon="123.445615"><ele>907.461</ele><time>2007-07-07T09:23:32Z</time></trkpt><trkpt lat="9.814329" lon="123.445736"><ele>906.015</ele><time>2007-07-07T09:23:55Z</time></trkpt><trkpt lat="9.814537" lon="123.445847"><ele>905.014</ele><time>2007-07-07T09:24:19Z</time></trkpt><trkpt lat="9.814754" lon="123.445792"><ele>904.065</ele><time>2007-07-07T09:24:41Z</time></trkpt><trkpt lat="9.814919" lon="123.445707"><ele>902.190</ele><time>2007-07-07T09:25:00Z</time></trkpt><trkpt lat="9.815085" lon="123.445630"><ele>900.241</ele><time>2007-07-07T09:25:23Z</time></trkpt><trkpt lat="9.815093" lon="123.445633"><ele>900.281</ele><time>2007-07-07T09:25:24Z</time></trkpt><trkpt lat="9.815219" lon="123.445652"><ele>899.709</ele><time>2007-07-07T09:25:43Z</time></trkpt><trkpt lat="9.815308" lon="123.445665"><ele>899.206</ele><time>2007-07-07T09:25:59Z</time></trkpt><trkpt lat="9.815385" lon="123.445656"><ele>899.760</ele><time>2007-07-07T09:26:15Z</time></trkpt><trkpt lat="9.815391" lon="123.445650"><ele>899.732</ele><time>2007-07-07T09:26:16Z</time></trkpt><trkpt lat="9.815533" lon="123.445641"><ele>899.276</ele><time>2007-07-07T09:26:40Z</time></trkpt><trkpt lat="9.815544" lon="123.445629"><ele>898.255</ele><time>2007-07-07T09:27:03Z</time></trkpt><trkpt lat="9.815751" lon="123.445483"><ele>897.776</ele><time>2007-07-07T09:27:28Z</time></trkpt><trkpt lat="9.815845" lon="123.445367"><ele>896.381</ele><time>2007-07-07T09:27:49Z</time></trkpt><trkpt lat="9.815877" lon="123.445365"><ele>896.828</ele><time>2007-07-07T09:28:04Z</time></trkpt><trkpt lat="9.815893" lon="123.445337"><ele>896.389</ele><time>2007-07-07T09:28:18Z</time></trkpt><trkpt lat="9.815924" lon="123.445309"><ele>895.317</ele><time>2007-07-07T09:28:33Z</time></trkpt><trkpt lat="9.815993" lon="123.445227"><ele>896.306</ele><time>2007-07-07T09:28:48Z</time></trkpt><trkpt lat="9.816104" lon="123.445156"><ele>898.788</ele><time>2007-07-07T09:29:03Z</time></trkpt><trkpt lat="9.816279" lon="123.445147"><ele>901.150</ele><time>2007-07-07T09:29:25Z</time></trkpt><trkpt lat="9.816383" lon="123.445176"><ele>903.554</ele><time>2007-07-07T09:29:39Z</time></trkpt><trkpt lat="9.816527" lon="123.445217"><ele>907.353</ele><time>2007-07-07T09:29:58Z</time></trkpt><trkpt lat="9.816634" lon="123.445187"><ele>909.784</ele><time>2007-07-07T09:30:15Z</time></trkpt><trkpt lat="9.816717" lon="123.445048"><ele>911.649</ele><time>2007-07-07T09:30:38Z</time></trkpt><trkpt lat="9.816753" lon="123.444909"><ele>915.427</ele><time>2007-07-07T09:30:58Z</time></trkpt><trkpt lat="9.816799" lon="123.444715"><ele>917.868</ele><time>2007-07-07T09:31:21Z</time></trkpt><trkpt lat="9.816892" lon="123.444598"><ele>918.314</ele><time>2007-07-07T09:31:38Z</time></trkpt><trkpt lat="9.817087" lon="123.444646"><ele>919.706</ele><time>2007-07-07T09:32:01Z</time></trkpt><trkpt lat="9.817195" lon="123.444713"><ele>920.298</ele><time>2007-07-07T09:32:19Z</time></trkpt><trkpt lat="9.817354" lon="123.444770"><ele>920.260</ele><time>2007-07-07T09:32:41Z</time></trkpt><trkpt lat="9.817458" lon="123.444823"><ele>919.774</ele><time>2007-07-07T09:33:01Z</time></trkpt><trkpt lat="9.817627" lon="123.444995"><ele>920.233</ele><time>2007-07-07T09:33:25Z</time></trkpt><trkpt lat="9.817734" lon="123.445119"><ele>918.814</ele><time>2007-07-07T09:33:46Z</time></trkpt><trkpt lat="9.817888" lon="123.445289"><ele>917.469</ele><time>2007-07-07T09:34:08Z</time></trkpt><trkpt lat="9.817965" lon="123.445402"><ele>917.472</ele><time>2007-07-07T09:34:27Z</time></trkpt><trkpt lat="9.818000" lon="123.445394"><ele>918.413</ele><time>2007-07-07T09:34:42Z</time></trkpt><trkpt lat="9.818056" lon="123.445377"><ele>920.314</ele><time>2007-07-07T09:34:57Z</time></trkpt><trkpt lat="9.818139" lon="123.445401"><ele>923.206</ele><time>2007-07-07T09:35:14Z</time></trkpt><trkpt lat="9.818219" lon="123.445368"><ele>925.143</ele><time>2007-07-07T09:35:30Z</time></trkpt><trkpt lat="9.818253" lon="123.445262"><ele>927.065</ele><time>2007-07-07T09:35:47Z</time></trkpt><trkpt lat="9.818275" lon="123.445161"><ele>928.989</ele><time>2007-07-07T09:36:04Z</time></trkpt><trkpt lat="9.818294" lon="123.445110"><ele>929.968</ele><time>2007-07-07T09:36:19Z</time></trkpt><trkpt lat="9.818315" lon="123.445104"><ele>930.459</ele><time>2007-07-07T09:36:42Z</time></trkpt><trkpt lat="9.818313" lon="123.445110"><ele>930.974</ele><time>2007-07-07T09:37:03Z</time></trkpt><trkpt lat="9.818309" lon="123.445109"><ele>930.933</ele><time>2007-07-07T09:39:29Z</time></trkpt><trkpt lat="9.818300" lon="123.445111"><ele>928.023</ele><time>2007-07-07T09:41:59Z</time></trkpt><trkpt lat="9.818319" lon="123.445107"><ele>931.815</ele><time>2007-07-07T09:52:31Z</time></trkpt><trkpt lat="9.818255" lon="123.445087"><ele>932.306</ele><time>2007-07-07T09:52:52Z</time></trkpt><trkpt lat="9.818204" lon="123.444996"><ele>932.369</ele><time>2007-07-07T09:53:06Z</time></trkpt><trkpt lat="9.818038" lon="123.444827"><ele>930.471</ele><time>2007-07-07T09:53:31Z</time></trkpt><trkpt lat="9.818078" lon="123.444725"><ele>932.335</ele><time>2007-07-07T09:53:48Z</time></trkpt><trkpt lat="9.818143" lon="123.444628"><ele>934.774</ele><time>2007-07-07T09:54:05Z</time></trkpt><trkpt lat="9.818220" lon="123.444565"><ele>939.095</ele><time>2007-07-07T09:54:24Z</time></trkpt><trkpt lat="9.818280" lon="123.444543"><ele>940.420</ele><time>2007-07-07T09:54:43Z</time></trkpt><trkpt lat="9.818323" lon="123.444511"><ele>941.412</ele><time>2007-07-07T09:55:00Z</time></trkpt><trkpt lat="9.818398" lon="123.444512"><ele>941.432</ele><time>2007-07-07T09:55:16Z</time></trkpt><trkpt lat="9.818467" lon="123.444507"><ele>942.405</ele><time>2007-07-07T09:55:34Z</time></trkpt><trkpt lat="9.818532" lon="123.444493"><ele>945.806</ele><time>2007-07-07T09:55:50Z</time></trkpt><trkpt lat="9.818617" lon="123.444529"><ele>947.217</ele><time>2007-07-07T09:56:10Z</time></trkpt><trkpt lat="9.818709" lon="123.444537"><ele>948.239</ele><time>2007-07-07T09:56:29Z</time></trkpt><trkpt lat="9.818732" lon="123.444515"><ele>948.223</ele><time>2007-07-07T09:56:44Z</time></trkpt><trkpt lat="9.818769" lon="123.444507"><ele>950.192</ele><time>2007-07-07T09:56:59Z</time></trkpt><trkpt lat="9.818773" lon="123.444465"><ele>951.513</ele><time>2007-07-07T09:57:18Z</time></trkpt><trkpt lat="9.818789" lon="123.444421"><ele>953.928</ele><time>2007-07-07T09:57:33Z</time></trkpt><trkpt lat="9.818820" lon="123.444348"><ele>957.327</ele><time>2007-07-07T09:57:49Z</time></trkpt><trkpt lat="9.818870" lon="123.444252"><ele>956.868</ele><time>2007-07-07T09:58:08Z</time></trkpt><trkpt lat="9.818881" lon="123.444185"><ele>957.814</ele><time>2007-07-07T09:58:29Z</time></trkpt><trkpt lat="9.818917" lon="123.444132"><ele>958.806</ele><time>2007-07-07T09:58:46Z</time></trkpt><trkpt lat="9.818927" lon="123.444072"><ele>960.288</ele><time>2007-07-07T09:59:00Z</time></trkpt><trkpt lat="9.818907" lon="123.444007"><ele>960.760</ele><time>2007-07-07T09:59:19Z</time></trkpt><trkpt lat="9.818895" lon="123.443946"><ele>962.154</ele><time>2007-07-07T09:59:35Z</time></trkpt><trkpt lat="9.818861" lon="123.443886"><ele>963.573</ele><time>2007-07-07T09:59:51Z</time></trkpt><trkpt lat="9.818847" lon="123.443834"><ele>965.984</ele><time>2007-07-07T10:00:09Z</time></trkpt><trkpt lat="9.818823" lon="123.443773"><ele>967.369</ele><time>2007-07-07T10:00:23Z</time></trkpt><trkpt lat="9.818827" lon="123.443743"><ele>967.875</ele><time>2007-07-07T10:00:47Z</time></trkpt><trkpt lat="9.818843" lon="123.443737"><ele>966.428</ele><time>2007-07-07T10:02:48Z</time></trkpt><trkpt lat="9.818833" lon="123.443748"><ele>969.320</ele><time>2007-07-07T10:03:22Z</time></trkpt><trkpt lat="9.818806" lon="123.443677"><ele>973.106</ele><time>2007-07-07T10:04:09Z</time></trkpt><trkpt lat="9.818752" lon="123.443582"><ele>973.663</ele><time>2007-07-07T10:04:29Z</time></trkpt><trkpt lat="9.818710" lon="123.443536"><ele>974.695</ele><time>2007-07-07T10:04:46Z</time></trkpt><trkpt lat="9.818660" lon="123.443541"><ele>975.619</ele><time>2007-07-07T10:05:29Z</time></trkpt><trkpt lat="9.818590" lon="123.443491"><ele>975.188</ele><time>2007-07-07T10:08:02Z</time></trkpt><trkpt lat="9.818524" lon="123.443434"><ele>976.549</ele><time>2007-07-07T10:08:19Z</time></trkpt><trkpt lat="9.818483" lon="123.443395"><ele>977.954</ele><time>2007-07-07T10:08:38Z</time></trkpt><trkpt lat="9.818483" lon="123.443376"><ele>979.892</ele><time>2007-07-07T10:08:58Z</time></trkpt><trkpt lat="9.818479" lon="123.443351"><ele>982.773</ele><time>2007-07-07T10:09:13Z</time></trkpt><trkpt lat="9.818469" lon="123.443317"><ele>985.620</ele><time>2007-07-07T10:09:32Z</time></trkpt><trkpt lat="9.818480" lon="123.443304"><ele>986.606</ele><time>2007-07-07T10:09:52Z</time></trkpt><trkpt lat="9.818482" lon="123.443278"><ele>988.555</ele><time>2007-07-07T10:10:08Z</time></trkpt><trkpt lat="9.818455" lon="123.443212"><ele>989.547</ele><time>2007-07-07T10:10:25Z</time></trkpt><trkpt lat="9.818420" lon="123.443173"><ele>991.941</ele><time>2007-07-07T10:10:47Z</time></trkpt><trkpt lat="9.818385" lon="123.443147"><ele>993.380</ele><time>2007-07-07T10:11:02Z</time></trkpt><trkpt lat="9.818360" lon="123.443113"><ele>993.811</ele><time>2007-07-07T10:11:24Z</time></trkpt><trkpt lat="9.818273" lon="123.443020"><ele>992.826</ele><time>2007-07-07T10:11:48Z</time></trkpt><trkpt lat="9.818229" lon="123.442981"><ele>992.836</ele><time>2007-07-07T10:12:07Z</time></trkpt><trkpt lat="9.818214" lon="123.442940"><ele>994.217</ele><time>2007-07-07T10:12:20Z</time></trkpt><trkpt lat="9.818238" lon="123.442864"><ele>996.618</ele><time>2007-07-07T10:12:57Z</time></trkpt><trkpt lat="9.818243" lon="123.442874"><ele>997.106</ele><time>2007-07-07T10:13:17Z</time></trkpt><trkpt lat="9.818284" lon="123.442857"><ele>998.599</ele><time>2007-07-07T10:13:35Z</time></trkpt><trkpt lat="9.818321" lon="123.442824"><ele>999.511</ele><time>2007-07-07T10:13:55Z</time></trkpt><trkpt lat="9.818417" lon="123.442771"><ele>999.595</ele><time>2007-07-07T10:14:15Z</time></trkpt><trkpt lat="9.818490" lon="123.442731"><ele>998.144</ele><time>2007-07-07T10:14:31Z</time></trkpt><trkpt lat="9.818572" lon="123.442685"><ele>997.165</ele><time>2007-07-07T10:14:47Z</time></trkpt><trkpt lat="9.818626" lon="123.442665"><ele>998.580</ele><time>2007-07-07T10:15:11Z</time></trkpt><trkpt lat="9.818701" lon="123.442656"><ele>1000.438</ele><time>2007-07-07T10:15:27Z</time></trkpt><trkpt lat="9.818772" lon="123.442657"><ele>1001.470</ele><time>2007-07-07T10:15:44Z</time></trkpt><trkpt lat="9.818804" lon="123.442639"><ele>1002.417</ele><time>2007-07-07T10:15:58Z</time></trkpt><trkpt lat="9.818853" lon="123.442633"><ele>1004.306</ele><time>2007-07-07T10:16:12Z</time></trkpt><trkpt lat="9.818911" lon="123.442609"><ele>1006.779</ele><time>2007-07-07T10:16:32Z</time></trkpt><trkpt lat="9.818946" lon="123.442596"><ele>1007.251</ele><time>2007-07-07T10:16:50Z</time></trkpt><trkpt lat="9.819026" lon="123.442597"><ele>1007.255</ele><time>2007-07-07T10:17:11Z</time></trkpt><trkpt lat="9.819095" lon="123.442578"><ele>1009.114</ele><time>2007-07-07T10:17:34Z</time></trkpt><trkpt lat="9.819180" lon="123.442572"><ele>1008.145</ele><time>2007-07-07T10:17:49Z</time></trkpt><trkpt lat="9.819246" lon="123.442581"><ele>1007.640</ele><time>2007-07-07T10:18:05Z</time></trkpt><trkpt lat="9.819347" lon="123.442608"><ele>1008.166</ele><time>2007-07-07T10:18:24Z</time></trkpt><trkpt lat="9.819435" lon="123.442637"><ele>1010.029</ele><time>2007-07-07T10:18:43Z</time></trkpt><trkpt lat="9.819530" lon="123.442692"><ele>1013.421</ele><time>2007-07-07T10:19:03Z</time></trkpt><trkpt lat="9.819548" lon="123.442717"><ele>1014.406</ele><time>2007-07-07T10:19:16Z</time></trkpt><trkpt lat="9.819547" lon="123.442718"><ele>1011.012</ele><time>2007-07-07T10:19:40Z</time></trkpt><trkpt lat="9.819587" lon="123.442755"><ele>1014.884</ele><time>2007-07-07T10:20:24Z</time></trkpt><trkpt lat="9.819655" lon="123.442793"><ele>1015.398</ele><time>2007-07-07T10:20:42Z</time></trkpt><trkpt lat="9.819747" lon="123.442809"><ele>1016.357</ele><time>2007-07-07T10:21:02Z</time></trkpt><trkpt lat="9.819791" lon="123.442838"><ele>1018.298</ele><time>2007-07-07T10:21:15Z</time></trkpt><trkpt lat="9.819851" lon="123.442833"><ele>1016.873</ele><time>2007-07-07T10:21:31Z</time></trkpt><trkpt lat="9.819926" lon="123.442900"><ele>1017.889</ele><time>2007-07-07T10:21:47Z</time></trkpt><trkpt lat="9.820035" lon="123.442915"><ele>1021.206</ele><time>2007-07-07T10:22:06Z</time></trkpt><trkpt lat="9.820122" lon="123.442963"><ele>1022.626</ele><time>2007-07-07T10:22:22Z</time></trkpt><trkpt lat="9.820210" lon="123.442950"><ele>1023.606</ele><time>2007-07-07T10:22:39Z</time></trkpt><trkpt lat="9.820295" lon="123.442978"><ele>1022.234</ele><time>2007-07-07T10:22:57Z</time></trkpt><trkpt lat="9.820358" lon="123.443070"><ele>1024.116</ele><time>2007-07-07T10:23:16Z</time></trkpt><trkpt lat="9.820411" lon="123.443104"><ele>1025.150</ele><time>2007-07-07T10:23:30Z</time></trkpt><trkpt lat="9.820419" lon="123.443100"><ele>1025.149</ele><time>2007-07-07T10:23:31Z</time></trkpt><trkpt lat="9.820542" lon="123.443150"><ele>1026.510</ele><time>2007-07-07T10:23:50Z</time></trkpt><trkpt lat="9.820551" lon="123.443180"><ele>1028.465</ele><time>2007-07-07T10:24:15Z</time></trkpt><trkpt lat="9.820594" lon="123.443219"><ele>1028.451</ele><time>2007-07-07T10:24:29Z</time></trkpt><trkpt lat="9.820604" lon="123.443271"><ele>1027.901</ele><time>2007-07-07T10:24:49Z</time></trkpt><trkpt lat="9.820584" lon="123.443275"><ele>1023.611</ele><time>2007-07-07T10:25:24Z</time></trkpt><trkpt lat="9.820534" lon="123.443243"><ele>1023.106</ele><time>2007-07-07T10:25:38Z</time></trkpt><trkpt lat="9.820563" lon="123.443262"><ele>1023.161</ele><time>2007-07-07T10:26:00Z</time></trkpt><trkpt lat="9.820604" lon="123.443277"><ele>1026.013</ele><time>2007-07-07T10:26:17Z</time></trkpt><trkpt lat="9.820617" lon="123.443294"><ele>1022.227</ele><time>2007-07-07T10:26:59Z</time></trkpt><trkpt lat="9.820606" lon="123.443287"><ele>1022.736</ele><time>2007-07-07T10:29:34Z</time></trkpt><trkpt lat="9.820604" lon="123.443290"><ele>1023.737</ele><time>2007-07-07T10:30:15Z</time></trkpt><trkpt lat="9.820609" lon="123.443286"><ele>1026.142</ele><time>2007-07-07T10:51:59Z</time></trkpt><trkpt lat="9.820599" lon="123.443283"><ele>1024.754</ele><time>2007-07-07T10:55:20Z</time></trkpt></trkseg></trk></gpx>