<?xml version="1.0"?>
<gpx xmlns="http://www.topografix.com/GPX/1/1" xmlns:xsi="http://www.w3.org/2001/XMLSchema-instance" version="1.1" creator="AllTrails.com" xsi:schemaLocation="http://www.topografix.com/GPX/1/1 http://www.topografix.com/GPX/1/1/gpx.xsd">
  <metadata>
    <name><![CDATA[Mount Lanaya]]></name>
    <desc><![CDATA[]]></desc>
    <link href="http://www.alltrails.com">
      <text>AllTrails, LLC</text>
    </link>
    <bounds minlat="9.68508" minlon="123.34294" maxlat="9.70701" maxlon="123.36331"/>
  </metadata>
  <trk>
    <name><![CDATA[Mount Lanaya]]></name>
    <src>AllTrails</src>
    <trkseg>
      <trkpt lat="9.70653" lon="123.36331">
        <ele>501.12</ele>
      </trkpt>
      <trkpt lat="9.70657" lon="123.36321">
        <ele>504.69</ele>
      </trkpt>
      <trkpt lat="9.70661" lon="123.36301">
        <ele>508.35</ele>
      </trkpt>
      <trkpt lat="9.70662" lon="123.36284">
        <ele>504.75</ele>
      </trkpt>
      <trkpt lat="9.7066" lon="123.36267">
        <ele>500.43</ele>
      </trkpt>
      <trkpt lat="9.70662" lon="123.36255">
        <ele>497.99</ele>
      </trkpt>
      <trkpt lat="9.70665" lon="123.36241">
        <ele>493.45</ele>
      </trkpt>
      <trkpt lat="9.70672" lon="123.36224">
        <ele>486.79</ele>
      </trkpt>
      <trkpt lat="9.70678" lon="123.36204">
        <ele>486.65</ele>
      </trkpt>
      <trkpt lat="9.70685" lon="123.36178">
        <ele>488.55</ele>
      </trkpt>
      <trkpt lat="9.70686" lon="123.36167">
        <ele>489.16</ele>
      </trkpt>
      <trkpt lat="9.70693" lon="123.36158">
        <ele>490.11</ele>
      </trkpt>
      <trkpt lat="9.70698" lon="123.36143">
        <ele>490.32</ele>
      </trkpt>
      <trkpt lat="9.70701" lon="123.36126">
        <ele>495.49</ele>
      </trkpt>
      <trkpt lat="9.70697" lon="123.36113">
        <ele>500.07</ele>
      </trkpt>
      <trkpt lat="9.70689" lon="123.36103">
        <ele>497.06</ele>
      </trkpt>
      <trkpt lat="9.7068" lon="123.36094">
        <ele>491.7</ele>
      </trkpt>
      <trkpt lat="9.70668" lon="123.36085">
        <ele>485.64</ele>
      </trkpt>
      <trkpt lat="9.70658" lon="123.36079">
        <ele>485.17</ele>
      </trkpt>
      <trkpt lat="9.70651" lon="123.3607">
        <ele>486.73</ele>
      </trkpt>
      <trkpt lat="9.7064" lon="123.36064">
        <ele>486.12</ele>
      </trkpt>
      <trkpt lat="9.70624" lon="123.36044">
        <ele>489.12</ele>
      </trkpt>
      <trkpt lat="9.70622" lon="123.3604">
        <ele>489.81</ele>
      </trkpt>
      <trkpt lat="9.70617" lon="123.3603">
        <ele>491.15</ele>
      </trkpt>
      <trkpt lat="9.70612" lon="123.36021">
        <ele>492.23</ele>
      </trkpt>
      <trkpt lat="9.70612" lon="123.36013">
        <ele>494.56</ele>
      </trkpt>
      <trkpt lat="9.70606" lon="123.35986">
        <ele>502.22</ele>
      </trkpt>
      <trkpt lat="9.70594" lon="123.35987">
        <ele>499.77</ele>
      </trkpt>
      <trkpt lat="9.70563" lon="123.35983">
        <ele>498.85</ele>
      </trkpt>
      <trkpt lat="9.70556" lon="123.35976">
        <ele>500.12</ele>
      </trkpt>
      <trkpt lat="9.70543" lon="123.35966">
        <ele>507.12</ele>
      </trkpt>
      <trkpt lat="9.70529" lon="123.35954">
        <ele>514.67</ele>
      </trkpt>
      <trkpt lat="9.70515" lon="123.35941">
        <ele>520.2</ele>
      </trkpt>
      <trkpt lat="9.70497" lon="123.35938">
        <ele>522.56</ele>
      </trkpt>
      <trkpt lat="9.70467" lon="123.35924">
        <ele>529.75</ele>
      </trkpt>
      <trkpt lat="9.70448" lon="123.35918">
        <ele>530.79</ele>
      </trkpt>
      <trkpt lat="9.70433" lon="123.35911">
        <ele>532.34</ele>
      </trkpt>
      <trkpt lat="9.70424" lon="123.35904">
        <ele>532.74</ele>
      </trkpt>
      <trkpt lat="9.7041" lon="123.35884">
        <ele>534.2</ele>
      </trkpt>
      <trkpt lat="9.70397" lon="123.35871">
        <ele>539.46</ele>
      </trkpt>
      <trkpt lat="9.70387" lon="123.35853">
        <ele>551.39</ele>
      </trkpt>
      <trkpt lat="9.70386" lon="123.35836">
        <ele>566.97</ele>
      </trkpt>
      <trkpt lat="9.70394" lon="123.35815">
        <ele>574.02</ele>
      </trkpt>
      <trkpt lat="9.70405" lon="123.35803">
        <ele>573.08</ele>
      </trkpt>
      <trkpt lat="9.70406" lon="123.35784">
        <ele>569.85</ele>
      </trkpt>
      <trkpt lat="9.70403" lon="123.35769">
        <ele>565.98</ele>
      </trkpt>
      <trkpt lat="9.70393" lon="123.35759">
        <ele>563.94</ele>
      </trkpt>
      <trkpt lat="9.70384" lon="123.35747">
        <ele>563.61</ele>
      </trkpt>
      <trkpt lat="9.7036" lon="123.35734">
        <ele>569.6</ele>
      </trkpt>
      <trkpt lat="9.70356" lon="123.35721">
        <ele>575.96</ele>
      </trkpt>
      <trkpt lat="9.70353" lon="123.35706">
        <ele>586.16</ele>
      </trkpt>
      <trkpt lat="9.70359" lon="123.35681">
        <ele>590.04</ele>
      </trkpt>
      <trkpt lat="9.70363" lon="123.35661">
        <ele>587.47</ele>
      </trkpt>
      <trkpt lat="9.70366" lon="123.35642">
        <ele>590.51</ele>
      </trkpt>
      <trkpt lat="9.70375" lon="123.35622">
        <ele>586.02</ele>
      </trkpt>
      <trkpt lat="9.70382" lon="123.35601">
        <ele>583.96</ele>
      </trkpt>
      <trkpt lat="9.70385" lon="123.3558">
        <ele>588.55</ele>
      </trkpt>
      <trkpt lat="9.70384" lon="123.35562">
        <ele>598.26</ele>
      </trkpt>
      <trkpt lat="9.70384" lon="123.3555">
        <ele>603.3</ele>
      </trkpt>
      <trkpt lat="9.70393" lon="123.35526">
        <ele>604.7</ele>
      </trkpt>
      <trkpt lat="9.70399" lon="123.35499">
        <ele>603.72</ele>
      </trkpt>
      <trkpt lat="9.70395" lon="123.35482">
        <ele>612.64</ele>
      </trkpt>
      <trkpt lat="9.70391" lon="123.35462">
        <ele>619.4</ele>
      </trkpt>
      <trkpt lat="9.704" lon="123.35456">
        <ele>614.2</ele>
      </trkpt>
      <trkpt lat="9.70409" lon="123.35451">
        <ele>609.05</ele>
      </trkpt>
      <trkpt lat="9.70415" lon="123.3544">
        <ele>607.97</ele>
      </trkpt>
      <trkpt lat="9.70414" lon="123.35427">
        <ele>614.35</ele>
      </trkpt>
      <trkpt lat="9.70419" lon="123.35415">
        <ele>616.54</ele>
      </trkpt>
      <trkpt lat="9.70426" lon="123.35399">
        <ele>623.26</ele>
      </trkpt>
      <trkpt lat="9.70431" lon="123.35382">
        <ele>632.05</ele>
      </trkpt>
      <trkpt lat="9.70438" lon="123.35377">
        <ele>632.2</ele>
      </trkpt>
      <trkpt lat="9.70445" lon="123.35368">
        <ele>634.78</ele>
      </trkpt>
      <trkpt lat="9.70454" lon="123.35356">
        <ele>636.44</ele>
      </trkpt>
      <trkpt lat="9.70446" lon="123.35355">
        <ele>638.8</ele>
      </trkpt>
      <trkpt lat="9.70437" lon="123.3535">
        <ele>641.92</ele>
      </trkpt>
      <trkpt lat="9.70424" lon="123.35352">
        <ele>646.19</ele>
      </trkpt>
      <trkpt lat="9.70411" lon="123.35359">
        <ele>649.74</ele>
      </trkpt>
      <trkpt lat="9.70397" lon="123.35365">
        <ele>652.6</ele>
      </trkpt>
      <trkpt lat="9.7039" lon="123.35376">
        <ele>652.81</ele>
      </trkpt>
      <trkpt lat="9.70373" lon="123.35382">
        <ele>654.82</ele>
      </trkpt>
      <trkpt lat="9.70364" lon="123.35383">
        <ele>656.16</ele>
      </trkpt>
      <trkpt lat="9.70364" lon="123.35383">
        <ele>656.16</ele>
      </trkpt>
      <trkpt lat="9.70351" lon="123.35384">
        <ele>656.59</ele>
      </trkpt>
      <trkpt lat="9.70332" lon="123.35385">
        <ele>656.25</ele>
      </trkpt>
      <trkpt lat="9.70332" lon="123.35393">
        <ele>655.28</ele>
      </trkpt>
      <trkpt lat="9.70323" lon="123.35398">
        <ele>652.91</ele>
      </trkpt>
      <trkpt lat="9.70313" lon="123.35393">
        <ele>651.27</ele>
      </trkpt>
      <trkpt lat="9.70303" lon="123.35389">
        <ele>649.53</ele>
      </trkpt>
      <trkpt lat="9.70292" lon="123.35389">
        <ele>647.56</ele>
      </trkpt>
      <trkpt lat="9.7027" lon="123.35387">
        <ele>646.17</ele>
      </trkpt>
      <trkpt lat="9.70252" lon="123.35384">
        <ele>647.93</ele>
      </trkpt>
      <trkpt lat="9.7024" lon="123.35372">
        <ele>646.55</ele>
      </trkpt>
      <trkpt lat="9.7023" lon="123.35359">
        <ele>646.83</ele>
      </trkpt>
      <trkpt lat="9.7023" lon="123.35347">
        <ele>646.58</ele>
      </trkpt>
      <trkpt lat="9.7023" lon="123.35333">
        <ele>646.31</ele>
      </trkpt>
      <trkpt lat="9.70219" lon="123.35323">
        <ele>648.21</ele>
      </trkpt>
      <trkpt lat="9.70212" lon="123.35324">
        <ele>648.78</ele>
      </trkpt>
      <trkpt lat="9.70201" lon="123.35322">
        <ele>650.33</ele>
      </trkpt>
      <trkpt lat="9.70184" lon="123.35315">
        <ele>652.56</ele>
      </trkpt>
      <trkpt lat="9.70165" lon="123.35306">
        <ele>653.54</ele>
      </trkpt>
      <trkpt lat="9.70152" lon="123.35298">
        <ele>649.66</ele>
      </trkpt>
      <trkpt lat="9.70149" lon="123.35283">
        <ele>648.07</ele>
      </trkpt>
      <trkpt lat="9.70145" lon="123.35278">
        <ele>647.45</ele>
      </trkpt>
      <trkpt lat="9.70141" lon="123.3527">
        <ele>644.67</ele>
      </trkpt>
      <trkpt lat="9.7014" lon="123.35249">
        <ele>638.22</ele>
      </trkpt>
      <trkpt lat="9.70137" lon="123.35236">
        <ele>639.42</ele>
      </trkpt>
      <trkpt lat="9.70134" lon="123.35222">
        <ele>641.06</ele>
      </trkpt>
      <trkpt lat="9.70128" lon="123.35215">
        <ele>642.45</ele>
      </trkpt>
      <trkpt lat="9.70123" lon="123.35201">
        <ele>643.87</ele>
      </trkpt>
      <trkpt lat="9.70122" lon="123.35181">
        <ele>642.51</ele>
      </trkpt>
      <trkpt lat="9.70115" lon="123.35173">
        <ele>643.04</ele>
      </trkpt>
      <trkpt lat="9.70111" lon="123.3515">
        <ele>630.42</ele>
      </trkpt>
      <trkpt lat="9.70109" lon="123.35133">
        <ele>619.41</ele>
      </trkpt>
      <trkpt lat="9.70121" lon="123.35108">
        <ele>602.29</ele>
      </trkpt>
      <trkpt lat="9.7012" lon="123.35096">
        <ele>594.1</ele>
      </trkpt>
      <trkpt lat="9.70128" lon="123.35088">
        <ele>585.24</ele>
      </trkpt>
      <trkpt lat="9.70126" lon="123.35078">
        <ele>580.41</ele>
      </trkpt>
      <trkpt lat="9.7013" lon="123.35068">
        <ele>575.19</ele>
      </trkpt>
      <trkpt lat="9.7013" lon="123.35041">
        <ele>566.2</ele>
      </trkpt>
      <trkpt lat="9.7014" lon="123.35029">
        <ele>559.03</ele>
      </trkpt>
      <trkpt lat="9.7014" lon="123.35013">
        <ele>553.02</ele>
      </trkpt>
      <trkpt lat="9.70146" lon="123.3501">
        <ele>548.07</ele>
      </trkpt>
      <trkpt lat="9.70156" lon="123.35003">
        <ele>537.33</ele>
      </trkpt>
      <trkpt lat="9.70154" lon="123.34991">
        <ele>531.73</ele>
      </trkpt>
      <trkpt lat="9.7015" lon="123.34978">
        <ele>526.89</ele>
      </trkpt>
      <trkpt lat="9.70147" lon="123.34963">
        <ele>521.4</ele>
      </trkpt>
      <trkpt lat="9.70142" lon="123.34961">
        <ele>523.0</ele>
      </trkpt>
      <trkpt lat="9.70133" lon="123.3496">
        <ele>526.51</ele>
      </trkpt>
      <trkpt lat="9.70114" lon="123.34964">
        <ele>538.21</ele>
      </trkpt>
      <trkpt lat="9.70099" lon="123.34968">
        <ele>545.78</ele>
      </trkpt>
      <trkpt lat="9.70088" lon="123.34959">
        <ele>541.64</ele>
      </trkpt>
      <trkpt lat="9.70081" lon="123.34936">
        <ele>528.28</ele>
      </trkpt>
      <trkpt lat="9.70076" lon="123.34917">
        <ele>517.59</ele>
      </trkpt>
      <trkpt lat="9.70072" lon="123.34901">
        <ele>505.88</ele>
      </trkpt>
      <trkpt lat="9.70066" lon="123.34898">
        <ele>504.07</ele>
      </trkpt>
      <trkpt lat="9.70054" lon="123.3489">
        <ele>496.84</ele>
      </trkpt>
      <trkpt lat="9.70047" lon="123.34883">
        <ele>486.88</ele>
      </trkpt>
      <trkpt lat="9.70041" lon="123.34868">
        <ele>467.13</ele>
      </trkpt>
      <trkpt lat="9.70034" lon="123.34867">
        <ele>465.41</ele>
      </trkpt>
      <trkpt lat="9.70034" lon="123.34863">
        <ele>460.53</ele>
      </trkpt>
      <trkpt lat="9.70031" lon="123.34853">
        <ele>452.76</ele>
      </trkpt>
      <trkpt lat="9.70023" lon="123.34838">
        <ele>444.06</ele>
      </trkpt>
      <trkpt lat="9.70016" lon="123.34845">
        <ele>450.75</ele>
      </trkpt>
      <trkpt lat="9.69995" lon="123.34827">
        <ele>443.52</ele>
      </trkpt>
      <trkpt lat="9.69998" lon="123.34819">
        <ele>435.34</ele>
      </trkpt>
      <trkpt lat="9.69994" lon="123.34811">
        <ele>431.22</ele>
      </trkpt>
      <trkpt lat="9.69988" lon="123.34815">
        <ele>437.78</ele>
      </trkpt>
      <trkpt lat="9.69987" lon="123.34807">
        <ele>431.35</ele>
      </trkpt>
      <trkpt lat="9.69986" lon="123.34799">
        <ele>425.47</ele>
      </trkpt>
      <trkpt lat="9.69981" lon="123.34789">
        <ele>419.53</ele>
      </trkpt>
      <trkpt lat="9.69971" lon="123.34785">
        <ele>419.89</ele>
      </trkpt>
      <trkpt lat="9.69957" lon="123.34784">
        <ele>426.53</ele>
      </trkpt>
      <trkpt lat="9.69945" lon="123.34782">
        <ele>431.58</ele>
      </trkpt>
      <trkpt lat="9.69937" lon="123.34777">
        <ele>430.54</ele>
      </trkpt>
      <trkpt lat="9.69927" lon="123.34764">
        <ele>424.92</ele>
      </trkpt>
      <trkpt lat="9.69914" lon="123.34758">
        <ele>427.65</ele>
      </trkpt>
      <trkpt lat="9.69908" lon="123.34751">
        <ele>426.08</ele>
      </trkpt>
      <trkpt lat="9.69901" lon="123.34742">
        <ele>417.29</ele>
      </trkpt>
      <trkpt lat="9.69886" lon="123.3474">
        <ele>417.03</ele>
      </trkpt>
      <trkpt lat="9.69879" lon="123.34741">
        <ele>418.26</ele>
      </trkpt>
      <trkpt lat="9.6987" lon="123.34745">
        <ele>423.96</ele>
      </trkpt>
      <trkpt lat="9.69858" lon="123.34738">
        <ele>411.1</ele>
      </trkpt>
      <trkpt lat="9.69851" lon="123.34743">
        <ele>414.05</ele>
      </trkpt>
      <trkpt lat="9.6984" lon="123.34745">
        <ele>409.61</ele>
      </trkpt>
      <trkpt lat="9.69832" lon="123.34746">
        <ele>406.16</ele>
      </trkpt>
      <trkpt lat="9.69824" lon="123.34749">
        <ele>408.68</ele>
      </trkpt>
      <trkpt lat="9.69824" lon="123.34749">
        <ele>408.68</ele>
      </trkpt>
      <trkpt lat="9.69824" lon="123.34749">
        <ele>408.68</ele>
      </trkpt>
      <trkpt lat="9.6981" lon="123.34737">
        <ele>388.39</ele>
      </trkpt>
      <trkpt lat="9.69798" lon="123.34732">
        <ele>376.3</ele>
      </trkpt>
      <trkpt lat="9.69789" lon="123.34722">
        <ele>357.46</ele>
      </trkpt>
      <trkpt lat="9.69789" lon="123.34714">
        <ele>350.99</ele>
      </trkpt>
      <trkpt lat="9.69787" lon="123.347">
        <ele>339.94</ele>
      </trkpt>
      <trkpt lat="9.69786" lon="123.34685">
        <ele>330.99</ele>
      </trkpt>
      <trkpt lat="9.69781" lon="123.34674">
        <ele>325.84</ele>
      </trkpt>
      <trkpt lat="9.69768" lon="123.34664">
        <ele>320.59</ele>
      </trkpt>
      <trkpt lat="9.69779" lon="123.34649">
        <ele>312.9</ele>
      </trkpt>
      <trkpt lat="9.69774" lon="123.34631">
        <ele>305.33</ele>
      </trkpt>
      <trkpt lat="9.69778" lon="123.34616">
        <ele>300.49</ele>
      </trkpt>
      <trkpt lat="9.69778" lon="123.34603">
        <ele>296.27</ele>
      </trkpt>
      <trkpt lat="9.69774" lon="123.3459">
        <ele>293.26</ele>
      </trkpt>
      <trkpt lat="9.69771" lon="123.34578">
        <ele>291.28</ele>
      </trkpt>
      <trkpt lat="9.69764" lon="123.34563">
        <ele>291.29</ele>
      </trkpt>
      <trkpt lat="9.69762" lon="123.34555">
        <ele>290.86</ele>
      </trkpt>
      <trkpt lat="9.6974" lon="123.34552">
        <ele>296.71</ele>
      </trkpt>
      <trkpt lat="9.69718" lon="123.34542">
        <ele>290.75</ele>
      </trkpt>
      <trkpt lat="9.69699" lon="123.34544">
        <ele>282.79</ele>
      </trkpt>
      <trkpt lat="9.69687" lon="123.34543">
        <ele>278.04</ele>
      </trkpt>
      <trkpt lat="9.69675" lon="123.34544">
        <ele>274.43</ele>
      </trkpt>
      <trkpt lat="9.6966" lon="123.34547">
        <ele>270.21</ele>
      </trkpt>
      <trkpt lat="9.69651" lon="123.3455">
        <ele>267.78</ele>
      </trkpt>
      <trkpt lat="9.69641" lon="123.34551">
        <ele>264.8</ele>
      </trkpt>
      <trkpt lat="9.69629" lon="123.34538">
        <ele>263.83</ele>
      </trkpt>
      <trkpt lat="9.69621" lon="123.34538">
        <ele>263.17</ele>
      </trkpt>
      <trkpt lat="9.69607" lon="123.34544">
        <ele>261.01</ele>
      </trkpt>
      <trkpt lat="9.69592" lon="123.34551">
        <ele>256.19</ele>
      </trkpt>
      <trkpt lat="9.69571" lon="123.34561">
        <ele>253.07</ele>
      </trkpt>
      <trkpt lat="9.69556" lon="123.3456">
        <ele>251.02</ele>
      </trkpt>
      <trkpt lat="9.6954" lon="123.34558">
        <ele>248.85</ele>
      </trkpt>
      <trkpt lat="9.69525" lon="123.34557">
        <ele>247.22</ele>
      </trkpt>
      <trkpt lat="9.69513" lon="123.34545">
        <ele>243.43</ele>
      </trkpt>
      <trkpt lat="9.69501" lon="123.34544">
        <ele>242.71</ele>
      </trkpt>
      <trkpt lat="9.69492" lon="123.34544">
        <ele>243.18</ele>
      </trkpt>
      <trkpt lat="9.69484" lon="123.34551">
        <ele>246.13</ele>
      </trkpt>
      <trkpt lat="9.69471" lon="123.34552">
        <ele>247.43</ele>
      </trkpt>
      <trkpt lat="9.69452" lon="123.34552">
        <ele>244.87</ele>
      </trkpt>
      <trkpt lat="9.69446" lon="123.34547">
        <ele>242.42</ele>
      </trkpt>
      <trkpt lat="9.69441" lon="123.34542">
        <ele>239.73</ele>
      </trkpt>
      <trkpt lat="9.69408" lon="123.3453">
        <ele>229.69</ele>
      </trkpt>
      <trkpt lat="9.69395" lon="123.34526">
        <ele>226.92</ele>
      </trkpt>
      <trkpt lat="9.69369" lon="123.34535">
        <ele>224.34</ele>
      </trkpt>
      <trkpt lat="9.69363" lon="123.34541">
        <ele>224.5</ele>
      </trkpt>
      <trkpt lat="9.69353" lon="123.34544">
        <ele>224.12</ele>
      </trkpt>
      <trkpt lat="9.69323" lon="123.34546">
        <ele>222.54</ele>
      </trkpt>
      <trkpt lat="9.69312" lon="123.34547">
        <ele>222.4</ele>
      </trkpt>
      <trkpt lat="9.69302" lon="123.34549">
        <ele>221.48</ele>
      </trkpt>
      <trkpt lat="9.69295" lon="123.34557">
        <ele>220.04</ele>
      </trkpt>
      <trkpt lat="9.6929" lon="123.34565">
        <ele>218.9</ele>
      </trkpt>
      <trkpt lat="9.69284" lon="123.34569">
        <ele>217.9</ele>
      </trkpt>
      <trkpt lat="9.69278" lon="123.34569">
        <ele>217.03</ele>
      </trkpt>
      <trkpt lat="9.69275" lon="123.34564">
        <ele>215.9</ele>
      </trkpt>
      <trkpt lat="9.69273" lon="123.34558">
        <ele>215.11</ele>
      </trkpt>
      <trkpt lat="9.6925" lon="123.34539">
        <ele>202.42</ele>
      </trkpt>
      <trkpt lat="9.69232" lon="123.34526">
        <ele>197.36</ele>
      </trkpt>
      <trkpt lat="9.69217" lon="123.34521">
        <ele>195.2</ele>
      </trkpt>
      <trkpt lat="9.69202" lon="123.34518">
        <ele>192.83</ele>
      </trkpt>
      <trkpt lat="9.69191" lon="123.34511">
        <ele>190.83</ele>
      </trkpt>
      <trkpt lat="9.69184" lon="123.34498">
        <ele>189.0</ele>
      </trkpt>
      <trkpt lat="9.69177" lon="123.34476">
        <ele>186.67</ele>
      </trkpt>
      <trkpt lat="9.69165" lon="123.34453">
        <ele>180.96</ele>
      </trkpt>
      <trkpt lat="9.69163" lon="123.34449">
        <ele>179.59</ele>
      </trkpt>
      <trkpt lat="9.6915" lon="123.34432">
        <ele>173.35</ele>
      </trkpt>
      <trkpt lat="9.69127" lon="123.34408">
        <ele>165.61</ele>
      </trkpt>
      <trkpt lat="9.69113" lon="123.34394">
        <ele>161.08</ele>
      </trkpt>
      <trkpt lat="9.69103" lon="123.34388">
        <ele>155.57</ele>
      </trkpt>
      <trkpt lat="9.69081" lon="123.34382">
        <ele>145.18</ele>
      </trkpt>
      <trkpt lat="9.69061" lon="123.34367">
        <ele>142.26</ele>
      </trkpt>
      <trkpt lat="9.69044" lon="123.34349">
        <ele>140.44</ele>
      </trkpt>
      <trkpt lat="9.69034" lon="123.34339">
        <ele>141.1</ele>
      </trkpt>
      <trkpt lat="9.69025" lon="123.34332">
        <ele>141.26</ele>
      </trkpt>
      <trkpt lat="9.69016" lon="123.34332">
        <ele>139.0</ele>
      </trkpt>
      <trkpt lat="9.68997" lon="123.34338">
        <ele>135.5</ele>
      </trkpt>
      <trkpt lat="9.68967" lon="123.34351">
        <ele>133.75</ele>
      </trkpt>
      <trkpt lat="9.68957" lon="123.34356">
        <ele>131.96</ele>
      </trkpt>
      <trkpt lat="9.68949" lon="123.34354">
        <ele>131.71</ele>
      </trkpt>
      <trkpt lat="9.68935" lon="123.34347">
        <ele>134.08</ele>
      </trkpt>
      <trkpt lat="9.68923" lon="123.3434">
        <ele>137.2</ele>
      </trkpt>
      <trkpt lat="9.68909" lon="123.34342">
        <ele>135.46</ele>
      </trkpt>
      <trkpt lat="9.68894" lon="123.34347">
        <ele>131.78</ele>
      </trkpt>
      <trkpt lat="9.68882" lon="123.34357">
        <ele>128.74</ele>
      </trkpt>
      <trkpt lat="9.68882" lon="123.34367">
        <ele>127.94</ele>
      </trkpt>
      <trkpt lat="9.68879" lon="123.3437">
        <ele>127.52</ele>
      </trkpt>
      <trkpt lat="9.68872" lon="123.34366">
        <ele>127.04</ele>
      </trkpt>
      <trkpt lat="9.68853" lon="123.3436">
        <ele>125.12</ele>
      </trkpt>
      <trkpt lat="9.68842" lon="123.34362">
        <ele>123.94</ele>
      </trkpt>
      <trkpt lat="9.68838" lon="123.34368">
        <ele>123.5</ele>
      </trkpt>
      <trkpt lat="9.6882" lon="123.34385">
        <ele>122.65</ele>
      </trkpt>
      <trkpt lat="9.68803" lon="123.34398">
        <ele>121.67</ele>
      </trkpt>
      <trkpt lat="9.68792" lon="123.34404">
        <ele>119.7</ele>
      </trkpt>
      <trkpt lat="9.68784" lon="123.34404">
        <ele>118.34</ele>
      </trkpt>
      <trkpt lat="9.68766" lon="123.34397">
        <ele>116.44</ele>
      </trkpt>
      <trkpt lat="9.68755" lon="123.34389">
        <ele>114.26</ele>
      </trkpt>
      <trkpt lat="9.68749" lon="123.34382">
        <ele>112.86</ele>
      </trkpt>
      <trkpt lat="9.68741" lon="123.3438">
        <ele>111.7</ele>
      </trkpt>
      <trkpt lat="9.68728" lon="123.34378">
        <ele>109.83</ele>
      </trkpt>
      <trkpt lat="9.68721" lon="123.34388">
        <ele>109.04</ele>
      </trkpt>
      <trkpt lat="9.68708" lon="123.3439">
        <ele>109.61</ele>
      </trkpt>
      <trkpt lat="9.68701" lon="123.34383">
        <ele>109.76</ele>
      </trkpt>
      <trkpt lat="9.68699" lon="123.34386">
        <ele>109.84</ele>
      </trkpt>
      <trkpt lat="9.68682" lon="123.34386">
        <ele>110.26</ele>
      </trkpt>
      <trkpt lat="9.6867" lon="123.34381">
        <ele>109.88</ele>
      </trkpt>
      <trkpt lat="9.68653" lon="123.34378">
        <ele>106.27</ele>
      </trkpt>
      <trkpt lat="9.68626" lon="123.34357">
        <ele>101.01</ele>
      </trkpt>
      <trkpt lat="9.686" lon="123.34339">
        <ele>98.57</ele>
      </trkpt>
      <trkpt lat="9.68585" lon="123.34327">
        <ele>98.96</ele>
      </trkpt>
      <trkpt lat="9.6856" lon="123.34325">
        <ele>95.1</ele>
      </trkpt>
      <trkpt lat="9.68556" lon="123.34322">
        <ele>94.25</ele>
      </trkpt>
      <trkpt lat="9.68542" lon="123.34302">
        <ele>93.19</ele>
      </trkpt>
      <trkpt lat="9.68531" lon="123.34295">
        <ele>93.72</ele>
      </trkpt>
      <trkpt lat="9.68518" lon="123.34294">
        <ele>90.93</ele>
      </trkpt>
      <trkpt lat="9.68508" lon="123.34297">
        <ele>87.97</ele>
      </trkpt>
      <trkpt lat="9.68518" lon="123.34294">
        <ele>90.93</ele>
      </trkpt>
      <trkpt lat="9.68531" lon="123.34295">
        <ele>93.72</ele>
      </trkpt>
      <trkpt lat="9.68542" lon="123.34302">
        <ele>93.19</ele>
      </trkpt>
      <trkpt lat="9.68556" lon="123.34322">
        <ele>94.25</ele>
      </trkpt>
      <trkpt lat="9.6856" lon="123.34325">
        <ele>95.1</ele>
      </trkpt>
      <trkpt lat="9.68585" lon="123.34327">
        <ele>98.96</ele>
      </trkpt>
      <trkpt lat="9.686" lon="123.34339">
        <ele>98.57</ele>
      </trkpt>
      <trkpt lat="9.68626" lon="123.34357">
        <ele>101.01</ele>
      </trkpt>
      <trkpt lat="9.68653" lon="123.34378">
        <ele>106.27</ele>
      </trkpt>
      <trkpt lat="9.6867" lon="123.34381">
        <ele>109.88</ele>
      </trkpt>
      <trkpt lat="9.68682" lon="123.34386">
        <ele>110.26</ele>
      </trkpt>
      <trkpt lat="9.68699" lon="123.34386">
        <ele>109.84</ele>
      </trkpt>
      <trkpt lat="9.68701" lon="123.34383">
        <ele>109.76</ele>
      </trkpt>
      <trkpt lat="9.68708" lon="123.3439">
        <ele>109.61</ele>
      </trkpt>
      <trkpt lat="9.68721" lon="123.34388">
        <ele>109.04</ele>
      </trkpt>
      <trkpt lat="9.68728" lon="123.34378">
        <ele>109.83</ele>
      </trkpt>
      <trkpt lat="9.68741" lon="123.3438">
        <ele>111.7</ele>
      </trkpt>
      <trkpt lat="9.68749" lon="123.34382">
        <ele>112.86</ele>
      </trkpt>
      <trkpt lat="9.68755" lon="123.34389">
        <ele>114.26</ele>
      </trkpt>
      <trkpt lat="9.68766" lon="123.34397">
        <ele>116.44</ele>
      </trkpt>
      <trkpt lat="9.68784" lon="123.34404">
        <ele>118.34</ele>
      </trkpt>
      <trkpt lat="9.68792" lon="123.34404">
        <ele>119.7</ele>
      </trkpt>
      <trkpt lat="9.68803" lon="123.34398">
        <ele>121.67</ele>
      </trkpt>
      <trkpt lat="9.6882" lon="123.34385">
        <ele>122.65</ele>
      </trkpt>
      <trkpt lat="9.68838" lon="123.34368">
        <ele>123.5</ele>
      </trkpt>
      <trkpt lat="9.68842" lon="123.34362">
        <ele>123.94</ele>
      </trkpt>
      <trkpt lat="9.68853" lon="123.3436">
        <ele>125.12</ele>
      </trkpt>
      <trkpt lat="9.68872" lon="123.34366">
        <ele>127.04</ele>
      </trkpt>
      <trkpt lat="9.68879" lon="123.3437">
        <ele>127.52</ele>
      </trkpt>
      <trkpt lat="9.68882" lon="123.34367">
        <ele>127.94</ele>
      </trkpt>
      <trkpt lat="9.68882" lon="123.34357">
        <ele>128.74</ele>
      </trkpt>
      <trkpt lat="9.68894" lon="123.34347">
        <ele>131.78</ele>
      </trkpt>
      <trkpt lat="9.68909" lon="123.34342">
        <ele>135.46</ele>
      </trkpt>
      <trkpt lat="9.68923" lon="123.3434">
        <ele>137.2</ele>
      </trkpt>
      <trkpt lat="9.68935" lon="123.34347">
        <ele>134.08</ele>
      </trkpt>
      <trkpt lat="9.68949" lon="123.34354">
        <ele>131.71</ele>
      </trkpt>
      <trkpt lat="9.68957" lon="123.34356">
        <ele>131.96</ele>
      </trkpt>
      <trkpt lat="9.68967" lon="123.34351">
        <ele>133.75</ele>
      </trkpt>
      <trkpt lat="9.68997" lon="123.34338">
        <ele>135.5</ele>
      </trkpt>
      <trkpt lat="9.69016" lon="123.34332">
        <ele>139.0</ele>
      </trkpt>
      <trkpt lat="9.69025" lon="123.34332">
        <ele>141.26</ele>
      </trkpt>
      <trkpt lat="9.69034" lon="123.34339">
        <ele>141.1</ele>
      </trkpt>
      <trkpt lat="9.69044" lon="123.34349">
        <ele>140.44</ele>
      </trkpt>
      <trkpt lat="9.69061" lon="123.34367">
        <ele>142.26</ele>
      </trkpt>
      <trkpt lat="9.69081" lon="123.34382">
        <ele>145.18</ele>
      </trkpt>
      <trkpt lat="9.69103" lon="123.34388">
        <ele>155.57</ele>
      </trkpt>
      <trkpt lat="9.69113" lon="123.34394">
        <ele>161.08</ele>
      </trkpt>
      <trkpt lat="9.69127" lon="123.34408">
        <ele>165.61</ele>
      </trkpt>
      <trkpt lat="9.6915" lon="123.34432">
        <ele>173.35</ele>
      </trkpt>
      <trkpt lat="9.69163" lon="123.34449">
        <ele>179.59</ele>
      </trkpt>
      <trkpt lat="9.69165" lon="123.34453">
        <ele>180.96</ele>
      </trkpt>
      <trkpt lat="9.69177" lon="123.34476">
        <ele>186.67</ele>
      </trkpt>
      <trkpt lat="9.69184" lon="123.34498">
        <ele>189.0</ele>
      </trkpt>
      <trkpt lat="9.69191" lon="123.34511">
        <ele>190.83</ele>
      </trkpt>
      <trkpt lat="9.69202" lon="123.34518">
        <ele>192.83</ele>
      </trkpt>
      <trkpt lat="9.69217" lon="123.34521">
        <ele>195.2</ele>
      </trkpt>
      <trkpt lat="9.69232" lon="123.34526">
        <ele>197.36</ele>
      </trkpt>
      <trkpt lat="9.6925" lon="123.34539">
        <ele>202.42</ele>
      </trkpt>
      <trkpt lat="9.69273" lon="123.34558">
        <ele>215.11</ele>
      </trkpt>
      <trkpt lat="9.69275" lon="123.34564">
        <ele>215.9</ele>
      </trkpt>
      <trkpt lat="9.69278" lon="123.34569">
        <ele>217.03</ele>
      </trkpt>
      <trkpt lat="9.69284" lon="123.34569">
        <ele>217.9</ele>
      </trkpt>
      <trkpt lat="9.6929" lon="123.34565">
        <ele>218.9</ele>
      </trkpt>
      <trkpt lat="9.69295" lon="123.34557">
        <ele>220.04</ele>
      </trkpt>
      <trkpt lat="9.69302" lon="123.34549">
        <ele>221.48</ele>
      </trkpt>
      <trkpt lat="9.69312" lon="123.34547">
        <ele>222.4</ele>
      </trkpt>
      <trkpt lat="9.69323" lon="123.34546">
        <ele>222.54</ele>
      </trkpt>
      <trkpt lat="9.69353" lon="123.34544">
        <ele>224.12</ele>
      </trkpt>
      <trkpt lat="9.69363" lon="123.34541">
        <ele>224.5</ele>
      </trkpt>
      <trkpt lat="9.69369" lon="123.34535">
        <ele>224.34</ele>
      </trkpt>
      <trkpt lat="9.69395" lon="123.34526">
        <ele>226.92</ele>
      </trkpt>
      <trkpt lat="9.69408" lon="123.3453">
        <ele>229.69</ele>
      </trkpt>
      <trkpt lat="9.69441" lon="123.34542">
        <ele>239.73</ele>
      </trkpt>
      <trkpt lat="9.69446" lon="123.34547">
        <ele>242.42</ele>
      </trkpt>
      <trkpt lat="9.69452" lon="123.34552">
        <ele>244.87</ele>
      </trkpt>
      <trkpt lat="9.69471" lon="123.34552">
        <ele>247.43</ele>
      </trkpt>
      <trkpt lat="9.69484" lon="123.34551">
        <ele>246.13</ele>
      </trkpt>
      <trkpt lat="9.69492" lon="123.34544">
        <ele>243.18</ele>
      </trkpt>
      <trkpt lat="9.69501" lon="123.34544">
        <ele>242.71</ele>
      </trkpt>
      <trkpt lat="9.69513" lon="123.34545">
        <ele>243.43</ele>
      </trkpt>
      <trkpt lat="9.69525" lon="123.34557">
        <ele>247.22</ele>
      </trkpt>
      <trkpt lat="9.6954" lon="123.34558">
        <ele>248.85</ele>
      </trkpt>
      <trkpt lat="9.69556" lon="123.3456">
        <ele>251.02</ele>
      </trkpt>
      <trkpt lat="9.69571" lon="123.34561">
        <ele>253.07</ele>
      </trkpt>
      <trkpt lat="9.69592" lon="123.34551">
        <ele>256.19</ele>
      </trkpt>
      <trkpt lat="9.69607" lon="123.34544">
        <ele>261.01</ele>
      </trkpt>
      <trkpt lat="9.69621" lon="123.34538">
        <ele>263.17</ele>
      </trkpt>
      <trkpt lat="9.69629" lon="123.34538">
        <ele>263.83</ele>
      </trkpt>
      <trkpt lat="9.69641" lon="123.34551">
        <ele>264.8</ele>
      </trkpt>
      <trkpt lat="9.69651" lon="123.3455">
        <ele>267.78</ele>
      </trkpt>
      <trkpt lat="9.6966" lon="123.34547">
        <ele>270.21</ele>
      </trkpt>
      <trkpt lat="9.69675" lon="123.34544">
        <ele>274.43</ele>
      </trkpt>
      <trkpt lat="9.69687" lon="123.34543">
        <ele>278.04</ele>
      </trkpt>
      <trkpt lat="9.69699" lon="123.34544">
        <ele>282.79</ele>
      </trkpt>
      <trkpt lat="9.69718" lon="123.34542">
        <ele>290.75</ele>
      </trkpt>
      <trkpt lat="9.6974" lon="123.34552">
        <ele>296.71</ele>
      </trkpt>
      <trkpt lat="9.69762" lon="123.34555">
        <ele>290.86</ele>
      </trkpt>
      <trkpt lat="9.69764" lon="123.34563">
        <ele>291.29</ele>
      </trkpt>
      <trkpt lat="9.69771" lon="123.34578">
        <ele>291.28</ele>
      </trkpt>
      <trkpt lat="9.69774" lon="123.3459">
        <ele>293.26</ele>
      </trkpt>
      <trkpt lat="9.69778" lon="123.34603">
        <ele>296.27</ele>
      </trkpt>
      <trkpt lat="9.69778" lon="123.34616">
        <ele>300.49</ele>
      </trkpt>
      <trkpt lat="9.69774" lon="123.34631">
        <ele>305.33</ele>
      </trkpt>
      <trkpt lat="9.69779" lon="123.34649">
        <ele>312.9</ele>
      </trkpt>
      <trkpt lat="9.69768" lon="123.34664">
        <ele>320.59</ele>
      </trkpt>
      <trkpt lat="9.69781" lon="123.34674">
        <ele>325.84</ele>
      </trkpt>
      <trkpt lat="9.69786" lon="123.34685">
        <ele>330.99</ele>
      </trkpt>
      <trkpt lat="9.69787" lon="123.347">
        <ele>339.94</ele>
      </trkpt>
      <trkpt lat="9.69789" lon="123.34714">
        <ele>350.99</ele>
      </trkpt>
      <trkpt lat="9.69789" lon="123.34722">
        <ele>357.46</ele>
      </trkpt>
      <trkpt lat="9.69798" lon="123.34732">
        <ele>376.3</ele>
      </trkpt>
      <trkpt lat="9.6981" lon="123.34737">
        <ele>388.39</ele>
      </trkpt>
      <trkpt lat="9.69824" lon="123.34749">
        <ele>408.68</ele>
      </trkpt>
      <trkpt lat="9.69824" lon="123.34749">
        <ele>408.68</ele>
      </trkpt>
      <trkpt lat="9.69824" lon="123.34749">
        <ele>408.68</ele>
      </trkpt>
      <trkpt lat="9.69832" lon="123.34746">
        <ele>406.16</ele>
      </trkpt>
      <trkpt lat="9.6984" lon="123.34745">
        <ele>409.61</ele>
      </trkpt>
      <trkpt lat="9.69851" lon="123.34743">
        <ele>414.05</ele>
      </trkpt>
      <trkpt lat="9.69858" lon="123.34738">
        <ele>411.1</ele>
      </trkpt>
      <trkpt lat="9.6987" lon="123.34745">
        <ele>423.96</ele>
      </trkpt>
      <trkpt lat="9.69879" lon="123.34741">
        <ele>418.26</ele>
      </trkpt>
      <trkpt lat="9.69886" lon="123.3474">
        <ele>417.03</ele>
      </trkpt>
      <trkpt lat="9.69901" lon="123.34742">
        <ele>417.29</ele>
      </trkpt>
      <trkpt lat="9.69908" lon="123.34751">
        <ele>426.08</ele>
      </trkpt>
      <trkpt lat="9.69914" lon="123.34758">
        <ele>427.65</ele>
      </trkpt>
      <trkpt lat="9.69927" lon="123.34764">
        <ele>424.92</ele>
      </trkpt>
      <trkpt lat="9.69937" lon="123.34777">
        <ele>430.54</ele>
      </trkpt>
      <trkpt lat="9.69945" lon="123.34782">
        <ele>431.58</ele>
      </trkpt>
      <trkpt lat="9.69957" lon="123.34784">
        <ele>426.53</ele>
      </trkpt>
      <trkpt lat="9.69971" lon="123.34785">
        <ele>419.89</ele>
      </trkpt>
      <trkpt lat="9.69981" lon="123.34789">
        <ele>419.53</ele>
      </trkpt>
      <trkpt lat="9.69986" lon="123.34799">
        <ele>425.47</ele>
      </trkpt>
      <trkpt lat="9.69987" lon="123.34807">
        <ele>431.35</ele>
      </trkpt>
      <trkpt lat="9.69988" lon="123.34815">
        <ele>437.78</ele>
      </trkpt>
      <trkpt lat="9.69994" lon="123.34811">
        <ele>431.22</ele>
      </trkpt>
      <trkpt lat="9.69998" lon="123.34819">
        <ele>435.34</ele>
      </trkpt>
      <trkpt lat="9.69995" lon="123.34827">
        <ele>443.52</ele>
      </trkpt>
      <trkpt lat="9.70016" lon="123.34845">
        <ele>450.75</ele>
      </trkpt>
      <trkpt lat="9.70023" lon="123.34838">
        <ele>444.06</ele>
      </trkpt>
      <trkpt lat="9.70031" lon="123.34853">
        <ele>452.76</ele>
      </trkpt>
      <trkpt lat="9.70034" lon="123.34863">
        <ele>460.53</ele>
      </trkpt>
      <trkpt lat="9.70034" lon="123.34867">
        <ele>465.41</ele>
      </trkpt>
      <trkpt lat="9.70041" lon="123.34868">
        <ele>467.13</ele>
      </trkpt>
      <trkpt lat="9.70047" lon="123.34883">
        <ele>486.88</ele>
      </trkpt>
      <trkpt lat="9.70054" lon="123.3489">
        <ele>496.84</ele>
      </trkpt>
      <trkpt lat="9.70066" lon="123.34898">
        <ele>504.07</ele>
      </trkpt>
      <trkpt lat="9.70072" lon="123.34901">
        <ele>505.88</ele>
      </trkpt>
      <trkpt lat="9.70076" lon="123.34917">
        <ele>517.59</ele>
      </trkpt>
      <trkpt lat="9.70081" lon="123.34936">
        <ele>528.28</ele>
      </trkpt>
      <trkpt lat="9.70088" lon="123.34959">
        <ele>541.64</ele>
      </trkpt>
      <trkpt lat="9.70099" lon="123.34968">
        <ele>545.78</ele>
      </trkpt>
      <trkpt lat="9.70114" lon="123.34964">
        <ele>538.21</ele>
      </trkpt>
      <trkpt lat="9.70133" lon="123.3496">
        <ele>526.51</ele>
      </trkpt>
      <trkpt lat="9.70142" lon="123.34961">
        <ele>523.0</ele>
      </trkpt>
      <trkpt lat="9.70147" lon="123.34963">
        <ele>521.4</ele>
      </trkpt>
      <trkpt lat="9.7015" lon="123.34978">
        <ele>526.89</ele>
      </trkpt>
      <trkpt lat="9.70154" lon="123.34991">
        <ele>531.73</ele>
      </trkpt>
      <trkpt lat="9.70156" lon="123.35003">
        <ele>537.33</ele>
      </trkpt>
      <trkpt lat="9.70146" lon="123.3501">
        <ele>548.07</ele>
      </trkpt>
      <trkpt lat="9.7014" lon="123.35013">
        <ele>553.02</ele>
      </trkpt>
      <trkpt lat="9.7014" lon="123.35029">
        <ele>559.03</ele>
      </trkpt>
      <trkpt lat="9.7013" lon="123.35041">
        <ele>566.2</ele>
      </trkpt>
      <trkpt lat="9.7013" lon="123.35068">
        <ele>575.19</ele>
      </trkpt>
      <trkpt lat="9.70126" lon="123.35078">
        <ele>580.41</ele>
      </trkpt>
      <trkpt lat="9.70128" lon="123.35088">
        <ele>585.24</ele>
      </trkpt>
      <trkpt lat="9.7012" lon="123.35096">
        <ele>594.1</ele>
      </trkpt>
      <trkpt lat="9.70121" lon="123.35108">
        <ele>602.29</ele>
      </trkpt>
      <trkpt lat="9.70109" lon="123.35133">
        <ele>619.41</ele>
      </trkpt>
      <trkpt lat="9.70111" lon="123.3515">
        <ele>630.42</ele>
      </trkpt>
      <trkpt lat="9.70115" lon="123.35173">
        <ele>643.04</ele>
      </trkpt>
      <trkpt lat="9.70122" lon="123.35181">
        <ele>642.51</ele>
      </trkpt>
      <trkpt lat="9.70123" lon="123.35201">
        <ele>643.87</ele>
      </trkpt>
      <trkpt lat="9.70128" lon="123.35215">
        <ele>642.45</ele>
      </trkpt>
      <trkpt lat="9.70134" lon="123.35222">
        <ele>641.06</ele>
      </trkpt>
      <trkpt lat="9.70137" lon="123.35236">
        <ele>639.42</ele>
      </trkpt>
      <trkpt lat="9.7014" lon="123.35249">
        <ele>638.22</ele>
      </trkpt>
      <trkpt lat="9.70141" lon="123.3527">
        <ele>644.67</ele>
      </trkpt>
      <trkpt lat="9.70145" lon="123.35278">
        <ele>647.45</ele>
      </trkpt>
      <trkpt lat="9.70149" lon="123.35283">
        <ele>648.07</ele>
      </trkpt>
      <trkpt lat="9.70152" lon="123.35298">
        <ele>649.66</ele>
      </trkpt>
      <trkpt lat="9.70165" lon="123.35306">
        <ele>653.54</ele>
      </trkpt>
      <trkpt lat="9.70184" lon="123.35315">
        <ele>652.56</ele>
      </trkpt>
      <trkpt lat="9.70201" lon="123.35322">
        <ele>650.33</ele>
      </trkpt>
      <trkpt lat="9.70212" lon="123.35324">
        <ele>648.78</ele>
      </trkpt>
      <trkpt lat="9.70219" lon="123.35323">
        <ele>648.21</ele>
      </trkpt>
      <trkpt lat="9.7023" lon="123.35333">
        <ele>646.31</ele>
      </trkpt>
      <trkpt lat="9.7023" lon="123.35347">
        <ele>646.58</ele>
      </trkpt>
      <trkpt lat="9.7023" lon="123.35359">
        <ele>646.83</ele>
      </trkpt>
      <trkpt lat="9.7024" lon="123.35372">
        <ele>646.55</ele>
      </trkpt>
      <trkpt lat="9.70252" lon="123.35384">
        <ele>647.93</ele>
      </trkpt>
      <trkpt lat="9.7027" lon="123.35387">
        <ele>646.17</ele>
      </trkpt>
      <trkpt lat="9.70292" lon="123.35389">
        <ele>647.56</ele>
      </trkpt>
      <trkpt lat="9.70303" lon="123.35389">
        <ele>649.53</ele>
      </trkpt>
      <trkpt lat="9.70313" lon="123.35393">
        <ele>651.27</ele>
      </trkpt>
      <trkpt lat="9.70323" lon="123.35398">
        <ele>652.91</ele>
      </trkpt>
      <trkpt lat="9.70332" lon="123.35393">
        <ele>655.28</ele>
      </trkpt>
      <trkpt lat="9.70332" lon="123.35385">
        <ele>656.25</ele>
      </trkpt>
      <trkpt lat="9.70351" lon="123.35384">
        <ele>656.59</ele>
      </trkpt>
      <trkpt lat="9.70364" lon="123.35383">
        <ele>656.16</ele>
      </trkpt>
      <trkpt lat="9.70364" lon="123.35383">
        <ele>656.16</ele>
      </trkpt>
      <trkpt lat="9.70373" lon="123.35382">
        <ele>654.82</ele>
      </trkpt>
      <trkpt lat="9.7039" lon="123.35376">
        <ele>652.81</ele>
      </trkpt>
      <trkpt lat="9.70397" lon="123.35365">
        <ele>652.6</ele>
      </trkpt>
      <trkpt lat="9.70411" lon="123.35359">
        <ele>649.74</ele>
      </trkpt>
      <trkpt lat="9.70424" lon="123.35352">
        <ele>646.19</ele>
      </trkpt>
      <trkpt lat="9.70437" lon="123.3535">
        <ele>641.92</ele>
      </trkpt>
      <trkpt lat="9.70446" lon="123.35355">
        <ele>638.8</ele>
      </trkpt>
      <trkpt lat="9.70454" lon="123.35356">
        <ele>636.44</ele>
      </trkpt>
      <trkpt lat="9.70445" lon="123.35368">
        <ele>634.78</ele>
      </trkpt>
      <trkpt lat="9.70438" lon="123.35377">
        <ele>632.2</ele>
      </trkpt>
      <trkpt lat="9.70431" lon="123.35382">
        <ele>632.05</ele>
      </trkpt>
      <trkpt lat="9.70426" lon="123.35399">
        <ele>623.26</ele>
      </trkpt>
      <trkpt lat="9.70419" lon="123.35415">
        <ele>616.54</ele>
      </trkpt>
      <trkpt lat="9.70414" lon="123.35427">
        <ele>614.35</ele>
      </trkpt>
      <trkpt lat="9.70415" lon="123.3544">
        <ele>607.97</ele>
      </trkpt>
      <trkpt lat="9.70409" lon="123.35451">
        <ele>609.05</ele>
      </trkpt>
      <trkpt lat="9.704" lon="123.35456">
        <ele>614.2</ele>
      </trkpt>
      <trkpt lat="9.70391" lon="123.35462">
        <ele>619.4</ele>
      </trkpt>
      <trkpt lat="9.70395" lon="123.35482">
        <ele>612.64</ele>
      </trkpt>
      <trkpt lat="9.70399" lon="123.35499">
        <ele>603.72</ele>
      </trkpt>
      <trkpt lat="9.70393" lon="123.35526">
        <ele>604.7</ele>
      </trkpt>
      <trkpt lat="9.70384" lon="123.3555">
        <ele>603.3</ele>
      </trkpt>
      <trkpt lat="9.70384" lon="123.35562">
        <ele>598.26</ele>
      </trkpt>
      <trkpt lat="9.70385" lon="123.3558">
        <ele>588.55</ele>
      </trkpt>
      <trkpt lat="9.70382" lon="123.35601">
        <ele>583.96</ele>
      </trkpt>
      <trkpt lat="9.70375" lon="123.35622">
        <ele>586.02</ele>
      </trkpt>
      <trkpt lat="9.70366" lon="123.35642">
        <ele>590.51</ele>
      </trkpt>
      <trkpt lat="9.70363" lon="123.35661">
        <ele>587.47</ele>
      </trkpt>
      <trkpt lat="9.70359" lon="123.35681">
        <ele>590.04</ele>
      </trkpt>
      <trkpt lat="9.70353" lon="123.35706">
        <ele>586.16</ele>
      </trkpt>
      <trkpt lat="9.70356" lon="123.35721">
        <ele>575.96</ele>
      </trkpt>
      <trkpt lat="9.7036" lon="123.35734">
        <ele>569.6</ele>
      </trkpt>
      <trkpt lat="9.70384" lon="123.35747">
        <ele>563.61</ele>
      </trkpt>
      <trkpt lat="9.70393" lon="123.35759">
        <ele>563.94</ele>
      </trkpt>
      <trkpt lat="9.70403" lon="123.35769">
        <ele>565.98</ele>
      </trkpt>
      <trkpt lat="9.70406" lon="123.35784">
        <ele>569.85</ele>
      </trkpt>
      <trkpt lat="9.70405" lon="123.35803">
        <ele>573.08</ele>
      </trkpt>
      <trkpt lat="9.70394" lon="123.35815">
        <ele>574.02</ele>
      </trkpt>
      <trkpt lat="9.70386" lon="123.35836">
        <ele>566.97</ele>
      </trkpt>
      <trkpt lat="9.70387" lon="123.35853">
        <ele>551.39</ele>
      </trkpt>
      <trkpt lat="9.70397" lon="123.35871">
        <ele>539.46</ele>
      </trkpt>
      <trkpt lat="9.7041" lon="123.35884">
        <ele>534.2</ele>
      </trkpt>
      <trkpt lat="9.70424" lon="123.35904">
        <ele>532.74</ele>
      </trkpt>
      <trkpt lat="9.70433" lon="123.35911">
        <ele>532.34</ele>
      </trkpt>
      <trkpt lat="9.70448" lon="123.35918">
        <ele>530.79</ele>
      </trkpt>
      <trkpt lat="9.70467" lon="123.35924">
        <ele>529.75</ele>
      </trkpt>
      <trkpt lat="9.70497" lon="123.35938">
        <ele>522.56</ele>
      </trkpt>
      <trkpt lat="9.70515" lon="123.35941">
        <ele>520.2</ele>
      </trkpt>
      <trkpt lat="9.70529" lon="123.35954">
        <ele>514.67</ele>
      </trkpt>
      <trkpt lat="9.70543" lon="123.35966">
        <ele>507.12</ele>
      </trkpt>
      <trkpt lat="9.70556" lon="123.35976">
        <ele>500.12</ele>
      </trkpt>
      <trkpt lat="9.70563" lon="123.35983">
        <ele>498.85</ele>
      </trkpt>
      <trkpt lat="9.70594" lon="123.35987">
        <ele>499.77</ele>
      </trkpt>
      <trkpt lat="9.70606" lon="123.35986">
        <ele>502.22</ele>
      </trkpt>
      <trkpt lat="9.70612" lon="123.36013">
        <ele>494.56</ele>
      </trkpt>
      <trkpt lat="9.70612" lon="123.36021">
        <ele>492.23</ele>
      </trkpt>
      <trkpt lat="9.70617" lon="123.3603">
        <ele>491.15</ele>
      </trkpt>
      <trkpt lat="9.70622" lon="123.3604">
        <ele>489.81</ele>
      </trkpt>
      <trkpt lat="9.70624" lon="123.36044">
        <ele>489.12</ele>
      </trkpt>
      <trkpt lat="9.7064" lon="123.36064">
        <ele>486.12</ele>
      </trkpt>
      <trkpt lat="9.70651" lon="123.3607">
        <ele>486.73</ele>
      </trkpt>
      <trkpt lat="9.70658" lon="123.36079">
        <ele>485.17</ele>
      </trkpt>
      <trkpt lat="9.70668" lon="123.36085">
        <ele>485.64</ele>
      </trkpt>
      <trkpt lat="9.7068" lon="123.36094">
        <ele>491.7</ele>
      </trkpt>
      <trkpt lat="9.70689" lon="123.36103">
        <ele>497.06</ele>
      </trkpt>
      <trkpt lat="9.70697" lon="123.36113">
        <ele>500.07</ele>
      </trkpt>
      <trkpt lat="9.70701" lon="123.36126">
        <ele>495.49</ele>
      </trkpt>
      <trkpt lat="9.70698" lon="123.36143">
        <ele>490.32</ele>
      </trkpt>
      <trkpt lat="9.70693" lon="123.36158">
        <ele>490.11</ele>
      </trkpt>
      <trkpt lat="9.70686" lon="123.36167">
        <ele>489.16</ele>
      </trkpt>
      <trkpt lat="9.70685" lon="123.36178">
        <ele>488.55</ele>
      </trkpt>
      <trkpt lat="9.70678" lon="123.36204">
        <ele>486.65</ele>
      </trkpt>
      <trkpt lat="9.70672" lon="123.36224">
        <ele>486.79</ele>
      </trkpt>
      <trkpt lat="9.70665" lon="123.36241">
        <ele>493.45</ele>
      </trkpt>
      <trkpt lat="9.70662" lon="123.36255">
        <ele>497.99</ele>
      </trkpt>
      <trkpt lat="9.7066" lon="123.36267">
        <ele>500.43</ele>
      </trkpt>
      <trkpt lat="9.70662" lon="123.36284">
        <ele>504.75</ele>
      </trkpt>
      <trkpt lat="9.70661" lon="123.36301">
        <ele>508.35</ele>
      </trkpt>
      <trkpt lat="9.70657" lon="123.36321">
        <ele>504.69</ele>
      </trkpt>
      <trkpt lat="9.70653" lon="123.36331">
        <ele>501.12</ele>
      </trkpt>
    </trkseg>
  </trk>
</gpx>
