<?xml version="1.0"?>
<gpx xmlns="http://www.topografix.com/GPX/1/1" xmlns:xsi="http://www.w3.org/2001/XMLSchema-instance" version="1.1" creator="AllTrails.com" xsi:schemaLocation="http://www.topografix.com/GPX/1/1 http://www.topografix.com/GPX/1/1/gpx.xsd">
  <metadata>
    <name><![CDATA[Mago Peak]]></name>
    <desc><![CDATA[]]></desc>
    <link href="http://www.alltrails.com">
      <text>AllTrails, LLC</text>
    </link>
    <bounds minlat="10.58487" minlon="123.90719" maxlat="10.61914" maxlon="123.94185"/>
  </metadata>
  <trk>
    <name><![CDATA[Mago Peak]]></name>
    <src>AllTrails</src>
    <trkseg>
      <trkpt lat="10.61766" lon="123.94163">
        <ele>662.37</ele>
      </trkpt>
      <trkpt lat="10.61734" lon="123.94185">
        <ele>667.52</ele>
      </trkpt>
      <trkpt lat="10.61715" lon="123.94157">
        <ele>659.89</ele>
      </trkpt>
      <trkpt lat="10.61697" lon="123.94134">
        <ele>661.93</ele>
      </trkpt>
      <trkpt lat="10.6166" lon="123.9409">
        <ele>657.9</ele>
      </trkpt>
      <trkpt lat="10.61613" lon="123.94022">
        <ele>642.0</ele>
      </trkpt>
      <trkpt lat="10.6159" lon="123.93998">
        <ele>634.56</ele>
      </trkpt>
      <trkpt lat="10.6156" lon="123.93983">
        <ele>627.31</ele>
      </trkpt>
      <trkpt lat="10.61526" lon="123.93985">
        <ele>640.53</ele>
      </trkpt>
      <trkpt lat="10.61512" lon="123.9399">
        <ele>640.69</ele>
      </trkpt>
      <trkpt lat="10.61496" lon="123.93993">
        <ele>639.84</ele>
      </trkpt>
      <trkpt lat="10.61485" lon="123.93993">
        <ele>642.02</ele>
      </trkpt>
      <trkpt lat="10.61472" lon="123.93987">
        <ele>649.25</ele>
      </trkpt>
      <trkpt lat="10.61458" lon="123.93984">
        <ele>648.43</ele>
      </trkpt>
      <trkpt lat="10.61444" lon="123.93985">
        <ele>644.98</ele>
      </trkpt>
      <trkpt lat="10.61424" lon="123.93987">
        <ele>646.15</ele>
      </trkpt>
      <trkpt lat="10.61412" lon="123.93987">
        <ele>646.78</ele>
      </trkpt>
      <trkpt lat="10.61402" lon="123.93982">
        <ele>647.41</ele>
      </trkpt>
      <trkpt lat="10.61386" lon="123.93966">
        <ele>649.64</ele>
      </trkpt>
      <trkpt lat="10.61368" lon="123.93958">
        <ele>648.98</ele>
      </trkpt>
      <trkpt lat="10.61325" lon="123.93965">
        <ele>638.92</ele>
      </trkpt>
      <trkpt lat="10.61287" lon="123.93938">
        <ele>638.16</ele>
      </trkpt>
      <trkpt lat="10.61259" lon="123.93906">
        <ele>643.75</ele>
      </trkpt>
      <trkpt lat="10.61252" lon="123.93898">
        <ele>647.28</ele>
      </trkpt>
      <trkpt lat="10.6124" lon="123.93892">
        <ele>648.28</ele>
      </trkpt>
      <trkpt lat="10.61229" lon="123.93887">
        <ele>645.42</ele>
      </trkpt>
      <trkpt lat="10.61216" lon="123.93878">
        <ele>647.23</ele>
      </trkpt>
      <trkpt lat="10.61197" lon="123.93855">
        <ele>645.92</ele>
      </trkpt>
      <trkpt lat="10.61187" lon="123.93843">
        <ele>649.43</ele>
      </trkpt>
      <trkpt lat="10.61176" lon="123.93834">
        <ele>649.74</ele>
      </trkpt>
      <trkpt lat="10.61164" lon="123.93831">
        <ele>648.96</ele>
      </trkpt>
      <trkpt lat="10.61152" lon="123.93829">
        <ele>650.33</ele>
      </trkpt>
      <trkpt lat="10.61136" lon="123.93833">
        <ele>653.56</ele>
      </trkpt>
      <trkpt lat="10.61126" lon="123.93834">
        <ele>656.02</ele>
      </trkpt>
      <trkpt lat="10.61123" lon="123.93833">
        <ele>656.34</ele>
      </trkpt>
      <trkpt lat="10.61118" lon="123.93829">
        <ele>656.26</ele>
      </trkpt>
      <trkpt lat="10.61111" lon="123.93817">
        <ele>653.72</ele>
      </trkpt>
      <trkpt lat="10.61106" lon="123.93805">
        <ele>651.02</ele>
      </trkpt>
      <trkpt lat="10.61104" lon="123.93795">
        <ele>650.02</ele>
      </trkpt>
      <trkpt lat="10.61107" lon="123.93775">
        <ele>647.27</ele>
      </trkpt>
      <trkpt lat="10.61101" lon="123.93758">
        <ele>650.77</ele>
      </trkpt>
      <trkpt lat="10.6109" lon="123.93737">
        <ele>655.56</ele>
      </trkpt>
      <trkpt lat="10.61085" lon="123.93722">
        <ele>658.62</ele>
      </trkpt>
      <trkpt lat="10.61079" lon="123.93705">
        <ele>658.66</ele>
      </trkpt>
      <trkpt lat="10.61074" lon="123.93628">
        <ele>654.5</ele>
      </trkpt>
      <trkpt lat="10.61063" lon="123.93584">
        <ele>652.25</ele>
      </trkpt>
      <trkpt lat="10.61057" lon="123.93546">
        <ele>659.36</ele>
      </trkpt>
      <trkpt lat="10.61044" lon="123.93527">
        <ele>663.3</ele>
      </trkpt>
      <trkpt lat="10.61009" lon="123.93499">
        <ele>666.79</ele>
      </trkpt>
      <trkpt lat="10.60998" lon="123.93483">
        <ele>669.62</ele>
      </trkpt>
      <trkpt lat="10.61001" lon="123.9346">
        <ele>673.36</ele>
      </trkpt>
      <trkpt lat="10.61009" lon="123.93442">
        <ele>675.97</ele>
      </trkpt>
      <trkpt lat="10.61025" lon="123.93413">
        <ele>671.55</ele>
      </trkpt>
      <trkpt lat="10.61024" lon="123.93402">
        <ele>671.53</ele>
      </trkpt>
      <trkpt lat="10.61018" lon="123.9339">
        <ele>671.76</ele>
      </trkpt>
      <trkpt lat="10.61011" lon="123.93383">
        <ele>672.21</ele>
      </trkpt>
      <trkpt lat="10.61" lon="123.93373">
        <ele>673.0</ele>
      </trkpt>
      <trkpt lat="10.60992" lon="123.93364">
        <ele>673.3</ele>
      </trkpt>
      <trkpt lat="10.60989" lon="123.93355">
        <ele>671.6</ele>
      </trkpt>
      <trkpt lat="10.60987" lon="123.93341">
        <ele>668.07</ele>
      </trkpt>
      <trkpt lat="10.60982" lon="123.93331">
        <ele>665.13</ele>
      </trkpt>
      <trkpt lat="10.60971" lon="123.93309">
        <ele>665.54</ele>
      </trkpt>
      <trkpt lat="10.60969" lon="123.93299">
        <ele>665.36</ele>
      </trkpt>
      <trkpt lat="10.60966" lon="123.93288">
        <ele>664.41</ele>
      </trkpt>
      <trkpt lat="10.60961" lon="123.93273">
        <ele>662.75</ele>
      </trkpt>
      <trkpt lat="10.60959" lon="123.93262">
        <ele>662.21</ele>
      </trkpt>
      <trkpt lat="10.6096" lon="123.93255">
        <ele>661.95</ele>
      </trkpt>
      <trkpt lat="10.60969" lon="123.93237">
        <ele>658.92</ele>
      </trkpt>
      <trkpt lat="10.60979" lon="123.93224">
        <ele>656.26</ele>
      </trkpt>
      <trkpt lat="10.60988" lon="123.93216">
        <ele>655.55</ele>
      </trkpt>
      <trkpt lat="10.61003" lon="123.93206">
        <ele>654.75</ele>
      </trkpt>
      <trkpt lat="10.6102" lon="123.93191">
        <ele>652.37</ele>
      </trkpt>
      <trkpt lat="10.61038" lon="123.93167">
        <ele>647.74</ele>
      </trkpt>
      <trkpt lat="10.61054" lon="123.93142">
        <ele>644.03</ele>
      </trkpt>
      <trkpt lat="10.61071" lon="123.93126">
        <ele>645.87</ele>
      </trkpt>
      <trkpt lat="10.6109" lon="123.93098">
        <ele>645.1</ele>
      </trkpt>
      <trkpt lat="10.61106" lon="123.93074">
        <ele>646.57</ele>
      </trkpt>
      <trkpt lat="10.61136" lon="123.93022">
        <ele>649.58</ele>
      </trkpt>
      <trkpt lat="10.61141" lon="123.93014">
        <ele>648.47</ele>
      </trkpt>
      <trkpt lat="10.61147" lon="123.93009">
        <ele>646.81</ele>
      </trkpt>
      <trkpt lat="10.61158" lon="123.92999">
        <ele>644.55</ele>
      </trkpt>
      <trkpt lat="10.61169" lon="123.92986">
        <ele>643.17</ele>
      </trkpt>
      <trkpt lat="10.61184" lon="123.92975">
        <ele>644.25</ele>
      </trkpt>
      <trkpt lat="10.61193" lon="123.92971">
        <ele>644.64</ele>
      </trkpt>
      <trkpt lat="10.61201" lon="123.92969">
        <ele>643.89</ele>
      </trkpt>
      <trkpt lat="10.61213" lon="123.92969">
        <ele>643.12</ele>
      </trkpt>
      <trkpt lat="10.61225" lon="123.9297">
        <ele>642.32</ele>
      </trkpt>
      <trkpt lat="10.61232" lon="123.92969">
        <ele>641.19</ele>
      </trkpt>
      <trkpt lat="10.6124" lon="123.92963">
        <ele>638.26</ele>
      </trkpt>
      <trkpt lat="10.61243" lon="123.92952">
        <ele>634.03</ele>
      </trkpt>
      <trkpt lat="10.61251" lon="123.92928">
        <ele>631.17</ele>
      </trkpt>
      <trkpt lat="10.61253" lon="123.92911">
        <ele>633.74</ele>
      </trkpt>
      <trkpt lat="10.61258" lon="123.92897">
        <ele>635.82</ele>
      </trkpt>
      <trkpt lat="10.61274" lon="123.92887">
        <ele>633.93</ele>
      </trkpt>
      <trkpt lat="10.6129" lon="123.9288">
        <ele>633.06</ele>
      </trkpt>
      <trkpt lat="10.613" lon="123.92875">
        <ele>633.3</ele>
      </trkpt>
      <trkpt lat="10.61319" lon="123.9287">
        <ele>634.71</ele>
      </trkpt>
      <trkpt lat="10.61331" lon="123.92864">
        <ele>637.61</ele>
      </trkpt>
      <trkpt lat="10.61346" lon="123.92851">
        <ele>639.15</ele>
      </trkpt>
      <trkpt lat="10.6135" lon="123.92844">
        <ele>639.77</ele>
      </trkpt>
      <trkpt lat="10.61351" lon="123.92837">
        <ele>640.57</ele>
      </trkpt>
      <trkpt lat="10.6135" lon="123.92826">
        <ele>642.32</ele>
      </trkpt>
      <trkpt lat="10.61347" lon="123.9282">
        <ele>643.66</ele>
      </trkpt>
      <trkpt lat="10.61345" lon="123.92813">
        <ele>645.32</ele>
      </trkpt>
      <trkpt lat="10.61345" lon="123.92808">
        <ele>646.38</ele>
      </trkpt>
      <trkpt lat="10.61349" lon="123.92805">
        <ele>646.32</ele>
      </trkpt>
      <trkpt lat="10.61354" lon="123.92804">
        <ele>645.6</ele>
      </trkpt>
      <trkpt lat="10.6138" lon="123.92794">
        <ele>641.13</ele>
      </trkpt>
      <trkpt lat="10.6139" lon="123.92785">
        <ele>638.68</ele>
      </trkpt>
      <trkpt lat="10.614" lon="123.92772">
        <ele>636.76</ele>
      </trkpt>
      <trkpt lat="10.61409" lon="123.92759">
        <ele>636.1</ele>
      </trkpt>
      <trkpt lat="10.61418" lon="123.92742">
        <ele>636.14</ele>
      </trkpt>
      <trkpt lat="10.6142" lon="123.92724">
        <ele>639.06</ele>
      </trkpt>
      <trkpt lat="10.61419" lon="123.92708">
        <ele>639.57</ele>
      </trkpt>
      <trkpt lat="10.61411" lon="123.92678">
        <ele>639.82</ele>
      </trkpt>
      <trkpt lat="10.61404" lon="123.92654">
        <ele>634.68</ele>
      </trkpt>
      <trkpt lat="10.61405" lon="123.92639">
        <ele>627.83</ele>
      </trkpt>
      <trkpt lat="10.6141" lon="123.92626">
        <ele>623.71</ele>
      </trkpt>
      <trkpt lat="10.61412" lon="123.92614">
        <ele>620.59</ele>
      </trkpt>
      <trkpt lat="10.61409" lon="123.92592">
        <ele>620.62</ele>
      </trkpt>
      <trkpt lat="10.61414" lon="123.92563">
        <ele>622.71</ele>
      </trkpt>
      <trkpt lat="10.61424" lon="123.92545">
        <ele>619.95</ele>
      </trkpt>
      <trkpt lat="10.61436" lon="123.92531">
        <ele>616.12</ele>
      </trkpt>
      <trkpt lat="10.61454" lon="123.92506">
        <ele>617.38</ele>
      </trkpt>
      <trkpt lat="10.61462" lon="123.9249">
        <ele>620.13</ele>
      </trkpt>
      <trkpt lat="10.61468" lon="123.92477">
        <ele>620.88</ele>
      </trkpt>
      <trkpt lat="10.61476" lon="123.92467">
        <ele>622.08</ele>
      </trkpt>
      <trkpt lat="10.61486" lon="123.92455">
        <ele>625.52</ele>
      </trkpt>
      <trkpt lat="10.61499" lon="123.92442">
        <ele>630.48</ele>
      </trkpt>
      <trkpt lat="10.61507" lon="123.92439">
        <ele>630.26</ele>
      </trkpt>
      <trkpt lat="10.61539" lon="123.92433">
        <ele>626.63</ele>
      </trkpt>
      <trkpt lat="10.6155" lon="123.92428">
        <ele>623.78</ele>
      </trkpt>
      <trkpt lat="10.61563" lon="123.9242">
        <ele>618.16</ele>
      </trkpt>
      <trkpt lat="10.61571" lon="123.92405">
        <ele>611.39</ele>
      </trkpt>
      <trkpt lat="10.6159" lon="123.92394">
        <ele>604.27</ele>
      </trkpt>
      <trkpt lat="10.616" lon="123.92387">
        <ele>603.1</ele>
      </trkpt>
      <trkpt lat="10.61615" lon="123.92365">
        <ele>603.0</ele>
      </trkpt>
      <trkpt lat="10.61622" lon="123.92337">
        <ele>604.71</ele>
      </trkpt>
      <trkpt lat="10.61625" lon="123.92319">
        <ele>609.13</ele>
      </trkpt>
      <trkpt lat="10.61636" lon="123.9231">
        <ele>604.02</ele>
      </trkpt>
      <trkpt lat="10.61645" lon="123.92306">
        <ele>598.45</ele>
      </trkpt>
      <trkpt lat="10.61659" lon="123.92298">
        <ele>595.12</ele>
      </trkpt>
      <trkpt lat="10.61676" lon="123.92278">
        <ele>594.86</ele>
      </trkpt>
      <trkpt lat="10.61682" lon="123.92266">
        <ele>601.38</ele>
      </trkpt>
      <trkpt lat="10.61688" lon="123.92249">
        <ele>611.06</ele>
      </trkpt>
      <trkpt lat="10.61699" lon="123.92241">
        <ele>609.31</ele>
      </trkpt>
      <trkpt lat="10.61709" lon="123.92241">
        <ele>603.05</ele>
      </trkpt>
      <trkpt lat="10.61722" lon="123.9224">
        <ele>595.78</ele>
      </trkpt>
      <trkpt lat="10.61739" lon="123.9223">
        <ele>600.29</ele>
      </trkpt>
      <trkpt lat="10.6176" lon="123.92225">
        <ele>597.14</ele>
      </trkpt>
      <trkpt lat="10.61776" lon="123.92223">
        <ele>591.5</ele>
      </trkpt>
      <trkpt lat="10.61792" lon="123.92222">
        <ele>590.12</ele>
      </trkpt>
      <trkpt lat="10.61807" lon="123.92222">
        <ele>588.66</ele>
      </trkpt>
      <trkpt lat="10.61814" lon="123.92217">
        <ele>589.1</ele>
      </trkpt>
      <trkpt lat="10.61827" lon="123.92209">
        <ele>588.57</ele>
      </trkpt>
      <trkpt lat="10.61846" lon="123.92187">
        <ele>588.56</ele>
      </trkpt>
      <trkpt lat="10.61868" lon="123.92162">
        <ele>587.01</ele>
      </trkpt>
      <trkpt lat="10.61895" lon="123.92136">
        <ele>572.57</ele>
      </trkpt>
      <trkpt lat="10.61909" lon="123.92119">
        <ele>569.03</ele>
      </trkpt>
      <trkpt lat="10.61914" lon="123.92108">
        <ele>568.94</ele>
      </trkpt>
      <trkpt lat="10.61914" lon="123.92094">
        <ele>574.41</ele>
      </trkpt>
      <trkpt lat="10.61906" lon="123.92083">
        <ele>580.29</ele>
      </trkpt>
      <trkpt lat="10.61896" lon="123.92076">
        <ele>582.0</ele>
      </trkpt>
      <trkpt lat="10.61878" lon="123.92067">
        <ele>586.38</ele>
      </trkpt>
      <trkpt lat="10.61867" lon="123.92067">
        <ele>589.96</ele>
      </trkpt>
      <trkpt lat="10.61859" lon="123.92067">
        <ele>592.43</ele>
      </trkpt>
      <trkpt lat="10.61848" lon="123.92069">
        <ele>595.91</ele>
      </trkpt>
      <trkpt lat="10.61832" lon="123.92071">
        <ele>600.37</ele>
      </trkpt>
      <trkpt lat="10.61826" lon="123.92073">
        <ele>600.4</ele>
      </trkpt>
      <trkpt lat="10.61814" lon="123.92081">
        <ele>603.63</ele>
      </trkpt>
      <trkpt lat="10.61802" lon="123.92084">
        <ele>605.05</ele>
      </trkpt>
      <trkpt lat="10.61785" lon="123.92085">
        <ele>604.55</ele>
      </trkpt>
      <trkpt lat="10.61765" lon="123.92084">
        <ele>597.49</ele>
      </trkpt>
      <trkpt lat="10.61745" lon="123.92084">
        <ele>590.65</ele>
      </trkpt>
      <trkpt lat="10.61723" lon="123.92076">
        <ele>588.01</ele>
      </trkpt>
      <trkpt lat="10.61711" lon="123.92066">
        <ele>585.85</ele>
      </trkpt>
      <trkpt lat="10.617" lon="123.92059">
        <ele>585.17</ele>
      </trkpt>
      <trkpt lat="10.61661" lon="123.9205">
        <ele>590.8</ele>
      </trkpt>
      <trkpt lat="10.61632" lon="123.92041">
        <ele>595.59</ele>
      </trkpt>
      <trkpt lat="10.61602" lon="123.92004">
        <ele>596.48</ele>
      </trkpt>
      <trkpt lat="10.61594" lon="123.91982">
        <ele>594.25</ele>
      </trkpt>
      <trkpt lat="10.61584" lon="123.91954">
        <ele>590.7</ele>
      </trkpt>
      <trkpt lat="10.61578" lon="123.91952">
        <ele>588.84</ele>
      </trkpt>
      <trkpt lat="10.61568" lon="123.91957">
        <ele>585.92</ele>
      </trkpt>
      <trkpt lat="10.61549" lon="123.91965">
        <ele>583.71</ele>
      </trkpt>
      <trkpt lat="10.61517" lon="123.9198">
        <ele>583.76</ele>
      </trkpt>
      <trkpt lat="10.61506" lon="123.91982">
        <ele>581.05</ele>
      </trkpt>
      <trkpt lat="10.61493" lon="123.9198">
        <ele>576.16</ele>
      </trkpt>
      <trkpt lat="10.6148" lon="123.91969">
        <ele>566.95</ele>
      </trkpt>
      <trkpt lat="10.6146" lon="123.91951">
        <ele>568.31</ele>
      </trkpt>
      <trkpt lat="10.61446" lon="123.91941">
        <ele>567.67</ele>
      </trkpt>
      <trkpt lat="10.61428" lon="123.91941">
        <ele>568.01</ele>
      </trkpt>
      <trkpt lat="10.614" lon="123.91944">
        <ele>573.39</ele>
      </trkpt>
      <trkpt lat="10.61385" lon="123.91948">
        <ele>577.28</ele>
      </trkpt>
      <trkpt lat="10.61364" lon="123.91947">
        <ele>577.41</ele>
      </trkpt>
      <trkpt lat="10.61344" lon="123.91938">
        <ele>571.54</ele>
      </trkpt>
      <trkpt lat="10.61325" lon="123.91922">
        <ele>559.91</ele>
      </trkpt>
      <trkpt lat="10.61307" lon="123.91905">
        <ele>552.79</ele>
      </trkpt>
      <trkpt lat="10.61257" lon="123.91881">
        <ele>556.89</ele>
      </trkpt>
      <trkpt lat="10.61253" lon="123.9186">
        <ele>552.95</ele>
      </trkpt>
      <trkpt lat="10.61246" lon="123.9185">
        <ele>552.04</ele>
      </trkpt>
      <trkpt lat="10.61234" lon="123.91843">
        <ele>554.32</ele>
      </trkpt>
      <trkpt lat="10.61211" lon="123.91838">
        <ele>561.24</ele>
      </trkpt>
      <trkpt lat="10.61192" lon="123.9182">
        <ele>560.42</ele>
      </trkpt>
      <trkpt lat="10.61178" lon="123.9182">
        <ele>561.42</ele>
      </trkpt>
      <trkpt lat="10.61165" lon="123.91828">
        <ele>565.86</ele>
      </trkpt>
      <trkpt lat="10.61147" lon="123.9183">
        <ele>568.6</ele>
      </trkpt>
      <trkpt lat="10.61099" lon="123.91824">
        <ele>559.31</ele>
      </trkpt>
      <trkpt lat="10.61076" lon="123.91816">
        <ele>554.92</ele>
      </trkpt>
      <trkpt lat="10.61054" lon="123.91805">
        <ele>555.16</ele>
      </trkpt>
      <trkpt lat="10.61043" lon="123.91797">
        <ele>555.16</ele>
      </trkpt>
      <trkpt lat="10.61011" lon="123.91795">
        <ele>563.8</ele>
      </trkpt>
      <trkpt lat="10.61005" lon="123.91812">
        <ele>568.52</ele>
      </trkpt>
      <trkpt lat="10.61" lon="123.91821">
        <ele>570.67</ele>
      </trkpt>
      <trkpt lat="10.60992" lon="123.91826">
        <ele>569.33</ele>
      </trkpt>
      <trkpt lat="10.6098" lon="123.9183">
        <ele>567.15</ele>
      </trkpt>
      <trkpt lat="10.60963" lon="123.91827">
        <ele>564.74</ele>
      </trkpt>
      <trkpt lat="10.60927" lon="123.9182">
        <ele>560.39</ele>
      </trkpt>
      <trkpt lat="10.60894" lon="123.91825">
        <ele>560.5</ele>
      </trkpt>
      <trkpt lat="10.6086" lon="123.91823">
        <ele>557.4</ele>
      </trkpt>
      <trkpt lat="10.60795" lon="123.9182">
        <ele>559.55</ele>
      </trkpt>
      <trkpt lat="10.60783" lon="123.91811">
        <ele>555.98</ele>
      </trkpt>
      <trkpt lat="10.60764" lon="123.91806">
        <ele>557.19</ele>
      </trkpt>
      <trkpt lat="10.60762" lon="123.91814">
        <ele>561.61</ele>
      </trkpt>
      <trkpt lat="10.60747" lon="123.91831">
        <ele>567.31</ele>
      </trkpt>
      <trkpt lat="10.60738" lon="123.91838">
        <ele>568.33</ele>
      </trkpt>
      <trkpt lat="10.60719" lon="123.91842">
        <ele>568.5</ele>
      </trkpt>
      <trkpt lat="10.6069" lon="123.91847">
        <ele>573.16</ele>
      </trkpt>
      <trkpt lat="10.60613" lon="123.91845">
        <ele>571.61</ele>
      </trkpt>
      <trkpt lat="10.60561" lon="123.91841">
        <ele>550.18</ele>
      </trkpt>
      <trkpt lat="10.60528" lon="123.91856">
        <ele>555.24</ele>
      </trkpt>
      <trkpt lat="10.60502" lon="123.91847">
        <ele>547.17</ele>
      </trkpt>
      <trkpt lat="10.60489" lon="123.9187">
        <ele>550.7</ele>
      </trkpt>
      <trkpt lat="10.60449" lon="123.91883">
        <ele>542.67</ele>
      </trkpt>
      <trkpt lat="10.60395" lon="123.91861">
        <ele>528.18</ele>
      </trkpt>
      <trkpt lat="10.60292" lon="123.91846">
        <ele>522.57</ele>
      </trkpt>
      <trkpt lat="10.602" lon="123.91854">
        <ele>516.41</ele>
      </trkpt>
      <trkpt lat="10.60167" lon="123.91884">
        <ele>518.86</ele>
      </trkpt>
      <trkpt lat="10.60086" lon="123.91884">
        <ele>511.78</ele>
      </trkpt>
      <trkpt lat="10.60063" lon="123.91904">
        <ele>521.81</ele>
      </trkpt>
      <trkpt lat="10.60063" lon="123.91904">
        <ele>521.81</ele>
      </trkpt>
      <trkpt lat="10.60047" lon="123.91917">
        <ele>533.06</ele>
      </trkpt>
      <trkpt lat="10.60002" lon="123.91908">
        <ele>535.3</ele>
      </trkpt>
      <trkpt lat="10.59971" lon="123.91888">
        <ele>545.29</ele>
      </trkpt>
      <trkpt lat="10.59867" lon="123.91764">
        <ele>541.66</ele>
      </trkpt>
      <trkpt lat="10.59794" lon="123.91748">
        <ele>542.54</ele>
      </trkpt>
      <trkpt lat="10.5976" lon="123.91698">
        <ele>534.9</ele>
      </trkpt>
      <trkpt lat="10.59691" lon="123.91664">
        <ele>539.77</ele>
      </trkpt>
      <trkpt lat="10.59634" lon="123.91596">
        <ele>529.58</ele>
      </trkpt>
      <trkpt lat="10.59644" lon="123.9154">
        <ele>520.57</ele>
      </trkpt>
      <trkpt lat="10.5961" lon="123.91526">
        <ele>516.46</ele>
      </trkpt>
      <trkpt lat="10.59566" lon="123.91516">
        <ele>523.49</ele>
      </trkpt>
      <trkpt lat="10.59531" lon="123.91511">
        <ele>534.33</ele>
      </trkpt>
      <trkpt lat="10.59464" lon="123.91529">
        <ele>530.98</ele>
      </trkpt>
      <trkpt lat="10.59286" lon="123.91558">
        <ele>560.17</ele>
      </trkpt>
      <trkpt lat="10.59183" lon="123.91543">
        <ele>596.71</ele>
      </trkpt>
      <trkpt lat="10.59108" lon="123.91502">
        <ele>586.84</ele>
      </trkpt>
      <trkpt lat="10.59062" lon="123.91503">
        <ele>599.97</ele>
      </trkpt>
      <trkpt lat="10.59013" lon="123.91502">
        <ele>612.66</ele>
      </trkpt>
      <trkpt lat="10.58954" lon="123.91531">
        <ele>630.12</ele>
      </trkpt>
      <trkpt lat="10.5885" lon="123.91517">
        <ele>649.33</ele>
      </trkpt>
      <trkpt lat="10.58782" lon="123.91529">
        <ele>664.6</ele>
      </trkpt>
      <trkpt lat="10.58718" lon="123.91502">
        <ele>669.44</ele>
      </trkpt>
      <trkpt lat="10.58702" lon="123.91488">
        <ele>668.77</ele>
      </trkpt>
      <trkpt lat="10.5868" lon="123.9148">
        <ele>665.21</ele>
      </trkpt>
      <trkpt lat="10.58661" lon="123.91477">
        <ele>661.87</ele>
      </trkpt>
      <trkpt lat="10.58632" lon="123.91467">
        <ele>660.76</ele>
      </trkpt>
      <trkpt lat="10.58622" lon="123.91454">
        <ele>665.21</ele>
      </trkpt>
      <trkpt lat="10.58613" lon="123.91436">
        <ele>668.47</ele>
      </trkpt>
      <trkpt lat="10.58614" lon="123.91421">
        <ele>672.27</ele>
      </trkpt>
      <trkpt lat="10.58618" lon="123.91416">
        <ele>673.84</ele>
      </trkpt>
      <trkpt lat="10.58625" lon="123.91411">
        <ele>675.72</ele>
      </trkpt>
      <trkpt lat="10.58635" lon="123.91406">
        <ele>678.99</ele>
      </trkpt>
      <trkpt lat="10.58663" lon="123.914">
        <ele>688.6</ele>
      </trkpt>
      <trkpt lat="10.58671" lon="123.91399">
        <ele>688.96</ele>
      </trkpt>
      <trkpt lat="10.58676" lon="123.91396">
        <ele>688.31</ele>
      </trkpt>
      <trkpt lat="10.58681" lon="123.91391">
        <ele>687.82</ele>
      </trkpt>
      <trkpt lat="10.58685" lon="123.91384">
        <ele>688.76</ele>
      </trkpt>
      <trkpt lat="10.58685" lon="123.91377">
        <ele>690.78</ele>
      </trkpt>
      <trkpt lat="10.58682" lon="123.91372">
        <ele>692.45</ele>
      </trkpt>
      <trkpt lat="10.58677" lon="123.91365">
        <ele>694.63</ele>
      </trkpt>
      <trkpt lat="10.5866" lon="123.91346">
        <ele>701.1</ele>
      </trkpt>
      <trkpt lat="10.58644" lon="123.91325">
        <ele>707.57</ele>
      </trkpt>
      <trkpt lat="10.58633" lon="123.91315">
        <ele>710.57</ele>
      </trkpt>
      <trkpt lat="10.58615" lon="123.91308">
        <ele>712.9</ele>
      </trkpt>
      <trkpt lat="10.58608" lon="123.91304">
        <ele>713.03</ele>
      </trkpt>
      <trkpt lat="10.5859" lon="123.91293">
        <ele>714.09</ele>
      </trkpt>
      <trkpt lat="10.58565" lon="123.91275">
        <ele>715.89</ele>
      </trkpt>
      <trkpt lat="10.58553" lon="123.9126">
        <ele>718.19</ele>
      </trkpt>
      <trkpt lat="10.58535" lon="123.91246">
        <ele>722.07</ele>
      </trkpt>
      <trkpt lat="10.58526" lon="123.91237">
        <ele>723.72</ele>
      </trkpt>
      <trkpt lat="10.58516" lon="123.91226">
        <ele>725.87</ele>
      </trkpt>
      <trkpt lat="10.5851" lon="123.91216">
        <ele>727.57</ele>
      </trkpt>
      <trkpt lat="10.58507" lon="123.91209">
        <ele>728.57</ele>
      </trkpt>
      <trkpt lat="10.58499" lon="123.91201">
        <ele>730.4</ele>
      </trkpt>
      <trkpt lat="10.58487" lon="123.91177">
        <ele>731.77</ele>
      </trkpt>
      <trkpt lat="10.58494" lon="123.91151">
        <ele>733.25</ele>
      </trkpt>
      <trkpt lat="10.58499" lon="123.91131">
        <ele>732.46</ele>
      </trkpt>
      <trkpt lat="10.58501" lon="123.91116">
        <ele>731.22</ele>
      </trkpt>
      <trkpt lat="10.58522" lon="123.91102">
        <ele>728.82</ele>
      </trkpt>
      <trkpt lat="10.58559" lon="123.91094">
        <ele>725.97</ele>
      </trkpt>
      <trkpt lat="10.586" lon="123.91062">
        <ele>715.21</ele>
      </trkpt>
      <trkpt lat="10.58644" lon="123.91019">
        <ele>700.04</ele>
      </trkpt>
      <trkpt lat="10.58676" lon="123.91009">
        <ele>695.98</ele>
      </trkpt>
      <trkpt lat="10.58708" lon="123.91002">
        <ele>690.87</ele>
      </trkpt>
      <trkpt lat="10.5874" lon="123.90996">
        <ele>685.47</ele>
      </trkpt>
      <trkpt lat="10.58765" lon="123.90988">
        <ele>677.71</ele>
      </trkpt>
      <trkpt lat="10.5878" lon="123.90963">
        <ele>670.52</ele>
      </trkpt>
      <trkpt lat="10.58797" lon="123.90945">
        <ele>666.25</ele>
      </trkpt>
      <trkpt lat="10.58805" lon="123.90934">
        <ele>664.69</ele>
      </trkpt>
      <trkpt lat="10.58806" lon="123.90918">
        <ele>664.03</ele>
      </trkpt>
      <trkpt lat="10.58809" lon="123.90907">
        <ele>662.27</ele>
      </trkpt>
      <trkpt lat="10.58828" lon="123.90887">
        <ele>660.51</ele>
      </trkpt>
      <trkpt lat="10.5884" lon="123.90868">
        <ele>661.39</ele>
      </trkpt>
      <trkpt lat="10.5884" lon="123.90849">
        <ele>660.54</ele>
      </trkpt>
      <trkpt lat="10.58855" lon="123.90836">
        <ele>663.5</ele>
      </trkpt>
      <trkpt lat="10.5888" lon="123.9083">
        <ele>670.64</ele>
      </trkpt>
      <trkpt lat="10.58896" lon="123.90815">
        <ele>676.62</ele>
      </trkpt>
      <trkpt lat="10.58914" lon="123.90803">
        <ele>684.4</ele>
      </trkpt>
      <trkpt lat="10.58944" lon="123.90791">
        <ele>694.5</ele>
      </trkpt>
      <trkpt lat="10.58969" lon="123.90771">
        <ele>705.54</ele>
      </trkpt>
      <trkpt lat="10.58974" lon="123.90749">
        <ele>711.58</ele>
      </trkpt>
      <trkpt lat="10.58991" lon="123.90737">
        <ele>717.08</ele>
      </trkpt>
      <trkpt lat="10.59009" lon="123.90735">
        <ele>722.77</ele>
      </trkpt>
      <trkpt lat="10.59027" lon="123.90734">
        <ele>728.34</ele>
      </trkpt>
      <trkpt lat="10.59054" lon="123.9072">
        <ele>737.58</ele>
      </trkpt>
      <trkpt lat="10.59072" lon="123.90719">
        <ele>743.44</ele>
      </trkpt>
      <trkpt lat="10.59096" lon="123.90727">
        <ele>747.8</ele>
      </trkpt>
      <trkpt lat="10.59099" lon="123.90725">
        <ele>748.1</ele>
      </trkpt>
      <trkpt lat="10.59096" lon="123.90727">
        <ele>747.8</ele>
      </trkpt>
      <trkpt lat="10.59072" lon="123.90719">
        <ele>743.44</ele>
      </trkpt>
      <trkpt lat="10.59054" lon="123.9072">
        <ele>737.58</ele>
      </trkpt>
      <trkpt lat="10.59027" lon="123.90734">
        <ele>728.34</ele>
      </trkpt>
      <trkpt lat="10.59009" lon="123.90735">
        <ele>722.77</ele>
      </trkpt>
      <trkpt lat="10.58991" lon="123.90737">
        <ele>717.08</ele>
      </trkpt>
      <trkpt lat="10.58974" lon="123.90749">
        <ele>711.58</ele>
      </trkpt>
      <trkpt lat="10.58969" lon="123.90771">
        <ele>705.54</ele>
      </trkpt>
      <trkpt lat="10.58944" lon="123.90791">
        <ele>694.5</ele>
      </trkpt>
      <trkpt lat="10.58914" lon="123.90803">
        <ele>684.4</ele>
      </trkpt>
      <trkpt lat="10.58896" lon="123.90815">
        <ele>676.62</ele>
      </trkpt>
      <trkpt lat="10.5888" lon="123.9083">
        <ele>670.64</ele>
      </trkpt>
      <trkpt lat="10.58855" lon="123.90836">
        <ele>663.5</ele>
      </trkpt>
      <trkpt lat="10.5884" lon="123.90849">
        <ele>660.54</ele>
      </trkpt>
      <trkpt lat="10.5884" lon="123.90868">
        <ele>661.39</ele>
      </trkpt>
      <trkpt lat="10.58828" lon="123.90887">
        <ele>660.51</ele>
      </trkpt>
      <trkpt lat="10.58809" lon="123.90907">
        <ele>662.27</ele>
      </trkpt>
      <trkpt lat="10.58806" lon="123.90918">
        <ele>664.03</ele>
      </trkpt>
      <trkpt lat="10.58805" lon="123.90934">
        <ele>664.69</ele>
      </trkpt>
      <trkpt lat="10.58797" lon="123.90945">
        <ele>666.25</ele>
      </trkpt>
      <trkpt lat="10.5878" lon="123.90963">
        <ele>670.52</ele>
      </trkpt>
      <trkpt lat="10.58765" lon="123.90988">
        <ele>677.71</ele>
      </trkpt>
      <trkpt lat="10.5874" lon="123.90996">
        <ele>685.47</ele>
      </trkpt>
      <trkpt lat="10.58708" lon="123.91002">
        <ele>690.87</ele>
      </trkpt>
      <trkpt lat="10.58676" lon="123.91009">
        <ele>695.98</ele>
      </trkpt>
      <trkpt lat="10.58644" lon="123.91019">
        <ele>700.04</ele>
      </trkpt>
      <trkpt lat="10.586" lon="123.91062">
        <ele>715.21</ele>
      </trkpt>
      <trkpt lat="10.58559" lon="123.91094">
        <ele>725.97</ele>
      </trkpt>
      <trkpt lat="10.58522" lon="123.91102">
        <ele>728.82</ele>
      </trkpt>
      <trkpt lat="10.58501" lon="123.91116">
        <ele>731.22</ele>
      </trkpt>
      <trkpt lat="10.58499" lon="123.91131">
        <ele>732.46</ele>
      </trkpt>
      <trkpt lat="10.58494" lon="123.91151">
        <ele>733.25</ele>
      </trkpt>
      <trkpt lat="10.58487" lon="123.91177">
        <ele>731.77</ele>
      </trkpt>
      <trkpt lat="10.58499" lon="123.91201">
        <ele>730.4</ele>
      </trkpt>
      <trkpt lat="10.58507" lon="123.91209">
        <ele>728.57</ele>
      </trkpt>
      <trkpt lat="10.5851" lon="123.91216">
        <ele>727.57</ele>
      </trkpt>
      <trkpt lat="10.58516" lon="123.91226">
        <ele>725.87</ele>
      </trkpt>
      <trkpt lat="10.58526" lon="123.91237">
        <ele>723.72</ele>
      </trkpt>
      <trkpt lat="10.58535" lon="123.91246">
        <ele>722.07</ele>
      </trkpt>
      <trkpt lat="10.58553" lon="123.9126">
        <ele>718.19</ele>
      </trkpt>
      <trkpt lat="10.58565" lon="123.91275">
        <ele>715.89</ele>
      </trkpt>
      <trkpt lat="10.5859" lon="123.91293">
        <ele>714.09</ele>
      </trkpt>
      <trkpt lat="10.58608" lon="123.91304">
        <ele>713.03</ele>
      </trkpt>
      <trkpt lat="10.58615" lon="123.91308">
        <ele>712.9</ele>
      </trkpt>
      <trkpt lat="10.58633" lon="123.91315">
        <ele>710.57</ele>
      </trkpt>
      <trkpt lat="10.58644" lon="123.91325">
        <ele>707.57</ele>
      </trkpt>
      <trkpt lat="10.5866" lon="123.91346">
        <ele>701.1</ele>
      </trkpt>
      <trkpt lat="10.58677" lon="123.91365">
        <ele>694.63</ele>
      </trkpt>
      <trkpt lat="10.58682" lon="123.91372">
        <ele>692.45</ele>
      </trkpt>
      <trkpt lat="10.58685" lon="123.91377">
        <ele>690.78</ele>
      </trkpt>
      <trkpt lat="10.58685" lon="123.91384">
        <ele>688.76</ele>
      </trkpt>
      <trkpt lat="10.58681" lon="123.91391">
        <ele>687.82</ele>
      </trkpt>
      <trkpt lat="10.58676" lon="123.91396">
        <ele>688.31</ele>
      </trkpt>
      <trkpt lat="10.58671" lon="123.91399">
        <ele>688.96</ele>
      </trkpt>
      <trkpt lat="10.58663" lon="123.914">
        <ele>688.6</ele>
      </trkpt>
      <trkpt lat="10.58635" lon="123.91406">
        <ele>678.99</ele>
      </trkpt>
      <trkpt lat="10.58625" lon="123.91411">
        <ele>675.72</ele>
      </trkpt>
      <trkpt lat="10.58618" lon="123.91416">
        <ele>673.84</ele>
      </trkpt>
      <trkpt lat="10.58614" lon="123.91421">
        <ele>672.27</ele>
      </trkpt>
      <trkpt lat="10.58613" lon="123.91436">
        <ele>668.47</ele>
      </trkpt>
      <trkpt lat="10.58622" lon="123.91454">
        <ele>665.21</ele>
      </trkpt>
      <trkpt lat="10.58632" lon="123.91467">
        <ele>660.76</ele>
      </trkpt>
      <trkpt lat="10.58661" lon="123.91477">
        <ele>661.87</ele>
      </trkpt>
      <trkpt lat="10.5868" lon="123.9148">
        <ele>665.21</ele>
      </trkpt>
      <trkpt lat="10.58702" lon="123.91488">
        <ele>668.77</ele>
      </trkpt>
      <trkpt lat="10.58718" lon="123.91502">
        <ele>669.44</ele>
      </trkpt>
      <trkpt lat="10.58782" lon="123.91529">
        <ele>664.6</ele>
      </trkpt>
      <trkpt lat="10.5885" lon="123.91517">
        <ele>649.33</ele>
      </trkpt>
      <trkpt lat="10.58954" lon="123.91531">
        <ele>630.12</ele>
      </trkpt>
      <trkpt lat="10.59013" lon="123.91502">
        <ele>612.66</ele>
      </trkpt>
      <trkpt lat="10.59062" lon="123.91503">
        <ele>599.97</ele>
      </trkpt>
      <trkpt lat="10.59108" lon="123.91502">
        <ele>586.84</ele>
      </trkpt>
      <trkpt lat="10.59183" lon="123.91543">
        <ele>596.71</ele>
      </trkpt>
      <trkpt lat="10.59286" lon="123.91558">
        <ele>560.17</ele>
      </trkpt>
      <trkpt lat="10.59464" lon="123.91529">
        <ele>530.98</ele>
      </trkpt>
      <trkpt lat="10.59531" lon="123.91511">
        <ele>534.33</ele>
      </trkpt>
      <trkpt lat="10.59566" lon="123.91516">
        <ele>523.49</ele>
      </trkpt>
      <trkpt lat="10.5961" lon="123.91526">
        <ele>516.46</ele>
      </trkpt>
      <trkpt lat="10.59644" lon="123.9154">
        <ele>520.57</ele>
      </trkpt>
      <trkpt lat="10.59634" lon="123.91596">
        <ele>529.58</ele>
      </trkpt>
      <trkpt lat="10.59691" lon="123.91664">
        <ele>539.77</ele>
      </trkpt>
      <trkpt lat="10.5976" lon="123.91698">
        <ele>534.9</ele>
      </trkpt>
      <trkpt lat="10.59794" lon="123.91748">
        <ele>542.54</ele>
      </trkpt>
      <trkpt lat="10.59867" lon="123.91764">
        <ele>541.66</ele>
      </trkpt>
      <trkpt lat="10.59971" lon="123.91888">
        <ele>545.29</ele>
      </trkpt>
      <trkpt lat="10.60002" lon="123.91908">
        <ele>535.3</ele>
      </trkpt>
      <trkpt lat="10.60047" lon="123.91917">
        <ele>533.06</ele>
      </trkpt>
      <trkpt lat="10.60063" lon="123.91904">
        <ele>521.81</ele>
      </trkpt>
      <trkpt lat="10.60063" lon="123.91904">
        <ele>521.81</ele>
      </trkpt>
      <trkpt lat="10.60086" lon="123.91884">
        <ele>511.78</ele>
      </trkpt>
      <trkpt lat="10.60167" lon="123.91884">
        <ele>518.86</ele>
      </trkpt>
      <trkpt lat="10.602" lon="123.91854">
        <ele>516.41</ele>
      </trkpt>
      <trkpt lat="10.60292" lon="123.91846">
        <ele>522.57</ele>
      </trkpt>
      <trkpt lat="10.60395" lon="123.91861">
        <ele>528.18</ele>
      </trkpt>
      <trkpt lat="10.60449" lon="123.91883">
        <ele>542.67</ele>
      </trkpt>
      <trkpt lat="10.60489" lon="123.9187">
        <ele>550.7</ele>
      </trkpt>
      <trkpt lat="10.60502" lon="123.91847">
        <ele>547.17</ele>
      </trkpt>
      <trkpt lat="10.60528" lon="123.91856">
        <ele>555.24</ele>
      </trkpt>
      <trkpt lat="10.60561" lon="123.91841">
        <ele>550.18</ele>
      </trkpt>
      <trkpt lat="10.60613" lon="123.91845">
        <ele>571.61</ele>
      </trkpt>
      <trkpt lat="10.6069" lon="123.91847">
        <ele>573.16</ele>
      </trkpt>
      <trkpt lat="10.60719" lon="123.91842">
        <ele>568.5</ele>
      </trkpt>
      <trkpt lat="10.60738" lon="123.91838">
        <ele>568.33</ele>
      </trkpt>
      <trkpt lat="10.60747" lon="123.91831">
        <ele>567.31</ele>
      </trkpt>
      <trkpt lat="10.60762" lon="123.91814">
        <ele>561.61</ele>
      </trkpt>
      <trkpt lat="10.60764" lon="123.91806">
        <ele>557.19</ele>
      </trkpt>
      <trkpt lat="10.60783" lon="123.91811">
        <ele>555.98</ele>
      </trkpt>
      <trkpt lat="10.60795" lon="123.9182">
        <ele>559.55</ele>
      </trkpt>
      <trkpt lat="10.6086" lon="123.91823">
        <ele>557.4</ele>
      </trkpt>
      <trkpt lat="10.60894" lon="123.91825">
        <ele>560.5</ele>
      </trkpt>
      <trkpt lat="10.60927" lon="123.9182">
        <ele>560.39</ele>
      </trkpt>
      <trkpt lat="10.60963" lon="123.91827">
        <ele>564.74</ele>
      </trkpt>
      <trkpt lat="10.6098" lon="123.9183">
        <ele>567.15</ele>
      </trkpt>
      <trkpt lat="10.60992" lon="123.91826">
        <ele>569.33</ele>
      </trkpt>
      <trkpt lat="10.61" lon="123.91821">
        <ele>570.67</ele>
      </trkpt>
      <trkpt lat="10.61005" lon="123.91812">
        <ele>568.52</ele>
      </trkpt>
      <trkpt lat="10.61011" lon="123.91795">
        <ele>563.8</ele>
      </trkpt>
      <trkpt lat="10.61043" lon="123.91797">
        <ele>555.16</ele>
      </trkpt>
      <trkpt lat="10.61054" lon="123.91805">
        <ele>555.16</ele>
      </trkpt>
      <trkpt lat="10.61076" lon="123.91816">
        <ele>554.92</ele>
      </trkpt>
      <trkpt lat="10.61099" lon="123.91824">
        <ele>559.31</ele>
      </trkpt>
      <trkpt lat="10.61147" lon="123.9183">
        <ele>568.6</ele>
      </trkpt>
      <trkpt lat="10.61165" lon="123.91828">
        <ele>565.86</ele>
      </trkpt>
      <trkpt lat="10.61178" lon="123.9182">
        <ele>561.42</ele>
      </trkpt>
      <trkpt lat="10.61192" lon="123.9182">
        <ele>560.42</ele>
      </trkpt>
      <trkpt lat="10.61211" lon="123.91838">
        <ele>561.24</ele>
      </trkpt>
      <trkpt lat="10.61234" lon="123.91843">
        <ele>554.32</ele>
      </trkpt>
      <trkpt lat="10.61246" lon="123.9185">
        <ele>552.04</ele>
      </trkpt>
      <trkpt lat="10.61253" lon="123.9186">
        <ele>552.95</ele>
      </trkpt>
      <trkpt lat="10.61257" lon="123.91881">
        <ele>556.89</ele>
      </trkpt>
      <trkpt lat="10.61307" lon="123.91905">
        <ele>552.79</ele>
      </trkpt>
      <trkpt lat="10.61325" lon="123.91922">
        <ele>559.91</ele>
      </trkpt>
      <trkpt lat="10.61344" lon="123.91938">
        <ele>571.54</ele>
      </trkpt>
      <trkpt lat="10.61364" lon="123.91947">
        <ele>577.41</ele>
      </trkpt>
      <trkpt lat="10.61385" lon="123.91948">
        <ele>577.28</ele>
      </trkpt>
      <trkpt lat="10.614" lon="123.91944">
        <ele>573.39</ele>
      </trkpt>
      <trkpt lat="10.61428" lon="123.91941">
        <ele>568.01</ele>
      </trkpt>
      <trkpt lat="10.61446" lon="123.91941">
        <ele>567.67</ele>
      </trkpt>
      <trkpt lat="10.6146" lon="123.91951">
        <ele>568.31</ele>
      </trkpt>
      <trkpt lat="10.6148" lon="123.91969">
        <ele>566.95</ele>
      </trkpt>
      <trkpt lat="10.61493" lon="123.9198">
        <ele>576.16</ele>
      </trkpt>
      <trkpt lat="10.61506" lon="123.91982">
        <ele>581.05</ele>
      </trkpt>
      <trkpt lat="10.61517" lon="123.9198">
        <ele>583.76</ele>
      </trkpt>
      <trkpt lat="10.61549" lon="123.91965">
        <ele>583.71</ele>
      </trkpt>
      <trkpt lat="10.61568" lon="123.91957">
        <ele>585.92</ele>
      </trkpt>
      <trkpt lat="10.61578" lon="123.91952">
        <ele>588.84</ele>
      </trkpt>
      <trkpt lat="10.61584" lon="123.91954">
        <ele>590.7</ele>
      </trkpt>
      <trkpt lat="10.61594" lon="123.91982">
        <ele>594.25</ele>
      </trkpt>
      <trkpt lat="10.61602" lon="123.92004">
        <ele>596.48</ele>
      </trkpt>
      <trkpt lat="10.61632" lon="123.92041">
        <ele>595.59</ele>
      </trkpt>
      <trkpt lat="10.61661" lon="123.9205">
        <ele>590.8</ele>
      </trkpt>
      <trkpt lat="10.617" lon="123.92059">
        <ele>585.17</ele>
      </trkpt>
      <trkpt lat="10.61711" lon="123.92066">
        <ele>585.85</ele>
      </trkpt>
      <trkpt lat="10.61723" lon="123.92076">
        <ele>588.01</ele>
      </trkpt>
      <trkpt lat="10.61745" lon="123.92084">
        <ele>590.65</ele>
      </trkpt>
      <trkpt lat="10.61765" lon="123.92084">
        <ele>597.49</ele>
      </trkpt>
      <trkpt lat="10.61785" lon="123.92085">
        <ele>604.55</ele>
      </trkpt>
      <trkpt lat="10.61802" lon="123.92084">
        <ele>605.05</ele>
      </trkpt>
      <trkpt lat="10.61814" lon="123.92081">
        <ele>603.63</ele>
      </trkpt>
      <trkpt lat="10.61826" lon="123.92073">
        <ele>600.4</ele>
      </trkpt>
      <trkpt lat="10.61832" lon="123.92071">
        <ele>600.37</ele>
      </trkpt>
      <trkpt lat="10.61848" lon="123.92069">
        <ele>595.91</ele>
      </trkpt>
      <trkpt lat="10.61859" lon="123.92067">
        <ele>592.43</ele>
      </trkpt>
      <trkpt lat="10.61867" lon="123.92067">
        <ele>589.96</ele>
      </trkpt>
      <trkpt lat="10.61878" lon="123.92067">
        <ele>586.38</ele>
      </trkpt>
      <trkpt lat="10.61896" lon="123.92076">
        <ele>582.0</ele>
      </trkpt>
      <trkpt lat="10.61906" lon="123.92083">
        <ele>580.29</ele>
      </trkpt>
      <trkpt lat="10.61914" lon="123.92094">
        <ele>574.41</ele>
      </trkpt>
      <trkpt lat="10.61914" lon="123.92108">
        <ele>568.94</ele>
      </trkpt>
      <trkpt lat="10.61909" lon="123.92119">
        <ele>569.03</ele>
      </trkpt>
      <trkpt lat="10.61895" lon="123.92136">
        <ele>572.57</ele>
      </trkpt>
      <trkpt lat="10.61868" lon="123.92162">
        <ele>587.01</ele>
      </trkpt>
      <trkpt lat="10.61846" lon="123.92187">
        <ele>588.56</ele>
      </trkpt>
      <trkpt lat="10.61827" lon="123.92209">
        <ele>588.57</ele>
      </trkpt>
      <trkpt lat="10.61814" lon="123.92217">
        <ele>589.1</ele>
      </trkpt>
      <trkpt lat="10.61807" lon="123.92222">
        <ele>588.66</ele>
      </trkpt>
      <trkpt lat="10.61792" lon="123.92222">
        <ele>590.12</ele>
      </trkpt>
      <trkpt lat="10.61776" lon="123.92223">
        <ele>591.5</ele>
      </trkpt>
      <trkpt lat="10.6176" lon="123.92225">
        <ele>597.14</ele>
      </trkpt>
      <trkpt lat="10.61739" lon="123.9223">
        <ele>600.29</ele>
      </trkpt>
      <trkpt lat="10.61722" lon="123.9224">
        <ele>595.78</ele>
      </trkpt>
      <trkpt lat="10.61709" lon="123.92241">
        <ele>603.05</ele>
      </trkpt>
      <trkpt lat="10.61699" lon="123.92241">
        <ele>609.31</ele>
      </trkpt>
      <trkpt lat="10.61688" lon="123.92249">
        <ele>611.06</ele>
      </trkpt>
      <trkpt lat="10.61682" lon="123.92266">
        <ele>601.38</ele>
      </trkpt>
      <trkpt lat="10.61676" lon="123.92278">
        <ele>594.86</ele>
      </trkpt>
      <trkpt lat="10.61659" lon="123.92298">
        <ele>595.12</ele>
      </trkpt>
      <trkpt lat="10.61645" lon="123.92306">
        <ele>598.45</ele>
      </trkpt>
      <trkpt lat="10.61636" lon="123.9231">
        <ele>604.02</ele>
      </trkpt>
      <trkpt lat="10.61625" lon="123.92319">
        <ele>609.13</ele>
      </trkpt>
      <trkpt lat="10.61622" lon="123.92337">
        <ele>604.71</ele>
      </trkpt>
      <trkpt lat="10.61615" lon="123.92365">
        <ele>603.0</ele>
      </trkpt>
      <trkpt lat="10.616" lon="123.92387">
        <ele>603.1</ele>
      </trkpt>
      <trkpt lat="10.6159" lon="123.92394">
        <ele>604.27</ele>
      </trkpt>
      <trkpt lat="10.61571" lon="123.92405">
        <ele>611.39</ele>
      </trkpt>
      <trkpt lat="10.61563" lon="123.9242">
        <ele>618.16</ele>
      </trkpt>
      <trkpt lat="10.6155" lon="123.92428">
        <ele>623.78</ele>
      </trkpt>
      <trkpt lat="10.61539" lon="123.92433">
        <ele>626.63</ele>
      </trkpt>
      <trkpt lat="10.61507" lon="123.92439">
        <ele>630.26</ele>
      </trkpt>
      <trkpt lat="10.61499" lon="123.92442">
        <ele>630.48</ele>
      </trkpt>
      <trkpt lat="10.61486" lon="123.92455">
        <ele>625.52</ele>
      </trkpt>
      <trkpt lat="10.61476" lon="123.92467">
        <ele>622.08</ele>
      </trkpt>
      <trkpt lat="10.61468" lon="123.92477">
        <ele>620.88</ele>
      </trkpt>
      <trkpt lat="10.61462" lon="123.9249">
        <ele>620.13</ele>
      </trkpt>
      <trkpt lat="10.61454" lon="123.92506">
        <ele>617.38</ele>
      </trkpt>
      <trkpt lat="10.61436" lon="123.92531">
        <ele>616.12</ele>
      </trkpt>
      <trkpt lat="10.61424" lon="123.92545">
        <ele>619.95</ele>
      </trkpt>
      <trkpt lat="10.61414" lon="123.92563">
        <ele>622.71</ele>
      </trkpt>
      <trkpt lat="10.61409" lon="123.92592">
        <ele>620.62</ele>
      </trkpt>
      <trkpt lat="10.61412" lon="123.92614">
        <ele>620.59</ele>
      </trkpt>
      <trkpt lat="10.6141" lon="123.92626">
        <ele>623.71</ele>
      </trkpt>
      <trkpt lat="10.61405" lon="123.92639">
        <ele>627.83</ele>
      </trkpt>
      <trkpt lat="10.61404" lon="123.92654">
        <ele>634.68</ele>
      </trkpt>
      <trkpt lat="10.61411" lon="123.92678">
        <ele>639.82</ele>
      </trkpt>
      <trkpt lat="10.61419" lon="123.92708">
        <ele>639.57</ele>
      </trkpt>
      <trkpt lat="10.6142" lon="123.92724">
        <ele>639.06</ele>
      </trkpt>
      <trkpt lat="10.61418" lon="123.92742">
        <ele>636.14</ele>
      </trkpt>
      <trkpt lat="10.61409" lon="123.92759">
        <ele>636.1</ele>
      </trkpt>
      <trkpt lat="10.614" lon="123.92772">
        <ele>636.76</ele>
      </trkpt>
      <trkpt lat="10.6139" lon="123.92785">
        <ele>638.68</ele>
      </trkpt>
      <trkpt lat="10.6138" lon="123.92794">
        <ele>641.13</ele>
      </trkpt>
      <trkpt lat="10.61354" lon="123.92804">
        <ele>645.6</ele>
      </trkpt>
      <trkpt lat="10.61349" lon="123.92805">
        <ele>646.32</ele>
      </trkpt>
      <trkpt lat="10.61345" lon="123.92808">
        <ele>646.38</ele>
      </trkpt>
      <trkpt lat="10.61345" lon="123.92813">
        <ele>645.32</ele>
      </trkpt>
      <trkpt lat="10.61347" lon="123.9282">
        <ele>643.66</ele>
      </trkpt>
      <trkpt lat="10.6135" lon="123.92826">
        <ele>642.32</ele>
      </trkpt>
      <trkpt lat="10.61351" lon="123.92837">
        <ele>640.57</ele>
      </trkpt>
      <trkpt lat="10.6135" lon="123.92844">
        <ele>639.77</ele>
      </trkpt>
      <trkpt lat="10.61346" lon="123.92851">
        <ele>639.15</ele>
      </trkpt>
      <trkpt lat="10.61331" lon="123.92864">
        <ele>637.61</ele>
      </trkpt>
      <trkpt lat="10.61319" lon="123.9287">
        <ele>634.71</ele>
      </trkpt>
      <trkpt lat="10.613" lon="123.92875">
        <ele>633.3</ele>
      </trkpt>
      <trkpt lat="10.6129" lon="123.9288">
        <ele>633.06</ele>
      </trkpt>
      <trkpt lat="10.61274" lon="123.92887">
        <ele>633.93</ele>
      </trkpt>
      <trkpt lat="10.61258" lon="123.92897">
        <ele>635.82</ele>
      </trkpt>
      <trkpt lat="10.61253" lon="123.92911">
        <ele>633.74</ele>
      </trkpt>
      <trkpt lat="10.61251" lon="123.92928">
        <ele>631.17</ele>
      </trkpt>
      <trkpt lat="10.61243" lon="123.92952">
        <ele>634.03</ele>
      </trkpt>
      <trkpt lat="10.6124" lon="123.92963">
        <ele>638.26</ele>
      </trkpt>
      <trkpt lat="10.61232" lon="123.92969">
        <ele>641.19</ele>
      </trkpt>
      <trkpt lat="10.61225" lon="123.9297">
        <ele>642.32</ele>
      </trkpt>
      <trkpt lat="10.61213" lon="123.92969">
        <ele>643.12</ele>
      </trkpt>
      <trkpt lat="10.61201" lon="123.92969">
        <ele>643.89</ele>
      </trkpt>
      <trkpt lat="10.61193" lon="123.92971">
        <ele>644.64</ele>
      </trkpt>
      <trkpt lat="10.61184" lon="123.92975">
        <ele>644.25</ele>
      </trkpt>
      <trkpt lat="10.61169" lon="123.92986">
        <ele>643.17</ele>
      </trkpt>
      <trkpt lat="10.61158" lon="123.92999">
        <ele>644.55</ele>
      </trkpt>
      <trkpt lat="10.61147" lon="123.93009">
        <ele>646.81</ele>
      </trkpt>
      <trkpt lat="10.61141" lon="123.93014">
        <ele>648.47</ele>
      </trkpt>
      <trkpt lat="10.61136" lon="123.93022">
        <ele>649.58</ele>
      </trkpt>
      <trkpt lat="10.61106" lon="123.93074">
        <ele>646.57</ele>
      </trkpt>
      <trkpt lat="10.6109" lon="123.93098">
        <ele>645.1</ele>
      </trkpt>
      <trkpt lat="10.61071" lon="123.93126">
        <ele>645.87</ele>
      </trkpt>
      <trkpt lat="10.61054" lon="123.93142">
        <ele>644.03</ele>
      </trkpt>
      <trkpt lat="10.61038" lon="123.93167">
        <ele>647.74</ele>
      </trkpt>
      <trkpt lat="10.6102" lon="123.93191">
        <ele>652.37</ele>
      </trkpt>
      <trkpt lat="10.61003" lon="123.93206">
        <ele>654.75</ele>
      </trkpt>
      <trkpt lat="10.60988" lon="123.93216">
        <ele>655.55</ele>
      </trkpt>
      <trkpt lat="10.60979" lon="123.93224">
        <ele>656.26</ele>
      </trkpt>
      <trkpt lat="10.60969" lon="123.93237">
        <ele>658.92</ele>
      </trkpt>
      <trkpt lat="10.6096" lon="123.93255">
        <ele>661.95</ele>
      </trkpt>
      <trkpt lat="10.60959" lon="123.93262">
        <ele>662.21</ele>
      </trkpt>
      <trkpt lat="10.60961" lon="123.93273">
        <ele>662.75</ele>
      </trkpt>
      <trkpt lat="10.60966" lon="123.93288">
        <ele>664.41</ele>
      </trkpt>
      <trkpt lat="10.60969" lon="123.93299">
        <ele>665.36</ele>
      </trkpt>
      <trkpt lat="10.60971" lon="123.93309">
        <ele>665.54</ele>
      </trkpt>
      <trkpt lat="10.60982" lon="123.93331">
        <ele>665.13</ele>
      </trkpt>
      <trkpt lat="10.60987" lon="123.93341">
        <ele>668.07</ele>
      </trkpt>
      <trkpt lat="10.60989" lon="123.93355">
        <ele>671.6</ele>
      </trkpt>
      <trkpt lat="10.60992" lon="123.93364">
        <ele>673.3</ele>
      </trkpt>
      <trkpt lat="10.61" lon="123.93373">
        <ele>673.0</ele>
      </trkpt>
      <trkpt lat="10.61011" lon="123.93383">
        <ele>672.21</ele>
      </trkpt>
      <trkpt lat="10.61018" lon="123.9339">
        <ele>671.76</ele>
      </trkpt>
      <trkpt lat="10.61024" lon="123.93402">
        <ele>671.53</ele>
      </trkpt>
      <trkpt lat="10.61025" lon="123.93413">
        <ele>671.55</ele>
      </trkpt>
      <trkpt lat="10.61009" lon="123.93442">
        <ele>675.97</ele>
      </trkpt>
      <trkpt lat="10.61001" lon="123.9346">
        <ele>673.36</ele>
      </trkpt>
      <trkpt lat="10.60998" lon="123.93483">
        <ele>669.62</ele>
      </trkpt>
      <trkpt lat="10.61009" lon="123.93499">
        <ele>666.79</ele>
      </trkpt>
      <trkpt lat="10.61044" lon="123.93527">
        <ele>663.3</ele>
      </trkpt>
      <trkpt lat="10.61057" lon="123.93546">
        <ele>659.36</ele>
      </trkpt>
      <trkpt lat="10.61063" lon="123.93584">
        <ele>652.25</ele>
      </trkpt>
      <trkpt lat="10.61074" lon="123.93628">
        <ele>654.5</ele>
      </trkpt>
      <trkpt lat="10.61079" lon="123.93705">
        <ele>658.66</ele>
      </trkpt>
      <trkpt lat="10.61085" lon="123.93722">
        <ele>658.62</ele>
      </trkpt>
      <trkpt lat="10.6109" lon="123.93737">
        <ele>655.56</ele>
      </trkpt>
      <trkpt lat="10.61101" lon="123.93758">
        <ele>650.77</ele>
      </trkpt>
      <trkpt lat="10.61107" lon="123.93775">
        <ele>647.27</ele>
      </trkpt>
      <trkpt lat="10.61104" lon="123.93795">
        <ele>650.02</ele>
      </trkpt>
      <trkpt lat="10.61106" lon="123.93805">
        <ele>651.02</ele>
      </trkpt>
      <trkpt lat="10.61111" lon="123.93817">
        <ele>653.72</ele>
      </trkpt>
      <trkpt lat="10.61118" lon="123.93829">
        <ele>656.26</ele>
      </trkpt>
      <trkpt lat="10.61123" lon="123.93833">
        <ele>656.34</ele>
      </trkpt>
      <trkpt lat="10.61126" lon="123.93834">
        <ele>656.02</ele>
      </trkpt>
      <trkpt lat="10.61136" lon="123.93833">
        <ele>653.56</ele>
      </trkpt>
      <trkpt lat="10.61152" lon="123.93829">
        <ele>650.33</ele>
      </trkpt>
      <trkpt lat="10.61164" lon="123.93831">
        <ele>648.96</ele>
      </trkpt>
      <trkpt lat="10.61176" lon="123.93834">
        <ele>649.74</ele>
      </trkpt>
      <trkpt lat="10.61187" lon="123.93843">
        <ele>649.43</ele>
      </trkpt>
      <trkpt lat="10.61197" lon="123.93855">
        <ele>645.92</ele>
      </trkpt>
      <trkpt lat="10.61216" lon="123.93878">
        <ele>647.23</ele>
      </trkpt>
      <trkpt lat="10.61229" lon="123.93887">
        <ele>645.42</ele>
      </trkpt>
      <trkpt lat="10.6124" lon="123.93892">
        <ele>648.28</ele>
      </trkpt>
      <trkpt lat="10.61252" lon="123.93898">
        <ele>647.28</ele>
      </trkpt>
      <trkpt lat="10.61259" lon="123.93906">
        <ele>643.75</ele>
      </trkpt>
      <trkpt lat="10.61287" lon="123.93938">
        <ele>638.16</ele>
      </trkpt>
      <trkpt lat="10.61325" lon="123.93965">
        <ele>638.92</ele>
      </trkpt>
      <trkpt lat="10.61368" lon="123.93958">
        <ele>648.98</ele>
      </trkpt>
      <trkpt lat="10.61386" lon="123.93966">
        <ele>649.64</ele>
      </trkpt>
      <trkpt lat="10.61402" lon="123.93982">
        <ele>647.41</ele>
      </trkpt>
      <trkpt lat="10.61412" lon="123.93987">
        <ele>646.78</ele>
      </trkpt>
      <trkpt lat="10.61424" lon="123.93987">
        <ele>646.15</ele>
      </trkpt>
      <trkpt lat="10.61444" lon="123.93985">
        <ele>644.98</ele>
      </trkpt>
      <trkpt lat="10.61458" lon="123.93984">
        <ele>648.43</ele>
      </trkpt>
      <trkpt lat="10.61472" lon="123.93987">
        <ele>649.25</ele>
      </trkpt>
      <trkpt lat="10.61485" lon="123.93993">
        <ele>642.02</ele>
      </trkpt>
      <trkpt lat="10.61496" lon="123.93993">
        <ele>639.84</ele>
      </trkpt>
      <trkpt lat="10.61512" lon="123.9399">
        <ele>640.69</ele>
      </trkpt>
      <trkpt lat="10.61526" lon="123.93985">
        <ele>640.53</ele>
      </trkpt>
      <trkpt lat="10.6156" lon="123.93983">
        <ele>627.31</ele>
      </trkpt>
      <trkpt lat="10.6159" lon="123.93998">
        <ele>634.56</ele>
      </trkpt>
      <trkpt lat="10.61613" lon="123.94022">
        <ele>642.0</ele>
      </trkpt>
      <trkpt lat="10.6166" lon="123.9409">
        <ele>657.9</ele>
      </trkpt>
      <trkpt lat="10.61697" lon="123.94134">
        <ele>661.93</ele>
      </trkpt>
      <trkpt lat="10.61715" lon="123.94157">
        <ele>659.89</ele>
      </trkpt>
      <trkpt lat="10.61734" lon="123.94185">
        <ele>667.52</ele>
      </trkpt>
      <trkpt lat="10.61766" lon="123.94163">
        <ele>662.37</ele>
      </trkpt>
    </trkseg>
  </trk>
</gpx>
