<?xml version="1.0"?>
<gpx xmlns="http://www.topografix.com/GPX/1/1" xmlns:xsi="http://www.w3.org/2001/XMLSchema-instance" version="1.1" creator="AllTrails.com" xsi:schemaLocation="http://www.topografix.com/GPX/1/1 http://www.topografix.com/GPX/1/1/gpx.xsd">
  <metadata>
    <name><![CDATA[Mount Naupa]]></name>
    <desc><![CDATA[]]></desc>
    <link href="http://www.alltrails.com">
      <text>AllTrails, LLC</text>
    </link>
    <bounds minlat="10.26865" minlon="123.73023" maxlat="10.27535" maxlon="123.74222"/>
  </metadata>
  <trk>
    <name><![CDATA[Mount Naupa]]></name>
    <src>AllTrails</src>
    <trkseg>
      <trkpt lat="10.26948" lon="123.74222">
        <ele>266.89</ele>
      </trkpt>
      <trkpt lat="10.26911" lon="123.74208">
        <ele>269.52</ele>
      </trkpt>
      <trkpt lat="10.26912" lon="123.74206">
        <ele>269.79</ele>
      </trkpt>
      <trkpt lat="10.26911" lon="123.74199">
        <ele>270.37</ele>
      </trkpt>
      <trkpt lat="10.26904" lon="123.74168">
        <ele>273.83</ele>
      </trkpt>
      <trkpt lat="10.26893" lon="123.74139">
        <ele>280.68</ele>
      </trkpt>
      <trkpt lat="10.26892" lon="123.74135">
        <ele>281.74</ele>
      </trkpt>
      <trkpt lat="10.26888" lon="123.74128">
        <ele>283.8</ele>
      </trkpt>
      <trkpt lat="10.26886" lon="123.74121">
        <ele>285.75</ele>
      </trkpt>
      <trkpt lat="10.26885" lon="123.74115">
        <ele>287.4</ele>
      </trkpt>
      <trkpt lat="10.26887" lon="123.74105">
        <ele>289.77</ele>
      </trkpt>
      <trkpt lat="10.26891" lon="123.74089">
        <ele>293.22</ele>
      </trkpt>
      <trkpt lat="10.26893" lon="123.74082">
        <ele>294.21</ele>
      </trkpt>
      <trkpt lat="10.26892" lon="123.74073">
        <ele>294.07</ele>
      </trkpt>
      <trkpt lat="10.2689" lon="123.74053">
        <ele>293.7</ele>
      </trkpt>
      <trkpt lat="10.26887" lon="123.74039">
        <ele>293.81</ele>
      </trkpt>
      <trkpt lat="10.26884" lon="123.74031">
        <ele>294.17</ele>
      </trkpt>
      <trkpt lat="10.26873" lon="123.74012">
        <ele>296.19</ele>
      </trkpt>
      <trkpt lat="10.26868" lon="123.74001">
        <ele>297.27</ele>
      </trkpt>
      <trkpt lat="10.26866" lon="123.73987">
        <ele>298.4</ele>
      </trkpt>
      <trkpt lat="10.2687" lon="123.73959">
        <ele>298.7</ele>
      </trkpt>
      <trkpt lat="10.26869" lon="123.73951">
        <ele>299.01</ele>
      </trkpt>
      <trkpt lat="10.26865" lon="123.73936">
        <ele>299.97</ele>
      </trkpt>
      <trkpt lat="10.26868" lon="123.73924">
        <ele>300.36</ele>
      </trkpt>
      <trkpt lat="10.26878" lon="123.73914">
        <ele>299.97</ele>
      </trkpt>
      <trkpt lat="10.26891" lon="123.73905">
        <ele>298.23</ele>
      </trkpt>
      <trkpt lat="10.26898" lon="123.73902">
        <ele>297.58</ele>
      </trkpt>
      <trkpt lat="10.2691" lon="123.73897">
        <ele>296.72</ele>
      </trkpt>
      <trkpt lat="10.26911" lon="123.73895">
        <ele>296.53</ele>
      </trkpt>
      <trkpt lat="10.26914" lon="123.73892">
        <ele>296.25</ele>
      </trkpt>
      <trkpt lat="10.26916" lon="123.73887">
        <ele>295.93</ele>
      </trkpt>
      <trkpt lat="10.26917" lon="123.73882">
        <ele>295.77</ele>
      </trkpt>
      <trkpt lat="10.26918" lon="123.73878">
        <ele>295.69</ele>
      </trkpt>
      <trkpt lat="10.26922" lon="123.73875">
        <ele>295.88</ele>
      </trkpt>
      <trkpt lat="10.26925" lon="123.73872">
        <ele>296.06</ele>
      </trkpt>
      <trkpt lat="10.26929" lon="123.73869">
        <ele>296.36</ele>
      </trkpt>
      <trkpt lat="10.26933" lon="123.73866">
        <ele>296.73</ele>
      </trkpt>
      <trkpt lat="10.26937" lon="123.73863">
        <ele>297.16</ele>
      </trkpt>
      <trkpt lat="10.26941" lon="123.73861">
        <ele>297.63</ele>
      </trkpt>
      <trkpt lat="10.26945" lon="123.73857">
        <ele>298.24</ele>
      </trkpt>
      <trkpt lat="10.26949" lon="123.73855">
        <ele>298.98</ele>
      </trkpt>
      <trkpt lat="10.26953" lon="123.73853">
        <ele>299.79</ele>
      </trkpt>
      <trkpt lat="10.26956" lon="123.73849">
        <ele>300.64</ele>
      </trkpt>
      <trkpt lat="10.26957" lon="123.73845">
        <ele>301.17</ele>
      </trkpt>
      <trkpt lat="10.2696" lon="123.73841">
        <ele>302.18</ele>
      </trkpt>
      <trkpt lat="10.26965" lon="123.73839">
        <ele>303.52</ele>
      </trkpt>
      <trkpt lat="10.26969" lon="123.73838">
        <ele>304.57</ele>
      </trkpt>
      <trkpt lat="10.26974" lon="123.73836">
        <ele>305.98</ele>
      </trkpt>
      <trkpt lat="10.26978" lon="123.73835">
        <ele>306.97</ele>
      </trkpt>
      <trkpt lat="10.26983" lon="123.73837">
        <ele>307.65</ele>
      </trkpt>
      <trkpt lat="10.26987" lon="123.73839">
        <ele>308.05</ele>
      </trkpt>
      <trkpt lat="10.26992" lon="123.73841">
        <ele>308.58</ele>
      </trkpt>
      <trkpt lat="10.26997" lon="123.73841">
        <ele>309.51</ele>
      </trkpt>
      <trkpt lat="10.27002" lon="123.7384">
        <ele>310.0</ele>
      </trkpt>
      <trkpt lat="10.27006" lon="123.7384">
        <ele>309.35</ele>
      </trkpt>
      <trkpt lat="10.27011" lon="123.73839">
        <ele>308.83</ele>
      </trkpt>
      <trkpt lat="10.27015" lon="123.73836">
        <ele>309.06</ele>
      </trkpt>
      <trkpt lat="10.27019" lon="123.73835">
        <ele>308.76</ele>
      </trkpt>
      <trkpt lat="10.27022" lon="123.73831">
        <ele>308.86</ele>
      </trkpt>
      <trkpt lat="10.27024" lon="123.73826">
        <ele>308.7</ele>
      </trkpt>
      <trkpt lat="10.27026" lon="123.73822">
        <ele>308.59</ele>
      </trkpt>
      <trkpt lat="10.27028" lon="123.73817">
        <ele>308.57</ele>
      </trkpt>
      <trkpt lat="10.27029" lon="123.73812">
        <ele>308.73</ele>
      </trkpt>
      <trkpt lat="10.2703" lon="123.73808">
        <ele>308.88</ele>
      </trkpt>
      <trkpt lat="10.27032" lon="123.73803">
        <ele>309.21</ele>
      </trkpt>
      <trkpt lat="10.27034" lon="123.73799">
        <ele>309.58</ele>
      </trkpt>
      <trkpt lat="10.27037" lon="123.73795">
        <ele>310.01</ele>
      </trkpt>
      <trkpt lat="10.27041" lon="123.73792">
        <ele>310.44</ele>
      </trkpt>
      <trkpt lat="10.27044" lon="123.73788">
        <ele>311.0</ele>
      </trkpt>
      <trkpt lat="10.27047" lon="123.73784">
        <ele>311.63</ele>
      </trkpt>
      <trkpt lat="10.2705" lon="123.73779">
        <ele>312.44</ele>
      </trkpt>
      <trkpt lat="10.27052" lon="123.73774">
        <ele>313.35</ele>
      </trkpt>
      <trkpt lat="10.27054" lon="123.73769">
        <ele>314.4</ele>
      </trkpt>
      <trkpt lat="10.27055" lon="123.73765">
        <ele>315.22</ele>
      </trkpt>
      <trkpt lat="10.27057" lon="123.7376">
        <ele>316.4</ele>
      </trkpt>
      <trkpt lat="10.27057" lon="123.73755">
        <ele>317.33</ele>
      </trkpt>
      <trkpt lat="10.27058" lon="123.7375">
        <ele>318.44</ele>
      </trkpt>
      <trkpt lat="10.27058" lon="123.73745">
        <ele>319.03</ele>
      </trkpt>
      <trkpt lat="10.27058" lon="123.7374">
        <ele>319.62</ele>
      </trkpt>
      <trkpt lat="10.27057" lon="123.73734">
        <ele>320.08</ele>
      </trkpt>
      <trkpt lat="10.27057" lon="123.73729">
        <ele>320.65</ele>
      </trkpt>
      <trkpt lat="10.27057" lon="123.73724">
        <ele>321.21</ele>
      </trkpt>
      <trkpt lat="10.27056" lon="123.73719">
        <ele>321.59</ele>
      </trkpt>
      <trkpt lat="10.27056" lon="123.73714">
        <ele>322.32</ele>
      </trkpt>
      <trkpt lat="10.27056" lon="123.73709">
        <ele>323.04</ele>
      </trkpt>
      <trkpt lat="10.27056" lon="123.73704">
        <ele>323.76</ele>
      </trkpt>
      <trkpt lat="10.27056" lon="123.73699">
        <ele>324.49</ele>
      </trkpt>
      <trkpt lat="10.27057" lon="123.73694">
        <ele>325.53</ele>
      </trkpt>
      <trkpt lat="10.27058" lon="123.7369">
        <ele>326.46</ele>
      </trkpt>
      <trkpt lat="10.2706" lon="123.73685">
        <ele>327.91</ele>
      </trkpt>
      <trkpt lat="10.27061" lon="123.73681">
        <ele>328.89</ele>
      </trkpt>
      <trkpt lat="10.27064" lon="123.73675">
        <ele>330.96</ele>
      </trkpt>
      <trkpt lat="10.27068" lon="123.73672">
        <ele>332.99</ele>
      </trkpt>
      <trkpt lat="10.2707" lon="123.73668">
        <ele>334.48</ele>
      </trkpt>
      <trkpt lat="10.27074" lon="123.73664">
        <ele>335.25</ele>
      </trkpt>
      <trkpt lat="10.27077" lon="123.73661">
        <ele>335.25</ele>
      </trkpt>
      <trkpt lat="10.27081" lon="123.73657">
        <ele>335.25</ele>
      </trkpt>
      <trkpt lat="10.27085" lon="123.73655">
        <ele>335.83</ele>
      </trkpt>
      <trkpt lat="10.2709" lon="123.73654">
        <ele>336.77</ele>
      </trkpt>
      <trkpt lat="10.27095" lon="123.73652">
        <ele>337.35</ele>
      </trkpt>
      <trkpt lat="10.271" lon="123.7365">
        <ele>337.96</ele>
      </trkpt>
      <trkpt lat="10.27104" lon="123.73648">
        <ele>338.32</ele>
      </trkpt>
      <trkpt lat="10.27108" lon="123.73644">
        <ele>337.96</ele>
      </trkpt>
      <trkpt lat="10.27111" lon="123.7364">
        <ele>337.37</ele>
      </trkpt>
      <trkpt lat="10.27113" lon="123.73636">
        <ele>336.51</ele>
      </trkpt>
      <trkpt lat="10.27113" lon="123.73631">
        <ele>334.72</ele>
      </trkpt>
      <trkpt lat="10.27114" lon="123.73628">
        <ele>333.95</ele>
      </trkpt>
      <trkpt lat="10.27113" lon="123.73626">
        <ele>332.94</ele>
      </trkpt>
      <trkpt lat="10.27115" lon="123.73622">
        <ele>332.13</ele>
      </trkpt>
      <trkpt lat="10.27117" lon="123.73618">
        <ele>331.34</ele>
      </trkpt>
      <trkpt lat="10.2712" lon="123.73614">
        <ele>330.89</ele>
      </trkpt>
      <trkpt lat="10.27122" lon="123.7361">
        <ele>330.12</ele>
      </trkpt>
      <trkpt lat="10.27125" lon="123.73606">
        <ele>329.66</ele>
      </trkpt>
      <trkpt lat="10.27128" lon="123.73603">
        <ele>329.62</ele>
      </trkpt>
      <trkpt lat="10.27132" lon="123.73599">
        <ele>329.63</ele>
      </trkpt>
      <trkpt lat="10.27135" lon="123.73595">
        <ele>329.36</ele>
      </trkpt>
      <trkpt lat="10.27137" lon="123.73591">
        <ele>328.77</ele>
      </trkpt>
      <trkpt lat="10.27139" lon="123.73586">
        <ele>327.9</ele>
      </trkpt>
      <trkpt lat="10.27139" lon="123.73581">
        <ele>326.96</ele>
      </trkpt>
      <trkpt lat="10.27139" lon="123.73577">
        <ele>326.81</ele>
      </trkpt>
      <trkpt lat="10.27138" lon="123.73572">
        <ele>326.27</ele>
      </trkpt>
      <trkpt lat="10.27137" lon="123.73567">
        <ele>325.74</ele>
      </trkpt>
      <trkpt lat="10.27135" lon="123.73563">
        <ele>324.93</ele>
      </trkpt>
      <trkpt lat="10.27131" lon="123.73559">
        <ele>323.5</ele>
      </trkpt>
      <trkpt lat="10.27129" lon="123.73555">
        <ele>322.8</ele>
      </trkpt>
      <trkpt lat="10.27127" lon="123.73551">
        <ele>322.22</ele>
      </trkpt>
      <trkpt lat="10.27127" lon="123.73546">
        <ele>322.3</ele>
      </trkpt>
      <trkpt lat="10.27129" lon="123.73542">
        <ele>322.97</ele>
      </trkpt>
      <trkpt lat="10.27131" lon="123.73538">
        <ele>323.62</ele>
      </trkpt>
      <trkpt lat="10.27135" lon="123.73535">
        <ele>324.84</ele>
      </trkpt>
      <trkpt lat="10.27138" lon="123.73531">
        <ele>325.74</ele>
      </trkpt>
      <trkpt lat="10.2714" lon="123.73527">
        <ele>326.29</ele>
      </trkpt>
      <trkpt lat="10.27139" lon="123.73522">
        <ele>325.82</ele>
      </trkpt>
      <trkpt lat="10.27139" lon="123.73517">
        <ele>325.64</ele>
      </trkpt>
      <trkpt lat="10.2714" lon="123.73513">
        <ele>325.77</ele>
      </trkpt>
      <trkpt lat="10.27143" lon="123.73509">
        <ele>326.41</ele>
      </trkpt>
      <trkpt lat="10.27144" lon="123.73508">
        <ele>326.63</ele>
      </trkpt>
      <trkpt lat="10.27145" lon="123.73507">
        <ele>326.85</ele>
      </trkpt>
      <trkpt lat="10.27147" lon="123.73503">
        <ele>327.18</ele>
      </trkpt>
      <trkpt lat="10.27149" lon="123.73499">
        <ele>327.76</ele>
      </trkpt>
      <trkpt lat="10.2715" lon="123.73494">
        <ele>329.05</ele>
      </trkpt>
      <trkpt lat="10.2715" lon="123.73489">
        <ele>330.1</ele>
      </trkpt>
      <trkpt lat="10.27152" lon="123.73485">
        <ele>331.32</ele>
      </trkpt>
      <trkpt lat="10.27152" lon="123.7348">
        <ele>332.32</ele>
      </trkpt>
      <trkpt lat="10.2715" lon="123.73476">
        <ele>332.81</ele>
      </trkpt>
      <trkpt lat="10.2715" lon="123.73471">
        <ele>333.86</ele>
      </trkpt>
      <trkpt lat="10.2715" lon="123.73466">
        <ele>334.94</ele>
      </trkpt>
      <trkpt lat="10.27151" lon="123.73461">
        <ele>336.1</ele>
      </trkpt>
      <trkpt lat="10.27152" lon="123.73457">
        <ele>336.98</ele>
      </trkpt>
      <trkpt lat="10.27153" lon="123.73452">
        <ele>338.01</ele>
      </trkpt>
      <trkpt lat="10.27155" lon="123.73448">
        <ele>338.77</ele>
      </trkpt>
      <trkpt lat="10.27156" lon="123.73443">
        <ele>339.65</ele>
      </trkpt>
      <trkpt lat="10.27156" lon="123.73437">
        <ele>340.76</ele>
      </trkpt>
      <trkpt lat="10.27156" lon="123.73432">
        <ele>341.69</ele>
      </trkpt>
      <trkpt lat="10.27156" lon="123.73428">
        <ele>342.43</ele>
      </trkpt>
      <trkpt lat="10.27156" lon="123.73423">
        <ele>343.36</ele>
      </trkpt>
      <trkpt lat="10.27157" lon="123.73418">
        <ele>344.15</ele>
      </trkpt>
      <trkpt lat="10.27152" lon="123.73415">
        <ele>345.83</ele>
      </trkpt>
      <trkpt lat="10.27148" lon="123.73413">
        <ele>347.27</ele>
      </trkpt>
      <trkpt lat="10.27144" lon="123.73411">
        <ele>348.71</ele>
      </trkpt>
      <trkpt lat="10.27139" lon="123.73409">
        <ele>350.3</ele>
      </trkpt>
      <trkpt lat="10.27135" lon="123.73407">
        <ele>351.64</ele>
      </trkpt>
      <trkpt lat="10.27132" lon="123.73404">
        <ele>353.33</ele>
      </trkpt>
      <trkpt lat="10.27131" lon="123.73399">
        <ele>355.66</ele>
      </trkpt>
      <trkpt lat="10.27133" lon="123.73395">
        <ele>357.16</ele>
      </trkpt>
      <trkpt lat="10.27137" lon="123.73393">
        <ele>357.49</ele>
      </trkpt>
      <trkpt lat="10.27141" lon="123.7339">
        <ele>358.22</ele>
      </trkpt>
      <trkpt lat="10.27145" lon="123.73388">
        <ele>358.54</ele>
      </trkpt>
      <trkpt lat="10.2715" lon="123.73388">
        <ele>357.82</ele>
      </trkpt>
      <trkpt lat="10.27154" lon="123.73388">
        <ele>357.24</ele>
      </trkpt>
      <trkpt lat="10.27158" lon="123.73385">
        <ele>358.07</ele>
      </trkpt>
      <trkpt lat="10.2716" lon="123.73381">
        <ele>359.65</ele>
      </trkpt>
      <trkpt lat="10.27161" lon="123.73377">
        <ele>361.38</ele>
      </trkpt>
      <trkpt lat="10.27165" lon="123.73373">
        <ele>362.68</ele>
      </trkpt>
      <trkpt lat="10.27169" lon="123.73371">
        <ele>363.94</ele>
      </trkpt>
      <trkpt lat="10.27173" lon="123.73368">
        <ele>366.2</ele>
      </trkpt>
      <trkpt lat="10.27176" lon="123.73364">
        <ele>368.5</ele>
      </trkpt>
      <trkpt lat="10.27177" lon="123.7336">
        <ele>370.27</ele>
      </trkpt>
      <trkpt lat="10.27177" lon="123.73353">
        <ele>372.82</ele>
      </trkpt>
      <trkpt lat="10.27177" lon="123.73347">
        <ele>375.01</ele>
      </trkpt>
      <trkpt lat="10.27176" lon="123.73343">
        <ele>376.41</ele>
      </trkpt>
      <trkpt lat="10.27174" lon="123.73338">
        <ele>378.21</ele>
      </trkpt>
      <trkpt lat="10.27171" lon="123.73334">
        <ele>379.73</ele>
      </trkpt>
      <trkpt lat="10.27167" lon="123.73331">
        <ele>380.51</ele>
      </trkpt>
      <trkpt lat="10.27165" lon="123.73327">
        <ele>381.58</ele>
      </trkpt>
      <trkpt lat="10.27164" lon="123.73322">
        <ele>382.75</ele>
      </trkpt>
      <trkpt lat="10.27162" lon="123.73318">
        <ele>383.8</ele>
      </trkpt>
      <trkpt lat="10.2716" lon="123.73313">
        <ele>385.0</ele>
      </trkpt>
      <trkpt lat="10.2716" lon="123.73308">
        <ele>385.99</ele>
      </trkpt>
      <trkpt lat="10.27159" lon="123.73303">
        <ele>386.96</ele>
      </trkpt>
      <trkpt lat="10.27158" lon="123.73298">
        <ele>387.81</ele>
      </trkpt>
      <trkpt lat="10.27157" lon="123.73293">
        <ele>388.64</ele>
      </trkpt>
      <trkpt lat="10.27155" lon="123.73288">
        <ele>389.47</ele>
      </trkpt>
      <trkpt lat="10.27154" lon="123.73283">
        <ele>390.23</ele>
      </trkpt>
      <trkpt lat="10.27152" lon="123.73279">
        <ele>390.83</ele>
      </trkpt>
      <trkpt lat="10.27152" lon="123.73274">
        <ele>391.67</ele>
      </trkpt>
      <trkpt lat="10.2715" lon="123.73269">
        <ele>392.52</ele>
      </trkpt>
      <trkpt lat="10.27147" lon="123.73265">
        <ele>393.11</ele>
      </trkpt>
      <trkpt lat="10.27144" lon="123.73261">
        <ele>393.64</ele>
      </trkpt>
      <trkpt lat="10.27141" lon="123.73258">
        <ele>393.96</ele>
      </trkpt>
      <trkpt lat="10.2714" lon="123.73256">
        <ele>394.2</ele>
      </trkpt>
      <trkpt lat="10.27141" lon="123.73254">
        <ele>394.55</ele>
      </trkpt>
      <trkpt lat="10.27144" lon="123.7325">
        <ele>395.37</ele>
      </trkpt>
      <trkpt lat="10.27147" lon="123.73247">
        <ele>395.71</ele>
      </trkpt>
      <trkpt lat="10.27151" lon="123.73243">
        <ele>396.31</ele>
      </trkpt>
      <trkpt lat="10.27154" lon="123.7324">
        <ele>396.87</ele>
      </trkpt>
      <trkpt lat="10.27158" lon="123.73237">
        <ele>397.66</ele>
      </trkpt>
      <trkpt lat="10.27162" lon="123.73235">
        <ele>398.46</ele>
      </trkpt>
      <trkpt lat="10.27167" lon="123.73233">
        <ele>399.49</ele>
      </trkpt>
      <trkpt lat="10.27171" lon="123.73231">
        <ele>400.31</ele>
      </trkpt>
      <trkpt lat="10.27175" lon="123.73228">
        <ele>401.31</ele>
      </trkpt>
      <trkpt lat="10.27179" lon="123.73225">
        <ele>402.33</ele>
      </trkpt>
      <trkpt lat="10.27182" lon="123.73222">
        <ele>403.24</ele>
      </trkpt>
      <trkpt lat="10.27185" lon="123.73215">
        <ele>404.85</ele>
      </trkpt>
      <trkpt lat="10.27187" lon="123.73211">
        <ele>405.84</ele>
      </trkpt>
      <trkpt lat="10.27189" lon="123.73207">
        <ele>406.85</ele>
      </trkpt>
      <trkpt lat="10.27191" lon="123.73203">
        <ele>407.88</ele>
      </trkpt>
      <trkpt lat="10.27193" lon="123.73198">
        <ele>409.11</ele>
      </trkpt>
      <trkpt lat="10.27195" lon="123.73194">
        <ele>410.18</ele>
      </trkpt>
      <trkpt lat="10.27197" lon="123.73189">
        <ele>411.48</ele>
      </trkpt>
      <trkpt lat="10.27198" lon="123.73183">
        <ele>412.81</ele>
      </trkpt>
      <trkpt lat="10.27199" lon="123.73178">
        <ele>413.97</ele>
      </trkpt>
      <trkpt lat="10.27199" lon="123.73173">
        <ele>414.93</ele>
      </trkpt>
      <trkpt lat="10.27199" lon="123.73168">
        <ele>415.89</ele>
      </trkpt>
      <trkpt lat="10.27199" lon="123.73163">
        <ele>416.59</ele>
      </trkpt>
      <trkpt lat="10.27199" lon="123.73159">
        <ele>417.07</ele>
      </trkpt>
      <trkpt lat="10.27201" lon="123.73154">
        <ele>418.24</ele>
      </trkpt>
      <trkpt lat="10.27204" lon="123.7315">
        <ele>419.62</ele>
      </trkpt>
      <trkpt lat="10.27206" lon="123.73146">
        <ele>420.76</ele>
      </trkpt>
      <trkpt lat="10.27206" lon="123.73141">
        <ele>421.45</ele>
      </trkpt>
      <trkpt lat="10.27206" lon="123.73136">
        <ele>422.19</ele>
      </trkpt>
      <trkpt lat="10.27206" lon="123.73132">
        <ele>422.8</ele>
      </trkpt>
      <trkpt lat="10.27207" lon="123.73127">
        <ele>423.93</ele>
      </trkpt>
      <trkpt lat="10.27207" lon="123.73122">
        <ele>424.72</ele>
      </trkpt>
      <trkpt lat="10.27207" lon="123.73117">
        <ele>425.5</ele>
      </trkpt>
      <trkpt lat="10.27207" lon="123.73112">
        <ele>426.28</ele>
      </trkpt>
      <trkpt lat="10.27208" lon="123.73107">
        <ele>427.44</ele>
      </trkpt>
      <trkpt lat="10.27209" lon="123.73101">
        <ele>428.76</ele>
      </trkpt>
      <trkpt lat="10.2721" lon="123.73098">
        <ele>429.66</ele>
      </trkpt>
      <trkpt lat="10.2721" lon="123.73098">
        <ele>429.66</ele>
      </trkpt>
      <trkpt lat="10.2721" lon="123.73093">
        <ele>430.41</ele>
      </trkpt>
      <trkpt lat="10.27212" lon="123.73089">
        <ele>431.98</ele>
      </trkpt>
      <trkpt lat="10.27214" lon="123.73084">
        <ele>433.75</ele>
      </trkpt>
      <trkpt lat="10.27216" lon="123.7308">
        <ele>435.94</ele>
      </trkpt>
      <trkpt lat="10.27218" lon="123.73076">
        <ele>438.25</ele>
      </trkpt>
      <trkpt lat="10.27222" lon="123.73072">
        <ele>441.56</ele>
      </trkpt>
      <trkpt lat="10.27224" lon="123.73068">
        <ele>443.86</ele>
      </trkpt>
      <trkpt lat="10.27226" lon="123.73064">
        <ele>446.17</ele>
      </trkpt>
      <trkpt lat="10.27229" lon="123.73061">
        <ele>448.65</ele>
      </trkpt>
      <trkpt lat="10.27232" lon="123.73057">
        <ele>451.46</ele>
      </trkpt>
      <trkpt lat="10.27235" lon="123.73054">
        <ele>453.94</ele>
      </trkpt>
      <trkpt lat="10.27239" lon="123.73051">
        <ele>456.93</ele>
      </trkpt>
      <trkpt lat="10.2724" lon="123.73051">
        <ele>457.44</ele>
      </trkpt>
      <trkpt lat="10.27239" lon="123.73051">
        <ele>456.93</ele>
      </trkpt>
      <trkpt lat="10.27256" lon="123.73041">
        <ele>467.22</ele>
      </trkpt>
      <trkpt lat="10.27274" lon="123.73033">
        <ele>473.82</ele>
      </trkpt>
      <trkpt lat="10.27297" lon="123.73024">
        <ele>481.65</ele>
      </trkpt>
      <trkpt lat="10.27318" lon="123.73024">
        <ele>486.31</ele>
      </trkpt>
      <trkpt lat="10.27327" lon="123.73023">
        <ele>488.36</ele>
      </trkpt>
      <trkpt lat="10.27328" lon="123.7303">
        <ele>487.56</ele>
      </trkpt>
      <trkpt lat="10.27333" lon="123.73045">
        <ele>487.05</ele>
      </trkpt>
      <trkpt lat="10.2734" lon="123.73064">
        <ele>485.58</ele>
      </trkpt>
      <trkpt lat="10.27344" lon="123.73073">
        <ele>484.88</ele>
      </trkpt>
      <trkpt lat="10.27371" lon="123.73063">
        <ele>489.45</ele>
      </trkpt>
      <trkpt lat="10.27388" lon="123.73055">
        <ele>491.94</ele>
      </trkpt>
      <trkpt lat="10.27411" lon="123.73067">
        <ele>494.77</ele>
      </trkpt>
      <trkpt lat="10.27437" lon="123.73081">
        <ele>499.48</ele>
      </trkpt>
      <trkpt lat="10.27455" lon="123.73083">
        <ele>503.67</ele>
      </trkpt>
      <trkpt lat="10.2748" lon="123.73097">
        <ele>508.34</ele>
      </trkpt>
      <trkpt lat="10.27489" lon="123.73105">
        <ele>509.76</ele>
      </trkpt>
      <trkpt lat="10.27502" lon="123.73115">
        <ele>511.16</ele>
      </trkpt>
      <trkpt lat="10.2751" lon="123.73126">
        <ele>508.25</ele>
      </trkpt>
      <trkpt lat="10.27518" lon="123.73139">
        <ele>505.82</ele>
      </trkpt>
      <trkpt lat="10.27524" lon="123.73162">
        <ele>505.3</ele>
      </trkpt>
      <trkpt lat="10.2753" lon="123.73185">
        <ele>508.01</ele>
      </trkpt>
      <trkpt lat="10.27532" lon="123.73199">
        <ele>510.39</ele>
      </trkpt>
      <trkpt lat="10.27534" lon="123.73209">
        <ele>512.07</ele>
      </trkpt>
      <trkpt lat="10.27535" lon="123.73218">
        <ele>513.68</ele>
      </trkpt>
      <trkpt lat="10.27534" lon="123.73209">
        <ele>512.07</ele>
      </trkpt>
      <trkpt lat="10.27532" lon="123.73199">
        <ele>510.39</ele>
      </trkpt>
      <trkpt lat="10.2753" lon="123.73185">
        <ele>508.01</ele>
      </trkpt>
      <trkpt lat="10.27524" lon="123.73162">
        <ele>505.3</ele>
      </trkpt>
      <trkpt lat="10.27518" lon="123.73139">
        <ele>505.82</ele>
      </trkpt>
      <trkpt lat="10.2751" lon="123.73126">
        <ele>508.25</ele>
      </trkpt>
      <trkpt lat="10.27502" lon="123.73115">
        <ele>511.16</ele>
      </trkpt>
      <trkpt lat="10.27489" lon="123.73105">
        <ele>509.76</ele>
      </trkpt>
      <trkpt lat="10.2748" lon="123.73097">
        <ele>508.34</ele>
      </trkpt>
      <trkpt lat="10.27455" lon="123.73083">
        <ele>503.67</ele>
      </trkpt>
      <trkpt lat="10.27437" lon="123.73081">
        <ele>499.48</ele>
      </trkpt>
      <trkpt lat="10.27411" lon="123.73067">
        <ele>494.77</ele>
      </trkpt>
      <trkpt lat="10.27388" lon="123.73055">
        <ele>491.94</ele>
      </trkpt>
      <trkpt lat="10.27371" lon="123.73063">
        <ele>489.45</ele>
      </trkpt>
      <trkpt lat="10.27344" lon="123.73073">
        <ele>484.88</ele>
      </trkpt>
      <trkpt lat="10.2734" lon="123.73064">
        <ele>485.58</ele>
      </trkpt>
      <trkpt lat="10.27333" lon="123.73045">
        <ele>487.05</ele>
      </trkpt>
      <trkpt lat="10.27328" lon="123.7303">
        <ele>487.56</ele>
      </trkpt>
      <trkpt lat="10.27327" lon="123.73023">
        <ele>488.36</ele>
      </trkpt>
      <trkpt lat="10.27318" lon="123.73024">
        <ele>486.31</ele>
      </trkpt>
      <trkpt lat="10.27297" lon="123.73024">
        <ele>481.65</ele>
      </trkpt>
      <trkpt lat="10.27274" lon="123.73033">
        <ele>473.82</ele>
      </trkpt>
      <trkpt lat="10.27256" lon="123.73041">
        <ele>467.22</ele>
      </trkpt>
      <trkpt lat="10.27239" lon="123.73051">
        <ele>456.93</ele>
      </trkpt>
      <trkpt lat="10.2724" lon="123.73051">
        <ele>457.44</ele>
      </trkpt>
      <trkpt lat="10.27239" lon="123.73051">
        <ele>456.93</ele>
      </trkpt>
      <trkpt lat="10.27235" lon="123.73054">
        <ele>453.94</ele>
      </trkpt>
      <trkpt lat="10.27232" lon="123.73057">
        <ele>451.46</ele>
      </trkpt>
      <trkpt lat="10.27229" lon="123.73061">
        <ele>448.65</ele>
      </trkpt>
      <trkpt lat="10.27226" lon="123.73064">
        <ele>446.17</ele>
      </trkpt>
      <trkpt lat="10.27224" lon="123.73068">
        <ele>443.86</ele>
      </trkpt>
      <trkpt lat="10.27222" lon="123.73072">
        <ele>441.56</ele>
      </trkpt>
      <trkpt lat="10.27218" lon="123.73076">
        <ele>438.25</ele>
      </trkpt>
      <trkpt lat="10.27216" lon="123.7308">
        <ele>435.94</ele>
      </trkpt>
      <trkpt lat="10.27214" lon="123.73084">
        <ele>433.75</ele>
      </trkpt>
      <trkpt lat="10.27212" lon="123.73089">
        <ele>431.98</ele>
      </trkpt>
      <trkpt lat="10.2721" lon="123.73093">
        <ele>430.41</ele>
      </trkpt>
      <trkpt lat="10.2721" lon="123.73098">
        <ele>429.66</ele>
      </trkpt>
      <trkpt lat="10.2721" lon="123.73098">
        <ele>429.66</ele>
      </trkpt>
      <trkpt lat="10.27209" lon="123.73101">
        <ele>428.76</ele>
      </trkpt>
      <trkpt lat="10.27208" lon="123.73107">
        <ele>427.44</ele>
      </trkpt>
      <trkpt lat="10.27207" lon="123.73112">
        <ele>426.28</ele>
      </trkpt>
      <trkpt lat="10.27207" lon="123.73117">
        <ele>425.5</ele>
      </trkpt>
      <trkpt lat="10.27207" lon="123.73122">
        <ele>424.72</ele>
      </trkpt>
      <trkpt lat="10.27207" lon="123.73127">
        <ele>423.93</ele>
      </trkpt>
      <trkpt lat="10.27206" lon="123.73132">
        <ele>422.8</ele>
      </trkpt>
      <trkpt lat="10.27206" lon="123.73136">
        <ele>422.19</ele>
      </trkpt>
      <trkpt lat="10.27206" lon="123.73141">
        <ele>421.45</ele>
      </trkpt>
      <trkpt lat="10.27206" lon="123.73146">
        <ele>420.76</ele>
      </trkpt>
      <trkpt lat="10.27204" lon="123.7315">
        <ele>419.62</ele>
      </trkpt>
      <trkpt lat="10.27201" lon="123.73154">
        <ele>418.24</ele>
      </trkpt>
      <trkpt lat="10.27199" lon="123.73159">
        <ele>417.07</ele>
      </trkpt>
      <trkpt lat="10.27199" lon="123.73163">
        <ele>416.59</ele>
      </trkpt>
      <trkpt lat="10.27199" lon="123.73168">
        <ele>415.89</ele>
      </trkpt>
      <trkpt lat="10.27199" lon="123.73173">
        <ele>414.93</ele>
      </trkpt>
      <trkpt lat="10.27199" lon="123.73178">
        <ele>413.97</ele>
      </trkpt>
      <trkpt lat="10.27198" lon="123.73183">
        <ele>412.81</ele>
      </trkpt>
      <trkpt lat="10.27197" lon="123.73189">
        <ele>411.48</ele>
      </trkpt>
      <trkpt lat="10.27195" lon="123.73194">
        <ele>410.18</ele>
      </trkpt>
      <trkpt lat="10.27193" lon="123.73198">
        <ele>409.11</ele>
      </trkpt>
      <trkpt lat="10.27191" lon="123.73203">
        <ele>407.88</ele>
      </trkpt>
      <trkpt lat="10.27189" lon="123.73207">
        <ele>406.85</ele>
      </trkpt>
      <trkpt lat="10.27187" lon="123.73211">
        <ele>405.84</ele>
      </trkpt>
      <trkpt lat="10.27185" lon="123.73215">
        <ele>404.85</ele>
      </trkpt>
      <trkpt lat="10.27182" lon="123.73222">
        <ele>403.24</ele>
      </trkpt>
      <trkpt lat="10.27179" lon="123.73225">
        <ele>402.33</ele>
      </trkpt>
      <trkpt lat="10.27175" lon="123.73228">
        <ele>401.31</ele>
      </trkpt>
      <trkpt lat="10.27171" lon="123.73231">
        <ele>400.31</ele>
      </trkpt>
      <trkpt lat="10.27167" lon="123.73233">
        <ele>399.49</ele>
      </trkpt>
      <trkpt lat="10.27162" lon="123.73235">
        <ele>398.46</ele>
      </trkpt>
      <trkpt lat="10.27158" lon="123.73237">
        <ele>397.66</ele>
      </trkpt>
      <trkpt lat="10.27154" lon="123.7324">
        <ele>396.87</ele>
      </trkpt>
      <trkpt lat="10.27151" lon="123.73243">
        <ele>396.31</ele>
      </trkpt>
      <trkpt lat="10.27147" lon="123.73247">
        <ele>395.71</ele>
      </trkpt>
      <trkpt lat="10.27144" lon="123.7325">
        <ele>395.37</ele>
      </trkpt>
      <trkpt lat="10.27141" lon="123.73254">
        <ele>394.55</ele>
      </trkpt>
      <trkpt lat="10.2714" lon="123.73256">
        <ele>394.2</ele>
      </trkpt>
      <trkpt lat="10.27141" lon="123.73258">
        <ele>393.96</ele>
      </trkpt>
      <trkpt lat="10.27144" lon="123.73261">
        <ele>393.64</ele>
      </trkpt>
      <trkpt lat="10.27147" lon="123.73265">
        <ele>393.11</ele>
      </trkpt>
      <trkpt lat="10.2715" lon="123.73269">
        <ele>392.52</ele>
      </trkpt>
      <trkpt lat="10.27152" lon="123.73274">
        <ele>391.67</ele>
      </trkpt>
      <trkpt lat="10.27152" lon="123.73279">
        <ele>390.83</ele>
      </trkpt>
      <trkpt lat="10.27154" lon="123.73283">
        <ele>390.23</ele>
      </trkpt>
      <trkpt lat="10.27155" lon="123.73288">
        <ele>389.47</ele>
      </trkpt>
      <trkpt lat="10.27157" lon="123.73293">
        <ele>388.64</ele>
      </trkpt>
      <trkpt lat="10.27158" lon="123.73298">
        <ele>387.81</ele>
      </trkpt>
      <trkpt lat="10.27159" lon="123.73303">
        <ele>386.96</ele>
      </trkpt>
      <trkpt lat="10.2716" lon="123.73308">
        <ele>385.99</ele>
      </trkpt>
      <trkpt lat="10.2716" lon="123.73313">
        <ele>385.0</ele>
      </trkpt>
      <trkpt lat="10.27162" lon="123.73318">
        <ele>383.8</ele>
      </trkpt>
      <trkpt lat="10.27164" lon="123.73322">
        <ele>382.75</ele>
      </trkpt>
      <trkpt lat="10.27165" lon="123.73327">
        <ele>381.58</ele>
      </trkpt>
      <trkpt lat="10.27167" lon="123.73331">
        <ele>380.51</ele>
      </trkpt>
      <trkpt lat="10.27171" lon="123.73334">
        <ele>379.73</ele>
      </trkpt>
      <trkpt lat="10.27174" lon="123.73338">
        <ele>378.21</ele>
      </trkpt>
      <trkpt lat="10.27176" lon="123.73343">
        <ele>376.41</ele>
      </trkpt>
      <trkpt lat="10.27177" lon="123.73347">
        <ele>375.01</ele>
      </trkpt>
      <trkpt lat="10.27177" lon="123.73353">
        <ele>372.82</ele>
      </trkpt>
      <trkpt lat="10.27177" lon="123.7336">
        <ele>370.27</ele>
      </trkpt>
      <trkpt lat="10.27176" lon="123.73364">
        <ele>368.5</ele>
      </trkpt>
      <trkpt lat="10.27173" lon="123.73368">
        <ele>366.2</ele>
      </trkpt>
      <trkpt lat="10.27169" lon="123.73371">
        <ele>363.94</ele>
      </trkpt>
      <trkpt lat="10.27165" lon="123.73373">
        <ele>362.68</ele>
      </trkpt>
      <trkpt lat="10.27161" lon="123.73377">
        <ele>361.38</ele>
      </trkpt>
      <trkpt lat="10.2716" lon="123.73381">
        <ele>359.65</ele>
      </trkpt>
      <trkpt lat="10.27158" lon="123.73385">
        <ele>358.07</ele>
      </trkpt>
      <trkpt lat="10.27154" lon="123.73388">
        <ele>357.24</ele>
      </trkpt>
      <trkpt lat="10.2715" lon="123.73388">
        <ele>357.82</ele>
      </trkpt>
      <trkpt lat="10.27145" lon="123.73388">
        <ele>358.54</ele>
      </trkpt>
      <trkpt lat="10.27141" lon="123.7339">
        <ele>358.22</ele>
      </trkpt>
      <trkpt lat="10.27137" lon="123.73393">
        <ele>357.49</ele>
      </trkpt>
      <trkpt lat="10.27133" lon="123.73395">
        <ele>357.16</ele>
      </trkpt>
      <trkpt lat="10.27131" lon="123.73399">
        <ele>355.66</ele>
      </trkpt>
      <trkpt lat="10.27132" lon="123.73404">
        <ele>353.33</ele>
      </trkpt>
      <trkpt lat="10.27135" lon="123.73407">
        <ele>351.64</ele>
      </trkpt>
      <trkpt lat="10.27139" lon="123.73409">
        <ele>350.3</ele>
      </trkpt>
      <trkpt lat="10.27144" lon="123.73411">
        <ele>348.71</ele>
      </trkpt>
      <trkpt lat="10.27148" lon="123.73413">
        <ele>347.27</ele>
      </trkpt>
      <trkpt lat="10.27152" lon="123.73415">
        <ele>345.83</ele>
      </trkpt>
      <trkpt lat="10.27157" lon="123.73418">
        <ele>344.15</ele>
      </trkpt>
      <trkpt lat="10.27156" lon="123.73423">
        <ele>343.36</ele>
      </trkpt>
      <trkpt lat="10.27156" lon="123.73428">
        <ele>342.43</ele>
      </trkpt>
      <trkpt lat="10.27156" lon="123.73432">
        <ele>341.69</ele>
      </trkpt>
      <trkpt lat="10.27156" lon="123.73437">
        <ele>340.76</ele>
      </trkpt>
      <trkpt lat="10.27156" lon="123.73443">
        <ele>339.65</ele>
      </trkpt>
      <trkpt lat="10.27155" lon="123.73448">
        <ele>338.77</ele>
      </trkpt>
      <trkpt lat="10.27153" lon="123.73452">
        <ele>338.01</ele>
      </trkpt>
      <trkpt lat="10.27152" lon="123.73457">
        <ele>336.98</ele>
      </trkpt>
      <trkpt lat="10.27151" lon="123.73461">
        <ele>336.1</ele>
      </trkpt>
      <trkpt lat="10.2715" lon="123.73466">
        <ele>334.94</ele>
      </trkpt>
      <trkpt lat="10.2715" lon="123.73471">
        <ele>333.86</ele>
      </trkpt>
      <trkpt lat="10.2715" lon="123.73476">
        <ele>332.81</ele>
      </trkpt>
      <trkpt lat="10.27152" lon="123.7348">
        <ele>332.32</ele>
      </trkpt>
      <trkpt lat="10.27152" lon="123.73485">
        <ele>331.32</ele>
      </trkpt>
      <trkpt lat="10.2715" lon="123.73489">
        <ele>330.1</ele>
      </trkpt>
      <trkpt lat="10.2715" lon="123.73494">
        <ele>329.05</ele>
      </trkpt>
      <trkpt lat="10.27149" lon="123.73499">
        <ele>327.76</ele>
      </trkpt>
      <trkpt lat="10.27147" lon="123.73503">
        <ele>327.18</ele>
      </trkpt>
      <trkpt lat="10.27145" lon="123.73507">
        <ele>326.85</ele>
      </trkpt>
      <trkpt lat="10.27144" lon="123.73508">
        <ele>326.63</ele>
      </trkpt>
      <trkpt lat="10.27143" lon="123.73509">
        <ele>326.41</ele>
      </trkpt>
      <trkpt lat="10.2714" lon="123.73513">
        <ele>325.77</ele>
      </trkpt>
      <trkpt lat="10.27139" lon="123.73517">
        <ele>325.64</ele>
      </trkpt>
      <trkpt lat="10.27139" lon="123.73522">
        <ele>325.82</ele>
      </trkpt>
      <trkpt lat="10.2714" lon="123.73527">
        <ele>326.29</ele>
      </trkpt>
      <trkpt lat="10.27138" lon="123.73531">
        <ele>325.74</ele>
      </trkpt>
      <trkpt lat="10.27135" lon="123.73535">
        <ele>324.84</ele>
      </trkpt>
      <trkpt lat="10.27131" lon="123.73538">
        <ele>323.62</ele>
      </trkpt>
      <trkpt lat="10.27129" lon="123.73542">
        <ele>322.97</ele>
      </trkpt>
      <trkpt lat="10.27127" lon="123.73546">
        <ele>322.3</ele>
      </trkpt>
      <trkpt lat="10.27127" lon="123.73551">
        <ele>322.22</ele>
      </trkpt>
      <trkpt lat="10.27129" lon="123.73555">
        <ele>322.8</ele>
      </trkpt>
      <trkpt lat="10.27131" lon="123.73559">
        <ele>323.5</ele>
      </trkpt>
      <trkpt lat="10.27135" lon="123.73563">
        <ele>324.93</ele>
      </trkpt>
      <trkpt lat="10.27137" lon="123.73567">
        <ele>325.74</ele>
      </trkpt>
      <trkpt lat="10.27138" lon="123.73572">
        <ele>326.27</ele>
      </trkpt>
      <trkpt lat="10.27139" lon="123.73577">
        <ele>326.81</ele>
      </trkpt>
      <trkpt lat="10.27139" lon="123.73581">
        <ele>326.96</ele>
      </trkpt>
      <trkpt lat="10.27139" lon="123.73586">
        <ele>327.9</ele>
      </trkpt>
      <trkpt lat="10.27137" lon="123.73591">
        <ele>328.77</ele>
      </trkpt>
      <trkpt lat="10.27135" lon="123.73595">
        <ele>329.36</ele>
      </trkpt>
      <trkpt lat="10.27132" lon="123.73599">
        <ele>329.63</ele>
      </trkpt>
      <trkpt lat="10.27128" lon="123.73603">
        <ele>329.62</ele>
      </trkpt>
      <trkpt lat="10.27125" lon="123.73606">
        <ele>329.66</ele>
      </trkpt>
      <trkpt lat="10.27122" lon="123.7361">
        <ele>330.12</ele>
      </trkpt>
      <trkpt lat="10.2712" lon="123.73614">
        <ele>330.89</ele>
      </trkpt>
      <trkpt lat="10.27117" lon="123.73618">
        <ele>331.34</ele>
      </trkpt>
      <trkpt lat="10.27115" lon="123.73622">
        <ele>332.13</ele>
      </trkpt>
      <trkpt lat="10.27113" lon="123.73626">
        <ele>332.94</ele>
      </trkpt>
      <trkpt lat="10.27114" lon="123.73628">
        <ele>333.95</ele>
      </trkpt>
      <trkpt lat="10.27113" lon="123.73631">
        <ele>334.72</ele>
      </trkpt>
      <trkpt lat="10.27113" lon="123.73636">
        <ele>336.51</ele>
      </trkpt>
      <trkpt lat="10.27111" lon="123.7364">
        <ele>337.37</ele>
      </trkpt>
      <trkpt lat="10.27108" lon="123.73644">
        <ele>337.96</ele>
      </trkpt>
      <trkpt lat="10.27104" lon="123.73648">
        <ele>338.32</ele>
      </trkpt>
      <trkpt lat="10.271" lon="123.7365">
        <ele>337.96</ele>
      </trkpt>
      <trkpt lat="10.27095" lon="123.73652">
        <ele>337.35</ele>
      </trkpt>
      <trkpt lat="10.2709" lon="123.73654">
        <ele>336.77</ele>
      </trkpt>
      <trkpt lat="10.27085" lon="123.73655">
        <ele>335.83</ele>
      </trkpt>
      <trkpt lat="10.27081" lon="123.73657">
        <ele>335.25</ele>
      </trkpt>
      <trkpt lat="10.27077" lon="123.73661">
        <ele>335.25</ele>
      </trkpt>
      <trkpt lat="10.27074" lon="123.73664">
        <ele>335.25</ele>
      </trkpt>
      <trkpt lat="10.2707" lon="123.73668">
        <ele>334.48</ele>
      </trkpt>
      <trkpt lat="10.27068" lon="123.73672">
        <ele>332.99</ele>
      </trkpt>
      <trkpt lat="10.27064" lon="123.73675">
        <ele>330.96</ele>
      </trkpt>
      <trkpt lat="10.27061" lon="123.73681">
        <ele>328.89</ele>
      </trkpt>
      <trkpt lat="10.2706" lon="123.73685">
        <ele>327.91</ele>
      </trkpt>
      <trkpt lat="10.27058" lon="123.7369">
        <ele>326.46</ele>
      </trkpt>
      <trkpt lat="10.27057" lon="123.73694">
        <ele>325.53</ele>
      </trkpt>
      <trkpt lat="10.27056" lon="123.73699">
        <ele>324.49</ele>
      </trkpt>
      <trkpt lat="10.27056" lon="123.73704">
        <ele>323.76</ele>
      </trkpt>
      <trkpt lat="10.27056" lon="123.73709">
        <ele>323.04</ele>
      </trkpt>
      <trkpt lat="10.27056" lon="123.73714">
        <ele>322.32</ele>
      </trkpt>
      <trkpt lat="10.27056" lon="123.73719">
        <ele>321.59</ele>
      </trkpt>
      <trkpt lat="10.27057" lon="123.73724">
        <ele>321.21</ele>
      </trkpt>
      <trkpt lat="10.27057" lon="123.73729">
        <ele>320.65</ele>
      </trkpt>
      <trkpt lat="10.27057" lon="123.73734">
        <ele>320.08</ele>
      </trkpt>
      <trkpt lat="10.27058" lon="123.7374">
        <ele>319.62</ele>
      </trkpt>
      <trkpt lat="10.27058" lon="123.73745">
        <ele>319.03</ele>
      </trkpt>
      <trkpt lat="10.27058" lon="123.7375">
        <ele>318.44</ele>
      </trkpt>
      <trkpt lat="10.27057" lon="123.73755">
        <ele>317.33</ele>
      </trkpt>
      <trkpt lat="10.27057" lon="123.7376">
        <ele>316.4</ele>
      </trkpt>
      <trkpt lat="10.27055" lon="123.73765">
        <ele>315.22</ele>
      </trkpt>
      <trkpt lat="10.27054" lon="123.73769">
        <ele>314.4</ele>
      </trkpt>
      <trkpt lat="10.27052" lon="123.73774">
        <ele>313.35</ele>
      </trkpt>
      <trkpt lat="10.2705" lon="123.73779">
        <ele>312.44</ele>
      </trkpt>
      <trkpt lat="10.27047" lon="123.73784">
        <ele>311.63</ele>
      </trkpt>
      <trkpt lat="10.27044" lon="123.73788">
        <ele>311.0</ele>
      </trkpt>
      <trkpt lat="10.27041" lon="123.73792">
        <ele>310.44</ele>
      </trkpt>
      <trkpt lat="10.27037" lon="123.73795">
        <ele>310.01</ele>
      </trkpt>
      <trkpt lat="10.27034" lon="123.73799">
        <ele>309.58</ele>
      </trkpt>
      <trkpt lat="10.27032" lon="123.73803">
        <ele>309.21</ele>
      </trkpt>
      <trkpt lat="10.2703" lon="123.73808">
        <ele>308.88</ele>
      </trkpt>
      <trkpt lat="10.27029" lon="123.73812">
        <ele>308.73</ele>
      </trkpt>
      <trkpt lat="10.27028" lon="123.73817">
        <ele>308.57</ele>
      </trkpt>
      <trkpt lat="10.27026" lon="123.73822">
        <ele>308.59</ele>
      </trkpt>
      <trkpt lat="10.27024" lon="123.73826">
        <ele>308.7</ele>
      </trkpt>
      <trkpt lat="10.27022" lon="123.73831">
        <ele>308.86</ele>
      </trkpt>
      <trkpt lat="10.27019" lon="123.73835">
        <ele>308.76</ele>
      </trkpt>
      <trkpt lat="10.27015" lon="123.73836">
        <ele>309.06</ele>
      </trkpt>
      <trkpt lat="10.27011" lon="123.73839">
        <ele>308.83</ele>
      </trkpt>
      <trkpt lat="10.27006" lon="123.7384">
        <ele>309.35</ele>
      </trkpt>
      <trkpt lat="10.27002" lon="123.7384">
        <ele>310.0</ele>
      </trkpt>
      <trkpt lat="10.26997" lon="123.73841">
        <ele>309.51</ele>
      </trkpt>
      <trkpt lat="10.26992" lon="123.73841">
        <ele>308.58</ele>
      </trkpt>
      <trkpt lat="10.26987" lon="123.73839">
        <ele>308.05</ele>
      </trkpt>
      <trkpt lat="10.26983" lon="123.73837">
        <ele>307.65</ele>
      </trkpt>
      <trkpt lat="10.26978" lon="123.73835">
        <ele>306.97</ele>
      </trkpt>
      <trkpt lat="10.26974" lon="123.73836">
        <ele>305.98</ele>
      </trkpt>
      <trkpt lat="10.26969" lon="123.73838">
        <ele>304.57</ele>
      </trkpt>
      <trkpt lat="10.26965" lon="123.73839">
        <ele>303.52</ele>
      </trkpt>
      <trkpt lat="10.2696" lon="123.73841">
        <ele>302.18</ele>
      </trkpt>
      <trkpt lat="10.26957" lon="123.73845">
        <ele>301.17</ele>
      </trkpt>
      <trkpt lat="10.26956" lon="123.73849">
        <ele>300.64</ele>
      </trkpt>
      <trkpt lat="10.26953" lon="123.73853">
        <ele>299.79</ele>
      </trkpt>
      <trkpt lat="10.26949" lon="123.73855">
        <ele>298.98</ele>
      </trkpt>
      <trkpt lat="10.26945" lon="123.73857">
        <ele>298.24</ele>
      </trkpt>
      <trkpt lat="10.26941" lon="123.73861">
        <ele>297.63</ele>
      </trkpt>
      <trkpt lat="10.26937" lon="123.73863">
        <ele>297.16</ele>
      </trkpt>
      <trkpt lat="10.26933" lon="123.73866">
        <ele>296.73</ele>
      </trkpt>
      <trkpt lat="10.26929" lon="123.73869">
        <ele>296.36</ele>
      </trkpt>
      <trkpt lat="10.26925" lon="123.73872">
        <ele>296.06</ele>
      </trkpt>
      <trkpt lat="10.26922" lon="123.73875">
        <ele>295.88</ele>
      </trkpt>
      <trkpt lat="10.26918" lon="123.73878">
        <ele>295.69</ele>
      </trkpt>
      <trkpt lat="10.26917" lon="123.73882">
        <ele>295.77</ele>
      </trkpt>
      <trkpt lat="10.26916" lon="123.73887">
        <ele>295.93</ele>
      </trkpt>
      <trkpt lat="10.26914" lon="123.73892">
        <ele>296.25</ele>
      </trkpt>
      <trkpt lat="10.26911" lon="123.73895">
        <ele>296.53</ele>
      </trkpt>
      <trkpt lat="10.2691" lon="123.73897">
        <ele>296.72</ele>
      </trkpt>
      <trkpt lat="10.26898" lon="123.73902">
        <ele>297.58</ele>
      </trkpt>
      <trkpt lat="10.26891" lon="123.73905">
        <ele>298.23</ele>
      </trkpt>
      <trkpt lat="10.26878" lon="123.73914">
        <ele>299.97</ele>
      </trkpt>
      <trkpt lat="10.26868" lon="123.73924">
        <ele>300.36</ele>
      </trkpt>
      <trkpt lat="10.26865" lon="123.73936">
        <ele>299.97</ele>
      </trkpt>
      <trkpt lat="10.26869" lon="123.73951">
        <ele>299.01</ele>
      </trkpt>
      <trkpt lat="10.2687" lon="123.73959">
        <ele>298.7</ele>
      </trkpt>
      <trkpt lat="10.26866" lon="123.73987">
        <ele>298.4</ele>
      </trkpt>
      <trkpt lat="10.26868" lon="123.74001">
        <ele>297.27</ele>
      </trkpt>
      <trkpt lat="10.26873" lon="123.74012">
        <ele>296.19</ele>
      </trkpt>
      <trkpt lat="10.26884" lon="123.74031">
        <ele>294.17</ele>
      </trkpt>
      <trkpt lat="10.26887" lon="123.74039">
        <ele>293.81</ele>
      </trkpt>
      <trkpt lat="10.2689" lon="123.74053">
        <ele>293.7</ele>
      </trkpt>
      <trkpt lat="10.26892" lon="123.74073">
        <ele>294.07</ele>
      </trkpt>
      <trkpt lat="10.26893" lon="123.74082">
        <ele>294.21</ele>
      </trkpt>
      <trkpt lat="10.26891" lon="123.74089">
        <ele>293.22</ele>
      </trkpt>
      <trkpt lat="10.26887" lon="123.74105">
        <ele>289.77</ele>
      </trkpt>
      <trkpt lat="10.26885" lon="123.74115">
        <ele>287.4</ele>
      </trkpt>
      <trkpt lat="10.26886" lon="123.74121">
        <ele>285.75</ele>
      </trkpt>
      <trkpt lat="10.26888" lon="123.74128">
        <ele>283.8</ele>
      </trkpt>
      <trkpt lat="10.26892" lon="123.74135">
        <ele>281.74</ele>
      </trkpt>
      <trkpt lat="10.26893" lon="123.74139">
        <ele>280.68</ele>
      </trkpt>
      <trkpt lat="10.26904" lon="123.74168">
        <ele>273.83</ele>
      </trkpt>
      <trkpt lat="10.26911" lon="123.74199">
        <ele>270.37</ele>
      </trkpt>
      <trkpt lat="10.26912" lon="123.74206">
        <ele>269.79</ele>
      </trkpt>
      <trkpt lat="10.26911" lon="123.74208">
        <ele>269.52</ele>
      </trkpt>
      <trkpt lat="10.26948" lon="123.74222">
        <ele>266.89</ele>
      </trkpt>
    </trkseg>
  </trk>
</gpx>
