<?xml version="1.0"?>
<gpx xmlns="http://www.topografix.com/GPX/1/1" xmlns:xsi="http://www.w3.org/2001/XMLSchema-instance" version="1.1" creator="AllTrails.com" xsi:schemaLocation="http://www.topografix.com/GPX/1/1 http://www.topografix.com/GPX/1/1/gpx.xsd">
  <metadata>
    <name><![CDATA[Mount Babag via Malubog]]></name>
    <desc><![CDATA[]]></desc>
    <link href="http://www.alltrails.com">
      <text>AllTrails, LLC</text>
    </link>
    <bounds minlat="10.35992" minlon="123.85098" maxlat="10.37931" maxlon="123.86878"/>
  </metadata>
  <trk>
    <name><![CDATA[Mount Babag via Malubog]]></name>
    <src>AllTrails</src>
    <trkseg>
      <trkpt lat="10.37931" lon="123.86867">
        <ele>450.59</ele>
      </trkpt>
      <trkpt lat="10.37921" lon="123.86878">
        <ele>456.35</ele>
      </trkpt>
      <trkpt lat="10.37905" lon="123.86862">
        <ele>454.39</ele>
      </trkpt>
      <trkpt lat="10.37899" lon="123.86856">
        <ele>453.46</ele>
      </trkpt>
      <trkpt lat="10.37896" lon="123.86853">
        <ele>453.02</ele>
      </trkpt>
      <trkpt lat="10.37889" lon="123.86841">
        <ele>450.46</ele>
      </trkpt>
      <trkpt lat="10.37887" lon="123.86833">
        <ele>448.39</ele>
      </trkpt>
      <trkpt lat="10.37885" lon="123.86822">
        <ele>448.32</ele>
      </trkpt>
      <trkpt lat="10.37879" lon="123.86784">
        <ele>447.1</ele>
      </trkpt>
      <trkpt lat="10.37879" lon="123.86766">
        <ele>445.99</ele>
      </trkpt>
      <trkpt lat="10.37883" lon="123.86753">
        <ele>445.15</ele>
      </trkpt>
      <trkpt lat="10.37894" lon="123.86734">
        <ele>451.44</ele>
      </trkpt>
      <trkpt lat="10.37897" lon="123.8673">
        <ele>453.13</ele>
      </trkpt>
      <trkpt lat="10.3789" lon="123.86726">
        <ele>454.54</ele>
      </trkpt>
      <trkpt lat="10.37889" lon="123.86724">
        <ele>455.3</ele>
      </trkpt>
      <trkpt lat="10.37891" lon="123.86719">
        <ele>457.26</ele>
      </trkpt>
      <trkpt lat="10.37897" lon="123.86715">
        <ele>459.12</ele>
      </trkpt>
      <trkpt lat="10.37904" lon="123.86711">
        <ele>461.24</ele>
      </trkpt>
      <trkpt lat="10.37909" lon="123.86709">
        <ele>462.52</ele>
      </trkpt>
      <trkpt lat="10.37911" lon="123.86705">
        <ele>464.48</ele>
      </trkpt>
      <trkpt lat="10.37911" lon="123.867">
        <ele>466.71</ele>
      </trkpt>
      <trkpt lat="10.37909" lon="123.86698">
        <ele>467.34</ele>
      </trkpt>
      <trkpt lat="10.37906" lon="123.86696">
        <ele>467.8</ele>
      </trkpt>
      <trkpt lat="10.37903" lon="123.86694">
        <ele>468.22</ele>
      </trkpt>
      <trkpt lat="10.37898" lon="123.86691">
        <ele>468.72</ele>
      </trkpt>
      <trkpt lat="10.37894" lon="123.86689">
        <ele>468.93</ele>
      </trkpt>
      <trkpt lat="10.3789" lon="123.86685">
        <ele>469.91</ele>
      </trkpt>
      <trkpt lat="10.37887" lon="123.86679">
        <ele>471.8</ele>
      </trkpt>
      <trkpt lat="10.37883" lon="123.86672">
        <ele>473.74</ele>
      </trkpt>
      <trkpt lat="10.3788" lon="123.86667">
        <ele>474.96</ele>
      </trkpt>
      <trkpt lat="10.37875" lon="123.86664">
        <ele>475.01</ele>
      </trkpt>
      <trkpt lat="10.37868" lon="123.86662">
        <ele>474.29</ele>
      </trkpt>
      <trkpt lat="10.37862" lon="123.86659">
        <ele>474.22</ele>
      </trkpt>
      <trkpt lat="10.37856" lon="123.86654">
        <ele>475.18</ele>
      </trkpt>
      <trkpt lat="10.3785" lon="123.86647">
        <ele>477.07</ele>
      </trkpt>
      <trkpt lat="10.37846" lon="123.86639">
        <ele>479.78</ele>
      </trkpt>
      <trkpt lat="10.37841" lon="123.86629">
        <ele>483.02</ele>
      </trkpt>
      <trkpt lat="10.37837" lon="123.86625">
        <ele>484.03</ele>
      </trkpt>
      <trkpt lat="10.37833" lon="123.8662">
        <ele>485.49</ele>
      </trkpt>
      <trkpt lat="10.37826" lon="123.86617">
        <ele>486.88</ele>
      </trkpt>
      <trkpt lat="10.37819" lon="123.86615">
        <ele>487.9</ele>
      </trkpt>
      <trkpt lat="10.37812" lon="123.86616">
        <ele>487.7</ele>
      </trkpt>
      <trkpt lat="10.37804" lon="123.86617">
        <ele>487.47</ele>
      </trkpt>
      <trkpt lat="10.37794" lon="123.86619">
        <ele>486.71</ele>
      </trkpt>
      <trkpt lat="10.37786" lon="123.86618">
        <ele>487.2</ele>
      </trkpt>
      <trkpt lat="10.37781" lon="123.86614">
        <ele>488.84</ele>
      </trkpt>
      <trkpt lat="10.37779" lon="123.86612">
        <ele>489.65</ele>
      </trkpt>
      <trkpt lat="10.37776" lon="123.86608">
        <ele>491.4</ele>
      </trkpt>
      <trkpt lat="10.37775" lon="123.86605">
        <ele>492.72</ele>
      </trkpt>
      <trkpt lat="10.37772" lon="123.86599">
        <ele>495.35</ele>
      </trkpt>
      <trkpt lat="10.37767" lon="123.86592">
        <ele>498.38</ele>
      </trkpt>
      <trkpt lat="10.37761" lon="123.86586">
        <ele>500.91</ele>
      </trkpt>
      <trkpt lat="10.37754" lon="123.86582">
        <ele>502.48</ele>
      </trkpt>
      <trkpt lat="10.37746" lon="123.86577">
        <ele>503.56</ele>
      </trkpt>
      <trkpt lat="10.37741" lon="123.86571">
        <ele>504.82</ele>
      </trkpt>
      <trkpt lat="10.37737" lon="123.86564">
        <ele>506.62</ele>
      </trkpt>
      <trkpt lat="10.37731" lon="123.86552">
        <ele>509.9</ele>
      </trkpt>
      <trkpt lat="10.3772" lon="123.86538">
        <ele>512.92</ele>
      </trkpt>
      <trkpt lat="10.37714" lon="123.86525">
        <ele>516.52</ele>
      </trkpt>
      <trkpt lat="10.37706" lon="123.86511">
        <ele>520.12</ele>
      </trkpt>
      <trkpt lat="10.37697" lon="123.86492">
        <ele>523.04</ele>
      </trkpt>
      <trkpt lat="10.37696" lon="123.86482">
        <ele>523.58</ele>
      </trkpt>
      <trkpt lat="10.37703" lon="123.8647">
        <ele>525.76</ele>
      </trkpt>
      <trkpt lat="10.37708" lon="123.86459">
        <ele>527.64</ele>
      </trkpt>
      <trkpt lat="10.37707" lon="123.86444">
        <ele>528.85</ele>
      </trkpt>
      <trkpt lat="10.37706" lon="123.86433">
        <ele>529.73</ele>
      </trkpt>
      <trkpt lat="10.37702" lon="123.86414">
        <ele>531.2</ele>
      </trkpt>
      <trkpt lat="10.37698" lon="123.86388">
        <ele>534.51</ele>
      </trkpt>
      <trkpt lat="10.3769" lon="123.86356">
        <ele>538.26</ele>
      </trkpt>
      <trkpt lat="10.37686" lon="123.86352">
        <ele>538.4</ele>
      </trkpt>
      <trkpt lat="10.37677" lon="123.86352">
        <ele>537.43</ele>
      </trkpt>
      <trkpt lat="10.37669" lon="123.86359">
        <ele>535.56</ele>
      </trkpt>
      <trkpt lat="10.37662" lon="123.86371">
        <ele>535.48</ele>
      </trkpt>
      <trkpt lat="10.37654" lon="123.86387">
        <ele>536.71</ele>
      </trkpt>
      <trkpt lat="10.37642" lon="123.86398">
        <ele>540.64</ele>
      </trkpt>
      <trkpt lat="10.37625" lon="123.86411">
        <ele>546.61</ele>
      </trkpt>
      <trkpt lat="10.37604" lon="123.86424">
        <ele>553.08</ele>
      </trkpt>
      <trkpt lat="10.37586" lon="123.86436">
        <ele>556.93</ele>
      </trkpt>
      <trkpt lat="10.37571" lon="123.86442">
        <ele>557.21</ele>
      </trkpt>
      <trkpt lat="10.37557" lon="123.86447">
        <ele>556.92</ele>
      </trkpt>
      <trkpt lat="10.37533" lon="123.8645">
        <ele>558.44</ele>
      </trkpt>
      <trkpt lat="10.37522" lon="123.8645">
        <ele>559.79</ele>
      </trkpt>
      <trkpt lat="10.37501" lon="123.86449">
        <ele>563.06</ele>
      </trkpt>
      <trkpt lat="10.37485" lon="123.86449">
        <ele>563.37</ele>
      </trkpt>
      <trkpt lat="10.37471" lon="123.8645">
        <ele>563.17</ele>
      </trkpt>
      <trkpt lat="10.37464" lon="123.86452">
        <ele>562.42</ele>
      </trkpt>
      <trkpt lat="10.3745" lon="123.86454">
        <ele>561.65</ele>
      </trkpt>
      <trkpt lat="10.37429" lon="123.8646">
        <ele>560.7</ele>
      </trkpt>
      <trkpt lat="10.37413" lon="123.86463">
        <ele>560.92</ele>
      </trkpt>
      <trkpt lat="10.37404" lon="123.86457">
        <ele>562.36</ele>
      </trkpt>
      <trkpt lat="10.37397" lon="123.86448">
        <ele>563.63</ele>
      </trkpt>
      <trkpt lat="10.37387" lon="123.86434">
        <ele>565.12</ele>
      </trkpt>
      <trkpt lat="10.37377" lon="123.86418">
        <ele>566.06</ele>
      </trkpt>
      <trkpt lat="10.37358" lon="123.86393">
        <ele>572.24</ele>
      </trkpt>
      <trkpt lat="10.37349" lon="123.86388">
        <ele>572.55</ele>
      </trkpt>
      <trkpt lat="10.37339" lon="123.86385">
        <ele>571.99</ele>
      </trkpt>
      <trkpt lat="10.37333" lon="123.86384">
        <ele>571.42</ele>
      </trkpt>
      <trkpt lat="10.37318" lon="123.8639">
        <ele>570.21</ele>
      </trkpt>
      <trkpt lat="10.37305" lon="123.86395">
        <ele>569.04</ele>
      </trkpt>
      <trkpt lat="10.37289" lon="123.86396">
        <ele>569.29</ele>
      </trkpt>
      <trkpt lat="10.37268" lon="123.86388">
        <ele>573.02</ele>
      </trkpt>
      <trkpt lat="10.37252" lon="123.86376">
        <ele>578.5</ele>
      </trkpt>
      <trkpt lat="10.37218" lon="123.86343">
        <ele>586.11</ele>
      </trkpt>
      <trkpt lat="10.3719" lon="123.8631">
        <ele>588.6</ele>
      </trkpt>
      <trkpt lat="10.37168" lon="123.8628">
        <ele>593.61</ele>
      </trkpt>
      <trkpt lat="10.37153" lon="123.86253">
        <ele>599.78</ele>
      </trkpt>
      <trkpt lat="10.37139" lon="123.86226">
        <ele>600.6</ele>
      </trkpt>
      <trkpt lat="10.37134" lon="123.86208">
        <ele>601.77</ele>
      </trkpt>
      <trkpt lat="10.37136" lon="123.86191">
        <ele>603.38</ele>
      </trkpt>
      <trkpt lat="10.37147" lon="123.86175">
        <ele>604.78</ele>
      </trkpt>
      <trkpt lat="10.37163" lon="123.86161">
        <ele>603.47</ele>
      </trkpt>
      <trkpt lat="10.37172" lon="123.8615">
        <ele>601.18</ele>
      </trkpt>
      <trkpt lat="10.37171" lon="123.8614">
        <ele>599.7</ele>
      </trkpt>
      <trkpt lat="10.37157" lon="123.86123">
        <ele>598.78</ele>
      </trkpt>
      <trkpt lat="10.37137" lon="123.86108">
        <ele>601.02</ele>
      </trkpt>
      <trkpt lat="10.37114" lon="123.8609">
        <ele>604.56</ele>
      </trkpt>
      <trkpt lat="10.37104" lon="123.86083">
        <ele>606.73</ele>
      </trkpt>
      <trkpt lat="10.37093" lon="123.86078">
        <ele>608.6</ele>
      </trkpt>
      <trkpt lat="10.37071" lon="123.8605">
        <ele>606.51</ele>
      </trkpt>
      <trkpt lat="10.37061" lon="123.86036">
        <ele>605.28</ele>
      </trkpt>
      <trkpt lat="10.37051" lon="123.86022">
        <ele>605.1</ele>
      </trkpt>
      <trkpt lat="10.37036" lon="123.86002">
        <ele>606.34</ele>
      </trkpt>
      <trkpt lat="10.37028" lon="123.86005">
        <ele>608.13</ele>
      </trkpt>
      <trkpt lat="10.37021" lon="123.86006">
        <ele>609.57</ele>
      </trkpt>
      <trkpt lat="10.3701" lon="123.86005">
        <ele>611.79</ele>
      </trkpt>
      <trkpt lat="10.37002" lon="123.86">
        <ele>613.57</ele>
      </trkpt>
      <trkpt lat="10.36995" lon="123.85998">
        <ele>614.36</ele>
      </trkpt>
      <trkpt lat="10.36988" lon="123.85997">
        <ele>614.54</ele>
      </trkpt>
      <trkpt lat="10.36977" lon="123.86002">
        <ele>613.99</ele>
      </trkpt>
      <trkpt lat="10.36969" lon="123.86004">
        <ele>614.12</ele>
      </trkpt>
      <trkpt lat="10.36961" lon="123.86005">
        <ele>614.4</ele>
      </trkpt>
      <trkpt lat="10.36955" lon="123.86004">
        <ele>614.62</ele>
      </trkpt>
      <trkpt lat="10.36941" lon="123.86002">
        <ele>615.01</ele>
      </trkpt>
      <trkpt lat="10.36931" lon="123.86001">
        <ele>615.02</ele>
      </trkpt>
      <trkpt lat="10.36918" lon="123.86002">
        <ele>615.07</ele>
      </trkpt>
      <trkpt lat="10.36903" lon="123.86003">
        <ele>614.62</ele>
      </trkpt>
      <trkpt lat="10.36888" lon="123.86005">
        <ele>614.15</ele>
      </trkpt>
      <trkpt lat="10.36872" lon="123.86008">
        <ele>613.68</ele>
      </trkpt>
      <trkpt lat="10.36863" lon="123.86012">
        <ele>613.5</ele>
      </trkpt>
      <trkpt lat="10.3686" lon="123.86016">
        <ele>613.54</ele>
      </trkpt>
      <trkpt lat="10.36858" lon="123.8603">
        <ele>614.05</ele>
      </trkpt>
      <trkpt lat="10.36859" lon="123.86048">
        <ele>615.38</ele>
      </trkpt>
      <trkpt lat="10.36859" lon="123.8606">
        <ele>616.08</ele>
      </trkpt>
      <trkpt lat="10.36857" lon="123.86072">
        <ele>616.44</ele>
      </trkpt>
      <trkpt lat="10.36846" lon="123.86081">
        <ele>616.37</ele>
      </trkpt>
      <trkpt lat="10.36836" lon="123.86088">
        <ele>615.41</ele>
      </trkpt>
      <trkpt lat="10.36826" lon="123.86097">
        <ele>614.43</ele>
      </trkpt>
      <trkpt lat="10.36818" lon="123.86101">
        <ele>614.21</ele>
      </trkpt>
      <trkpt lat="10.36812" lon="123.86102">
        <ele>614.33</ele>
      </trkpt>
      <trkpt lat="10.36806" lon="123.86101">
        <ele>614.8</ele>
      </trkpt>
      <trkpt lat="10.3679" lon="123.86096">
        <ele>617.14</ele>
      </trkpt>
      <trkpt lat="10.36776" lon="123.86091">
        <ele>619.45</ele>
      </trkpt>
      <trkpt lat="10.36761" lon="123.86085">
        <ele>621.81</ele>
      </trkpt>
      <trkpt lat="10.36747" lon="123.8608">
        <ele>622.99</ele>
      </trkpt>
      <trkpt lat="10.36733" lon="123.86077">
        <ele>620.89</ele>
      </trkpt>
      <trkpt lat="10.36715" lon="123.86075">
        <ele>618.07</ele>
      </trkpt>
      <trkpt lat="10.36696" lon="123.8607">
        <ele>616.54</ele>
      </trkpt>
      <trkpt lat="10.3668" lon="123.86064">
        <ele>616.62</ele>
      </trkpt>
      <trkpt lat="10.36662" lon="123.86059">
        <ele>616.65</ele>
      </trkpt>
      <trkpt lat="10.36642" lon="123.86058">
        <ele>614.45</ele>
      </trkpt>
      <trkpt lat="10.36625" lon="123.86059">
        <ele>612.2</ele>
      </trkpt>
      <trkpt lat="10.36611" lon="123.86057">
        <ele>611.46</ele>
      </trkpt>
      <trkpt lat="10.36599" lon="123.86055">
        <ele>610.43</ele>
      </trkpt>
      <trkpt lat="10.36587" lon="123.86052">
        <ele>609.57</ele>
      </trkpt>
      <trkpt lat="10.36578" lon="123.86048">
        <ele>608.78</ele>
      </trkpt>
      <trkpt lat="10.36566" lon="123.86043">
        <ele>606.97</ele>
      </trkpt>
      <trkpt lat="10.36556" lon="123.86039">
        <ele>605.29</ele>
      </trkpt>
      <trkpt lat="10.36545" lon="123.86038">
        <ele>602.76</ele>
      </trkpt>
      <trkpt lat="10.36543" lon="123.8603">
        <ele>604.28</ele>
      </trkpt>
      <trkpt lat="10.36541" lon="123.86024">
        <ele>605.21</ele>
      </trkpt>
      <trkpt lat="10.36541" lon="123.86024">
        <ele>605.21</ele>
      </trkpt>
      <trkpt lat="10.3654" lon="123.8602">
        <ele>605.88</ele>
      </trkpt>
      <trkpt lat="10.36537" lon="123.86006">
        <ele>608.29</ele>
      </trkpt>
      <trkpt lat="10.36534" lon="123.85984">
        <ele>611.1</ele>
      </trkpt>
      <trkpt lat="10.36531" lon="123.85974">
        <ele>611.67</ele>
      </trkpt>
      <trkpt lat="10.36529" lon="123.85963">
        <ele>612.68</ele>
      </trkpt>
      <trkpt lat="10.36532" lon="123.85957">
        <ele>614.41</ele>
      </trkpt>
      <trkpt lat="10.36539" lon="123.85951">
        <ele>617.29</ele>
      </trkpt>
      <trkpt lat="10.36548" lon="123.85945">
        <ele>620.74</ele>
      </trkpt>
      <trkpt lat="10.36551" lon="123.85937">
        <ele>622.76</ele>
      </trkpt>
      <trkpt lat="10.36552" lon="123.85928">
        <ele>624.34</ele>
      </trkpt>
      <trkpt lat="10.36551" lon="123.8592">
        <ele>625.21</ele>
      </trkpt>
      <trkpt lat="10.36551" lon="123.85912">
        <ele>626.22</ele>
      </trkpt>
      <trkpt lat="10.36553" lon="123.85906">
        <ele>627.45</ele>
      </trkpt>
      <trkpt lat="10.36561" lon="123.85902">
        <ele>630.14</ele>
      </trkpt>
      <trkpt lat="10.36571" lon="123.859">
        <ele>633.14</ele>
      </trkpt>
      <trkpt lat="10.36583" lon="123.85898">
        <ele>636.58</ele>
      </trkpt>
      <trkpt lat="10.36591" lon="123.85894">
        <ele>639.02</ele>
      </trkpt>
      <trkpt lat="10.36598" lon="123.8589">
        <ele>641.18</ele>
      </trkpt>
      <trkpt lat="10.36602" lon="123.85878">
        <ele>642.38</ele>
      </trkpt>
      <trkpt lat="10.36604" lon="123.85871">
        <ele>642.95</ele>
      </trkpt>
      <trkpt lat="10.3661" lon="123.85865">
        <ele>644.68</ele>
      </trkpt>
      <trkpt lat="10.36615" lon="123.85861">
        <ele>646.12</ele>
      </trkpt>
      <trkpt lat="10.36621" lon="123.85861">
        <ele>647.85</ele>
      </trkpt>
      <trkpt lat="10.36631" lon="123.8586">
        <ele>650.73</ele>
      </trkpt>
      <trkpt lat="10.36637" lon="123.85859">
        <ele>652.46</ele>
      </trkpt>
      <trkpt lat="10.36639" lon="123.85855">
        <ele>653.03</ele>
      </trkpt>
      <trkpt lat="10.36642" lon="123.85849">
        <ele>653.78</ele>
      </trkpt>
      <trkpt lat="10.36643" lon="123.8584">
        <ele>654.04</ele>
      </trkpt>
      <trkpt lat="10.36644" lon="123.85832">
        <ele>654.17</ele>
      </trkpt>
      <trkpt lat="10.36645" lon="123.85821">
        <ele>653.36</ele>
      </trkpt>
      <trkpt lat="10.36644" lon="123.85812">
        <ele>652.33</ele>
      </trkpt>
      <trkpt lat="10.3664" lon="123.85806">
        <ele>651.19</ele>
      </trkpt>
      <trkpt lat="10.36631" lon="123.85799">
        <ele>649.59</ele>
      </trkpt>
      <trkpt lat="10.36625" lon="123.85784">
        <ele>648.61</ele>
      </trkpt>
      <trkpt lat="10.36612" lon="123.85744">
        <ele>649.39</ele>
      </trkpt>
      <trkpt lat="10.36602" lon="123.8572">
        <ele>652.14</ele>
      </trkpt>
      <trkpt lat="10.36592" lon="123.85696">
        <ele>654.95</ele>
      </trkpt>
      <trkpt lat="10.36575" lon="123.85672">
        <ele>660.22</ele>
      </trkpt>
      <trkpt lat="10.36565" lon="123.85661">
        <ele>663.64</ele>
      </trkpt>
      <trkpt lat="10.36547" lon="123.85645">
        <ele>669.12</ele>
      </trkpt>
      <trkpt lat="10.36538" lon="123.85632">
        <ele>672.78</ele>
      </trkpt>
      <trkpt lat="10.36532" lon="123.85623">
        <ele>675.38</ele>
      </trkpt>
      <trkpt lat="10.36519" lon="123.85612">
        <ele>679.77</ele>
      </trkpt>
      <trkpt lat="10.36507" lon="123.85605">
        <ele>683.37</ele>
      </trkpt>
      <trkpt lat="10.36502" lon="123.856">
        <ele>685.17</ele>
      </trkpt>
      <trkpt lat="10.36497" lon="123.85591">
        <ele>686.08</ele>
      </trkpt>
      <trkpt lat="10.36493" lon="123.85578">
        <ele>688.16</ele>
      </trkpt>
      <trkpt lat="10.36493" lon="123.85563">
        <ele>693.56</ele>
      </trkpt>
      <trkpt lat="10.36497" lon="123.8555">
        <ele>698.72</ele>
      </trkpt>
      <trkpt lat="10.36499" lon="123.85543">
        <ele>701.44</ele>
      </trkpt>
      <trkpt lat="10.36498" lon="123.85538">
        <ele>703.2</ele>
      </trkpt>
      <trkpt lat="10.36494" lon="123.85531">
        <ele>705.57</ele>
      </trkpt>
      <trkpt lat="10.36485" lon="123.85529">
        <ele>705.97</ele>
      </trkpt>
      <trkpt lat="10.36475" lon="123.85528">
        <ele>706.01</ele>
      </trkpt>
      <trkpt lat="10.36468" lon="123.85525">
        <ele>707.33</ele>
      </trkpt>
      <trkpt lat="10.36462" lon="123.85521">
        <ele>709.35</ele>
      </trkpt>
      <trkpt lat="10.36458" lon="123.85515">
        <ele>712.45</ele>
      </trkpt>
      <trkpt lat="10.36463" lon="123.85506">
        <ele>716.71</ele>
      </trkpt>
      <trkpt lat="10.36477" lon="123.85494">
        <ele>718.77</ele>
      </trkpt>
      <trkpt lat="10.36487" lon="123.85484">
        <ele>718.59</ele>
      </trkpt>
      <trkpt lat="10.36494" lon="123.85475">
        <ele>718.96</ele>
      </trkpt>
      <trkpt lat="10.36499" lon="123.85463">
        <ele>719.7</ele>
      </trkpt>
      <trkpt lat="10.36505" lon="123.85439">
        <ele>719.54</ele>
      </trkpt>
      <trkpt lat="10.36508" lon="123.85424">
        <ele>719.62</ele>
      </trkpt>
      <trkpt lat="10.36506" lon="123.85406">
        <ele>719.22</ele>
      </trkpt>
      <trkpt lat="10.36495" lon="123.85396">
        <ele>719.4</ele>
      </trkpt>
      <trkpt lat="10.3649" lon="123.85389">
        <ele>717.67</ele>
      </trkpt>
      <trkpt lat="10.36486" lon="123.85384">
        <ele>716.35</ele>
      </trkpt>
      <trkpt lat="10.36479" lon="123.85377">
        <ele>714.57</ele>
      </trkpt>
      <trkpt lat="10.3647" lon="123.85375">
        <ele>714.0</ele>
      </trkpt>
      <trkpt lat="10.3646" lon="123.85376">
        <ele>714.22</ele>
      </trkpt>
      <trkpt lat="10.36451" lon="123.85379">
        <ele>714.86</ele>
      </trkpt>
      <trkpt lat="10.36444" lon="123.85383">
        <ele>715.73</ele>
      </trkpt>
      <trkpt lat="10.36438" lon="123.85394">
        <ele>718.1</ele>
      </trkpt>
      <trkpt lat="10.36435" lon="123.85409">
        <ele>721.34</ele>
      </trkpt>
      <trkpt lat="10.36433" lon="123.85415">
        <ele>722.64</ele>
      </trkpt>
      <trkpt lat="10.36429" lon="123.85416">
        <ele>722.86</ele>
      </trkpt>
      <trkpt lat="10.36415" lon="123.85414">
        <ele>722.13</ele>
      </trkpt>
      <trkpt lat="10.36405" lon="123.85412">
        <ele>719.96</ele>
      </trkpt>
      <trkpt lat="10.36391" lon="123.8541">
        <ele>717.16</ele>
      </trkpt>
      <trkpt lat="10.36384" lon="123.85408">
        <ele>715.55</ele>
      </trkpt>
      <trkpt lat="10.36378" lon="123.85398">
        <ele>713.08</ele>
      </trkpt>
      <trkpt lat="10.36375" lon="123.85387">
        <ele>711.26</ele>
      </trkpt>
      <trkpt lat="10.36379" lon="123.8537">
        <ele>709.45</ele>
      </trkpt>
      <trkpt lat="10.36381" lon="123.85357">
        <ele>707.88</ele>
      </trkpt>
      <trkpt lat="10.36382" lon="123.8534">
        <ele>705.65</ele>
      </trkpt>
      <trkpt lat="10.36384" lon="123.85334">
        <ele>704.92</ele>
      </trkpt>
      <trkpt lat="10.36384" lon="123.85334">
        <ele>704.92</ele>
      </trkpt>
      <trkpt lat="10.36387" lon="123.85327">
        <ele>704.66</ele>
      </trkpt>
      <trkpt lat="10.36412" lon="123.85297">
        <ele>708.93</ele>
      </trkpt>
      <trkpt lat="10.36425" lon="123.8528">
        <ele>710.31</ele>
      </trkpt>
      <trkpt lat="10.36427" lon="123.85267">
        <ele>711.11</ele>
      </trkpt>
      <trkpt lat="10.36419" lon="123.85225">
        <ele>712.62</ele>
      </trkpt>
      <trkpt lat="10.36413" lon="123.85207">
        <ele>709.71</ele>
      </trkpt>
      <trkpt lat="10.36403" lon="123.85196">
        <ele>705.7</ele>
      </trkpt>
      <trkpt lat="10.36364" lon="123.85143">
        <ele>696.21</ele>
      </trkpt>
      <trkpt lat="10.36333" lon="123.85098">
        <ele>702.82</ele>
      </trkpt>
      <trkpt lat="10.36339" lon="123.85109">
        <ele>700.02</ele>
      </trkpt>
      <trkpt lat="10.36344" lon="123.85133">
        <ele>696.57</ele>
      </trkpt>
      <trkpt lat="10.36348" lon="123.85162">
        <ele>694.87</ele>
      </trkpt>
      <trkpt lat="10.3632" lon="123.85176">
        <ele>685.04</ele>
      </trkpt>
      <trkpt lat="10.36298" lon="123.85187">
        <ele>675.67</ele>
      </trkpt>
      <trkpt lat="10.36275" lon="123.85203">
        <ele>667.09</ele>
      </trkpt>
      <trkpt lat="10.36257" lon="123.85201">
        <ele>661.05</ele>
      </trkpt>
      <trkpt lat="10.36241" lon="123.85193">
        <ele>654.32</ele>
      </trkpt>
      <trkpt lat="10.36224" lon="123.85186">
        <ele>646.81</ele>
      </trkpt>
      <trkpt lat="10.362" lon="123.85184">
        <ele>636.27</ele>
      </trkpt>
      <trkpt lat="10.36182" lon="123.85182">
        <ele>628.28</ele>
      </trkpt>
      <trkpt lat="10.36173" lon="123.85194">
        <ele>625.69</ele>
      </trkpt>
      <trkpt lat="10.3616" lon="123.85189">
        <ele>620.25</ele>
      </trkpt>
      <trkpt lat="10.36144" lon="123.8517">
        <ele>615.79</ele>
      </trkpt>
      <trkpt lat="10.36137" lon="123.85175">
        <ele>613.91</ele>
      </trkpt>
      <trkpt lat="10.36135" lon="123.85187">
        <ele>612.29</ele>
      </trkpt>
      <trkpt lat="10.36124" lon="123.85194">
        <ele>607.71</ele>
      </trkpt>
      <trkpt lat="10.36086" lon="123.85214">
        <ele>586.55</ele>
      </trkpt>
      <trkpt lat="10.36058" lon="123.85241">
        <ele>570.59</ele>
      </trkpt>
      <trkpt lat="10.36051" lon="123.85243">
        <ele>568.37</ele>
      </trkpt>
      <trkpt lat="10.36046" lon="123.8524">
        <ele>568.86</ele>
      </trkpt>
      <trkpt lat="10.36042" lon="123.85238">
        <ele>569.11</ele>
      </trkpt>
      <trkpt lat="10.3603" lon="123.85244">
        <ele>563.69</ele>
      </trkpt>
      <trkpt lat="10.36" lon="123.85251">
        <ele>554.6</ele>
      </trkpt>
      <trkpt lat="10.35992" lon="123.8525">
        <ele>555.0</ele>
      </trkpt>
      <trkpt lat="10.36" lon="123.85251">
        <ele>554.6</ele>
      </trkpt>
      <trkpt lat="10.3603" lon="123.85244">
        <ele>563.69</ele>
      </trkpt>
      <trkpt lat="10.36042" lon="123.85238">
        <ele>569.11</ele>
      </trkpt>
      <trkpt lat="10.36046" lon="123.8524">
        <ele>568.86</ele>
      </trkpt>
      <trkpt lat="10.36051" lon="123.85243">
        <ele>568.37</ele>
      </trkpt>
      <trkpt lat="10.36058" lon="123.85241">
        <ele>570.59</ele>
      </trkpt>
      <trkpt lat="10.36086" lon="123.85214">
        <ele>586.55</ele>
      </trkpt>
      <trkpt lat="10.36124" lon="123.85194">
        <ele>607.71</ele>
      </trkpt>
      <trkpt lat="10.36135" lon="123.85187">
        <ele>612.29</ele>
      </trkpt>
      <trkpt lat="10.36137" lon="123.85175">
        <ele>613.91</ele>
      </trkpt>
      <trkpt lat="10.36144" lon="123.8517">
        <ele>615.79</ele>
      </trkpt>
      <trkpt lat="10.3616" lon="123.85189">
        <ele>620.25</ele>
      </trkpt>
      <trkpt lat="10.36173" lon="123.85194">
        <ele>625.69</ele>
      </trkpt>
      <trkpt lat="10.36182" lon="123.85182">
        <ele>628.28</ele>
      </trkpt>
      <trkpt lat="10.362" lon="123.85184">
        <ele>636.27</ele>
      </trkpt>
      <trkpt lat="10.36224" lon="123.85186">
        <ele>646.81</ele>
      </trkpt>
      <trkpt lat="10.36241" lon="123.85193">
        <ele>654.32</ele>
      </trkpt>
      <trkpt lat="10.36257" lon="123.85201">
        <ele>661.05</ele>
      </trkpt>
      <trkpt lat="10.36275" lon="123.85203">
        <ele>667.09</ele>
      </trkpt>
      <trkpt lat="10.36298" lon="123.85187">
        <ele>675.67</ele>
      </trkpt>
      <trkpt lat="10.3632" lon="123.85176">
        <ele>685.04</ele>
      </trkpt>
      <trkpt lat="10.36348" lon="123.85162">
        <ele>694.87</ele>
      </trkpt>
      <trkpt lat="10.36344" lon="123.85133">
        <ele>696.57</ele>
      </trkpt>
      <trkpt lat="10.36339" lon="123.85109">
        <ele>700.02</ele>
      </trkpt>
      <trkpt lat="10.36333" lon="123.85098">
        <ele>702.82</ele>
      </trkpt>
      <trkpt lat="10.36364" lon="123.85143">
        <ele>696.21</ele>
      </trkpt>
      <trkpt lat="10.36403" lon="123.85196">
        <ele>705.7</ele>
      </trkpt>
      <trkpt lat="10.36413" lon="123.85207">
        <ele>709.71</ele>
      </trkpt>
      <trkpt lat="10.36419" lon="123.85225">
        <ele>712.62</ele>
      </trkpt>
      <trkpt lat="10.36427" lon="123.85267">
        <ele>711.11</ele>
      </trkpt>
      <trkpt lat="10.36425" lon="123.8528">
        <ele>710.31</ele>
      </trkpt>
      <trkpt lat="10.36412" lon="123.85297">
        <ele>708.93</ele>
      </trkpt>
      <trkpt lat="10.36387" lon="123.85327">
        <ele>704.66</ele>
      </trkpt>
      <trkpt lat="10.36384" lon="123.85334">
        <ele>704.92</ele>
      </trkpt>
      <trkpt lat="10.36384" lon="123.85334">
        <ele>704.92</ele>
      </trkpt>
      <trkpt lat="10.36382" lon="123.8534">
        <ele>705.65</ele>
      </trkpt>
      <trkpt lat="10.36381" lon="123.85357">
        <ele>707.88</ele>
      </trkpt>
      <trkpt lat="10.36379" lon="123.8537">
        <ele>709.45</ele>
      </trkpt>
      <trkpt lat="10.36375" lon="123.85387">
        <ele>711.26</ele>
      </trkpt>
      <trkpt lat="10.36378" lon="123.85398">
        <ele>713.08</ele>
      </trkpt>
      <trkpt lat="10.36384" lon="123.85408">
        <ele>715.55</ele>
      </trkpt>
      <trkpt lat="10.36391" lon="123.8541">
        <ele>717.16</ele>
      </trkpt>
      <trkpt lat="10.36405" lon="123.85412">
        <ele>719.96</ele>
      </trkpt>
      <trkpt lat="10.36415" lon="123.85414">
        <ele>722.13</ele>
      </trkpt>
      <trkpt lat="10.36429" lon="123.85416">
        <ele>722.86</ele>
      </trkpt>
      <trkpt lat="10.36433" lon="123.85415">
        <ele>722.64</ele>
      </trkpt>
      <trkpt lat="10.36435" lon="123.85409">
        <ele>721.34</ele>
      </trkpt>
      <trkpt lat="10.36438" lon="123.85394">
        <ele>718.1</ele>
      </trkpt>
      <trkpt lat="10.36444" lon="123.85383">
        <ele>715.73</ele>
      </trkpt>
      <trkpt lat="10.36451" lon="123.85379">
        <ele>714.86</ele>
      </trkpt>
      <trkpt lat="10.3646" lon="123.85376">
        <ele>714.22</ele>
      </trkpt>
      <trkpt lat="10.3647" lon="123.85375">
        <ele>714.0</ele>
      </trkpt>
      <trkpt lat="10.36479" lon="123.85377">
        <ele>714.57</ele>
      </trkpt>
      <trkpt lat="10.36486" lon="123.85384">
        <ele>716.35</ele>
      </trkpt>
      <trkpt lat="10.3649" lon="123.85389">
        <ele>717.67</ele>
      </trkpt>
      <trkpt lat="10.36495" lon="123.85396">
        <ele>719.4</ele>
      </trkpt>
      <trkpt lat="10.36506" lon="123.85406">
        <ele>719.22</ele>
      </trkpt>
      <trkpt lat="10.36508" lon="123.85424">
        <ele>719.62</ele>
      </trkpt>
      <trkpt lat="10.36505" lon="123.85439">
        <ele>719.54</ele>
      </trkpt>
      <trkpt lat="10.36499" lon="123.85463">
        <ele>719.7</ele>
      </trkpt>
      <trkpt lat="10.36494" lon="123.85475">
        <ele>718.96</ele>
      </trkpt>
      <trkpt lat="10.36487" lon="123.85484">
        <ele>718.59</ele>
      </trkpt>
      <trkpt lat="10.36477" lon="123.85494">
        <ele>718.77</ele>
      </trkpt>
      <trkpt lat="10.36463" lon="123.85506">
        <ele>716.71</ele>
      </trkpt>
      <trkpt lat="10.36458" lon="123.85515">
        <ele>712.45</ele>
      </trkpt>
      <trkpt lat="10.36462" lon="123.85521">
        <ele>709.35</ele>
      </trkpt>
      <trkpt lat="10.36468" lon="123.85525">
        <ele>707.33</ele>
      </trkpt>
      <trkpt lat="10.36475" lon="123.85528">
        <ele>706.01</ele>
      </trkpt>
      <trkpt lat="10.36485" lon="123.85529">
        <ele>705.97</ele>
      </trkpt>
      <trkpt lat="10.36494" lon="123.85531">
        <ele>705.57</ele>
      </trkpt>
      <trkpt lat="10.36498" lon="123.85538">
        <ele>703.2</ele>
      </trkpt>
      <trkpt lat="10.36499" lon="123.85543">
        <ele>701.44</ele>
      </trkpt>
      <trkpt lat="10.36497" lon="123.8555">
        <ele>698.72</ele>
      </trkpt>
      <trkpt lat="10.36493" lon="123.85563">
        <ele>693.56</ele>
      </trkpt>
      <trkpt lat="10.36493" lon="123.85578">
        <ele>688.16</ele>
      </trkpt>
      <trkpt lat="10.36497" lon="123.85591">
        <ele>686.08</ele>
      </trkpt>
      <trkpt lat="10.36502" lon="123.856">
        <ele>685.17</ele>
      </trkpt>
      <trkpt lat="10.36507" lon="123.85605">
        <ele>683.37</ele>
      </trkpt>
      <trkpt lat="10.36519" lon="123.85612">
        <ele>679.77</ele>
      </trkpt>
      <trkpt lat="10.36532" lon="123.85623">
        <ele>675.38</ele>
      </trkpt>
      <trkpt lat="10.36538" lon="123.85632">
        <ele>672.78</ele>
      </trkpt>
      <trkpt lat="10.36547" lon="123.85645">
        <ele>669.12</ele>
      </trkpt>
      <trkpt lat="10.36565" lon="123.85661">
        <ele>663.64</ele>
      </trkpt>
      <trkpt lat="10.36575" lon="123.85672">
        <ele>660.22</ele>
      </trkpt>
      <trkpt lat="10.36592" lon="123.85696">
        <ele>654.95</ele>
      </trkpt>
      <trkpt lat="10.36602" lon="123.8572">
        <ele>652.14</ele>
      </trkpt>
      <trkpt lat="10.36612" lon="123.85744">
        <ele>649.39</ele>
      </trkpt>
      <trkpt lat="10.36625" lon="123.85784">
        <ele>648.61</ele>
      </trkpt>
      <trkpt lat="10.36631" lon="123.85799">
        <ele>649.59</ele>
      </trkpt>
      <trkpt lat="10.3664" lon="123.85806">
        <ele>651.19</ele>
      </trkpt>
      <trkpt lat="10.36644" lon="123.85812">
        <ele>652.33</ele>
      </trkpt>
      <trkpt lat="10.36645" lon="123.85821">
        <ele>653.36</ele>
      </trkpt>
      <trkpt lat="10.36644" lon="123.85832">
        <ele>654.17</ele>
      </trkpt>
      <trkpt lat="10.36643" lon="123.8584">
        <ele>654.04</ele>
      </trkpt>
      <trkpt lat="10.36642" lon="123.85849">
        <ele>653.78</ele>
      </trkpt>
      <trkpt lat="10.36639" lon="123.85855">
        <ele>653.03</ele>
      </trkpt>
      <trkpt lat="10.36637" lon="123.85859">
        <ele>652.46</ele>
      </trkpt>
      <trkpt lat="10.36631" lon="123.8586">
        <ele>650.73</ele>
      </trkpt>
      <trkpt lat="10.36621" lon="123.85861">
        <ele>647.85</ele>
      </trkpt>
      <trkpt lat="10.36615" lon="123.85861">
        <ele>646.12</ele>
      </trkpt>
      <trkpt lat="10.3661" lon="123.85865">
        <ele>644.68</ele>
      </trkpt>
      <trkpt lat="10.36604" lon="123.85871">
        <ele>642.95</ele>
      </trkpt>
      <trkpt lat="10.36602" lon="123.85878">
        <ele>642.38</ele>
      </trkpt>
      <trkpt lat="10.36598" lon="123.8589">
        <ele>641.18</ele>
      </trkpt>
      <trkpt lat="10.36591" lon="123.85894">
        <ele>639.02</ele>
      </trkpt>
      <trkpt lat="10.36583" lon="123.85898">
        <ele>636.58</ele>
      </trkpt>
      <trkpt lat="10.36571" lon="123.859">
        <ele>633.14</ele>
      </trkpt>
      <trkpt lat="10.36561" lon="123.85902">
        <ele>630.14</ele>
      </trkpt>
      <trkpt lat="10.36553" lon="123.85906">
        <ele>627.45</ele>
      </trkpt>
      <trkpt lat="10.36551" lon="123.85912">
        <ele>626.22</ele>
      </trkpt>
      <trkpt lat="10.36551" lon="123.8592">
        <ele>625.21</ele>
      </trkpt>
      <trkpt lat="10.36552" lon="123.85928">
        <ele>624.34</ele>
      </trkpt>
      <trkpt lat="10.36551" lon="123.85937">
        <ele>622.76</ele>
      </trkpt>
      <trkpt lat="10.36548" lon="123.85945">
        <ele>620.74</ele>
      </trkpt>
      <trkpt lat="10.36539" lon="123.85951">
        <ele>617.29</ele>
      </trkpt>
      <trkpt lat="10.36532" lon="123.85957">
        <ele>614.41</ele>
      </trkpt>
      <trkpt lat="10.36529" lon="123.85963">
        <ele>612.68</ele>
      </trkpt>
      <trkpt lat="10.36531" lon="123.85974">
        <ele>611.67</ele>
      </trkpt>
      <trkpt lat="10.36534" lon="123.85984">
        <ele>611.1</ele>
      </trkpt>
      <trkpt lat="10.36537" lon="123.86006">
        <ele>608.29</ele>
      </trkpt>
      <trkpt lat="10.3654" lon="123.8602">
        <ele>605.88</ele>
      </trkpt>
      <trkpt lat="10.36541" lon="123.86024">
        <ele>605.21</ele>
      </trkpt>
      <trkpt lat="10.36541" lon="123.86024">
        <ele>605.21</ele>
      </trkpt>
      <trkpt lat="10.36543" lon="123.8603">
        <ele>604.28</ele>
      </trkpt>
      <trkpt lat="10.36545" lon="123.86038">
        <ele>602.76</ele>
      </trkpt>
      <trkpt lat="10.36556" lon="123.86039">
        <ele>605.29</ele>
      </trkpt>
      <trkpt lat="10.36566" lon="123.86043">
        <ele>606.97</ele>
      </trkpt>
      <trkpt lat="10.36578" lon="123.86048">
        <ele>608.78</ele>
      </trkpt>
      <trkpt lat="10.36587" lon="123.86052">
        <ele>609.57</ele>
      </trkpt>
      <trkpt lat="10.36599" lon="123.86055">
        <ele>610.43</ele>
      </trkpt>
      <trkpt lat="10.36611" lon="123.86057">
        <ele>611.46</ele>
      </trkpt>
      <trkpt lat="10.36625" lon="123.86059">
        <ele>612.2</ele>
      </trkpt>
      <trkpt lat="10.36642" lon="123.86058">
        <ele>614.45</ele>
      </trkpt>
      <trkpt lat="10.36662" lon="123.86059">
        <ele>616.65</ele>
      </trkpt>
      <trkpt lat="10.3668" lon="123.86064">
        <ele>616.62</ele>
      </trkpt>
      <trkpt lat="10.36696" lon="123.8607">
        <ele>616.54</ele>
      </trkpt>
      <trkpt lat="10.36715" lon="123.86075">
        <ele>618.07</ele>
      </trkpt>
      <trkpt lat="10.36733" lon="123.86077">
        <ele>620.89</ele>
      </trkpt>
      <trkpt lat="10.36747" lon="123.8608">
        <ele>622.99</ele>
      </trkpt>
      <trkpt lat="10.36761" lon="123.86085">
        <ele>621.81</ele>
      </trkpt>
      <trkpt lat="10.36776" lon="123.86091">
        <ele>619.45</ele>
      </trkpt>
      <trkpt lat="10.3679" lon="123.86096">
        <ele>617.14</ele>
      </trkpt>
      <trkpt lat="10.36806" lon="123.86101">
        <ele>614.8</ele>
      </trkpt>
      <trkpt lat="10.36812" lon="123.86102">
        <ele>614.33</ele>
      </trkpt>
      <trkpt lat="10.36818" lon="123.86101">
        <ele>614.21</ele>
      </trkpt>
      <trkpt lat="10.36826" lon="123.86097">
        <ele>614.43</ele>
      </trkpt>
      <trkpt lat="10.36836" lon="123.86088">
        <ele>615.41</ele>
      </trkpt>
      <trkpt lat="10.36846" lon="123.86081">
        <ele>616.37</ele>
      </trkpt>
      <trkpt lat="10.36857" lon="123.86072">
        <ele>616.44</ele>
      </trkpt>
      <trkpt lat="10.36859" lon="123.8606">
        <ele>616.08</ele>
      </trkpt>
      <trkpt lat="10.36859" lon="123.86048">
        <ele>615.38</ele>
      </trkpt>
      <trkpt lat="10.36858" lon="123.8603">
        <ele>614.05</ele>
      </trkpt>
      <trkpt lat="10.3686" lon="123.86016">
        <ele>613.54</ele>
      </trkpt>
      <trkpt lat="10.36863" lon="123.86012">
        <ele>613.5</ele>
      </trkpt>
      <trkpt lat="10.36872" lon="123.86008">
        <ele>613.68</ele>
      </trkpt>
      <trkpt lat="10.36888" lon="123.86005">
        <ele>614.15</ele>
      </trkpt>
      <trkpt lat="10.36903" lon="123.86003">
        <ele>614.62</ele>
      </trkpt>
      <trkpt lat="10.36918" lon="123.86002">
        <ele>615.07</ele>
      </trkpt>
      <trkpt lat="10.36931" lon="123.86001">
        <ele>615.02</ele>
      </trkpt>
      <trkpt lat="10.36941" lon="123.86002">
        <ele>615.01</ele>
      </trkpt>
      <trkpt lat="10.36955" lon="123.86004">
        <ele>614.62</ele>
      </trkpt>
      <trkpt lat="10.36961" lon="123.86005">
        <ele>614.4</ele>
      </trkpt>
      <trkpt lat="10.36969" lon="123.86004">
        <ele>614.12</ele>
      </trkpt>
      <trkpt lat="10.36977" lon="123.86002">
        <ele>613.99</ele>
      </trkpt>
      <trkpt lat="10.36988" lon="123.85997">
        <ele>614.54</ele>
      </trkpt>
      <trkpt lat="10.36995" lon="123.85998">
        <ele>614.36</ele>
      </trkpt>
      <trkpt lat="10.37002" lon="123.86">
        <ele>613.57</ele>
      </trkpt>
      <trkpt lat="10.3701" lon="123.86005">
        <ele>611.79</ele>
      </trkpt>
      <trkpt lat="10.37021" lon="123.86006">
        <ele>609.57</ele>
      </trkpt>
      <trkpt lat="10.37028" lon="123.86005">
        <ele>608.13</ele>
      </trkpt>
      <trkpt lat="10.37036" lon="123.86002">
        <ele>606.34</ele>
      </trkpt>
      <trkpt lat="10.37051" lon="123.86022">
        <ele>605.1</ele>
      </trkpt>
      <trkpt lat="10.37061" lon="123.86036">
        <ele>605.28</ele>
      </trkpt>
      <trkpt lat="10.37071" lon="123.8605">
        <ele>606.51</ele>
      </trkpt>
      <trkpt lat="10.37093" lon="123.86078">
        <ele>608.6</ele>
      </trkpt>
      <trkpt lat="10.37104" lon="123.86083">
        <ele>606.73</ele>
      </trkpt>
      <trkpt lat="10.37114" lon="123.8609">
        <ele>604.56</ele>
      </trkpt>
      <trkpt lat="10.37137" lon="123.86108">
        <ele>601.02</ele>
      </trkpt>
      <trkpt lat="10.37157" lon="123.86123">
        <ele>598.78</ele>
      </trkpt>
      <trkpt lat="10.37171" lon="123.8614">
        <ele>599.7</ele>
      </trkpt>
      <trkpt lat="10.37172" lon="123.8615">
        <ele>601.18</ele>
      </trkpt>
      <trkpt lat="10.37163" lon="123.86161">
        <ele>603.47</ele>
      </trkpt>
      <trkpt lat="10.37147" lon="123.86175">
        <ele>604.78</ele>
      </trkpt>
      <trkpt lat="10.37136" lon="123.86191">
        <ele>603.38</ele>
      </trkpt>
      <trkpt lat="10.37134" lon="123.86208">
        <ele>601.77</ele>
      </trkpt>
      <trkpt lat="10.37139" lon="123.86226">
        <ele>600.6</ele>
      </trkpt>
      <trkpt lat="10.37153" lon="123.86253">
        <ele>599.78</ele>
      </trkpt>
      <trkpt lat="10.37168" lon="123.8628">
        <ele>593.61</ele>
      </trkpt>
      <trkpt lat="10.3719" lon="123.8631">
        <ele>588.6</ele>
      </trkpt>
      <trkpt lat="10.37218" lon="123.86343">
        <ele>586.11</ele>
      </trkpt>
      <trkpt lat="10.37252" lon="123.86376">
        <ele>578.5</ele>
      </trkpt>
      <trkpt lat="10.37268" lon="123.86388">
        <ele>573.02</ele>
      </trkpt>
      <trkpt lat="10.37289" lon="123.86396">
        <ele>569.29</ele>
      </trkpt>
      <trkpt lat="10.37305" lon="123.86395">
        <ele>569.04</ele>
      </trkpt>
      <trkpt lat="10.37318" lon="123.8639">
        <ele>570.21</ele>
      </trkpt>
      <trkpt lat="10.37333" lon="123.86384">
        <ele>571.42</ele>
      </trkpt>
      <trkpt lat="10.37339" lon="123.86385">
        <ele>571.99</ele>
      </trkpt>
      <trkpt lat="10.37349" lon="123.86388">
        <ele>572.55</ele>
      </trkpt>
      <trkpt lat="10.37358" lon="123.86393">
        <ele>572.24</ele>
      </trkpt>
      <trkpt lat="10.37377" lon="123.86418">
        <ele>566.06</ele>
      </trkpt>
      <trkpt lat="10.37387" lon="123.86434">
        <ele>565.12</ele>
      </trkpt>
      <trkpt lat="10.37397" lon="123.86448">
        <ele>563.63</ele>
      </trkpt>
      <trkpt lat="10.37404" lon="123.86457">
        <ele>562.36</ele>
      </trkpt>
      <trkpt lat="10.37413" lon="123.86463">
        <ele>560.92</ele>
      </trkpt>
      <trkpt lat="10.37429" lon="123.8646">
        <ele>560.7</ele>
      </trkpt>
      <trkpt lat="10.3745" lon="123.86454">
        <ele>561.65</ele>
      </trkpt>
      <trkpt lat="10.37464" lon="123.86452">
        <ele>562.42</ele>
      </trkpt>
      <trkpt lat="10.37471" lon="123.8645">
        <ele>563.17</ele>
      </trkpt>
      <trkpt lat="10.37485" lon="123.86449">
        <ele>563.37</ele>
      </trkpt>
      <trkpt lat="10.37501" lon="123.86449">
        <ele>563.06</ele>
      </trkpt>
      <trkpt lat="10.37522" lon="123.8645">
        <ele>559.79</ele>
      </trkpt>
      <trkpt lat="10.37533" lon="123.8645">
        <ele>558.44</ele>
      </trkpt>
      <trkpt lat="10.37557" lon="123.86447">
        <ele>556.92</ele>
      </trkpt>
      <trkpt lat="10.37571" lon="123.86442">
        <ele>557.21</ele>
      </trkpt>
      <trkpt lat="10.37586" lon="123.86436">
        <ele>556.93</ele>
      </trkpt>
      <trkpt lat="10.37604" lon="123.86424">
        <ele>553.08</ele>
      </trkpt>
      <trkpt lat="10.37625" lon="123.86411">
        <ele>546.61</ele>
      </trkpt>
      <trkpt lat="10.37642" lon="123.86398">
        <ele>540.64</ele>
      </trkpt>
      <trkpt lat="10.37654" lon="123.86387">
        <ele>536.71</ele>
      </trkpt>
      <trkpt lat="10.37662" lon="123.86371">
        <ele>535.48</ele>
      </trkpt>
      <trkpt lat="10.37669" lon="123.86359">
        <ele>535.56</ele>
      </trkpt>
      <trkpt lat="10.37677" lon="123.86352">
        <ele>537.43</ele>
      </trkpt>
      <trkpt lat="10.37686" lon="123.86352">
        <ele>538.4</ele>
      </trkpt>
      <trkpt lat="10.3769" lon="123.86356">
        <ele>538.26</ele>
      </trkpt>
      <trkpt lat="10.37698" lon="123.86388">
        <ele>534.51</ele>
      </trkpt>
      <trkpt lat="10.37702" lon="123.86414">
        <ele>531.2</ele>
      </trkpt>
      <trkpt lat="10.37706" lon="123.86433">
        <ele>529.73</ele>
      </trkpt>
      <trkpt lat="10.37707" lon="123.86444">
        <ele>528.85</ele>
      </trkpt>
      <trkpt lat="10.37708" lon="123.86459">
        <ele>527.64</ele>
      </trkpt>
      <trkpt lat="10.37703" lon="123.8647">
        <ele>525.76</ele>
      </trkpt>
      <trkpt lat="10.37696" lon="123.86482">
        <ele>523.58</ele>
      </trkpt>
      <trkpt lat="10.37697" lon="123.86492">
        <ele>523.04</ele>
      </trkpt>
      <trkpt lat="10.37706" lon="123.86511">
        <ele>520.12</ele>
      </trkpt>
      <trkpt lat="10.37714" lon="123.86525">
        <ele>516.52</ele>
      </trkpt>
      <trkpt lat="10.3772" lon="123.86538">
        <ele>512.92</ele>
      </trkpt>
      <trkpt lat="10.37731" lon="123.86552">
        <ele>509.9</ele>
      </trkpt>
      <trkpt lat="10.37737" lon="123.86564">
        <ele>506.62</ele>
      </trkpt>
      <trkpt lat="10.37741" lon="123.86571">
        <ele>504.82</ele>
      </trkpt>
      <trkpt lat="10.37746" lon="123.86577">
        <ele>503.56</ele>
      </trkpt>
      <trkpt lat="10.37754" lon="123.86582">
        <ele>502.48</ele>
      </trkpt>
      <trkpt lat="10.37761" lon="123.86586">
        <ele>500.91</ele>
      </trkpt>
      <trkpt lat="10.37767" lon="123.86592">
        <ele>498.38</ele>
      </trkpt>
      <trkpt lat="10.37772" lon="123.86599">
        <ele>495.35</ele>
      </trkpt>
      <trkpt lat="10.37775" lon="123.86605">
        <ele>492.72</ele>
      </trkpt>
      <trkpt lat="10.37776" lon="123.86608">
        <ele>491.4</ele>
      </trkpt>
      <trkpt lat="10.37779" lon="123.86612">
        <ele>489.65</ele>
      </trkpt>
      <trkpt lat="10.37781" lon="123.86614">
        <ele>488.84</ele>
      </trkpt>
      <trkpt lat="10.37786" lon="123.86618">
        <ele>487.2</ele>
      </trkpt>
      <trkpt lat="10.37794" lon="123.86619">
        <ele>486.71</ele>
      </trkpt>
      <trkpt lat="10.37804" lon="123.86617">
        <ele>487.47</ele>
      </trkpt>
      <trkpt lat="10.37812" lon="123.86616">
        <ele>487.7</ele>
      </trkpt>
      <trkpt lat="10.37819" lon="123.86615">
        <ele>487.9</ele>
      </trkpt>
      <trkpt lat="10.37826" lon="123.86617">
        <ele>486.88</ele>
      </trkpt>
      <trkpt lat="10.37833" lon="123.8662">
        <ele>485.49</ele>
      </trkpt>
      <trkpt lat="10.37837" lon="123.86625">
        <ele>484.03</ele>
      </trkpt>
      <trkpt lat="10.37841" lon="123.86629">
        <ele>483.02</ele>
      </trkpt>
      <trkpt lat="10.37846" lon="123.86639">
        <ele>479.78</ele>
      </trkpt>
      <trkpt lat="10.3785" lon="123.86647">
        <ele>477.07</ele>
      </trkpt>
      <trkpt lat="10.37856" lon="123.86654">
        <ele>475.18</ele>
      </trkpt>
      <trkpt lat="10.37862" lon="123.86659">
        <ele>474.22</ele>
      </trkpt>
      <trkpt lat="10.37868" lon="123.86662">
        <ele>474.29</ele>
      </trkpt>
      <trkpt lat="10.37875" lon="123.86664">
        <ele>475.01</ele>
      </trkpt>
      <trkpt lat="10.3788" lon="123.86667">
        <ele>474.96</ele>
      </trkpt>
      <trkpt lat="10.37883" lon="123.86672">
        <ele>473.74</ele>
      </trkpt>
      <trkpt lat="10.37887" lon="123.86679">
        <ele>471.8</ele>
      </trkpt>
      <trkpt lat="10.3789" lon="123.86685">
        <ele>469.91</ele>
      </trkpt>
      <trkpt lat="10.37894" lon="123.86689">
        <ele>468.93</ele>
      </trkpt>
      <trkpt lat="10.37898" lon="123.86691">
        <ele>468.72</ele>
      </trkpt>
      <trkpt lat="10.37903" lon="123.86694">
        <ele>468.22</ele>
      </trkpt>
      <trkpt lat="10.37906" lon="123.86696">
        <ele>467.8</ele>
      </trkpt>
      <trkpt lat="10.37909" lon="123.86698">
        <ele>467.34</ele>
      </trkpt>
      <trkpt lat="10.37911" lon="123.867">
        <ele>466.71</ele>
      </trkpt>
      <trkpt lat="10.37911" lon="123.86705">
        <ele>464.48</ele>
      </trkpt>
      <trkpt lat="10.37909" lon="123.86709">
        <ele>462.52</ele>
      </trkpt>
      <trkpt lat="10.37904" lon="123.86711">
        <ele>461.24</ele>
      </trkpt>
      <trkpt lat="10.37897" lon="123.86715">
        <ele>459.12</ele>
      </trkpt>
      <trkpt lat="10.37891" lon="123.86719">
        <ele>457.26</ele>
      </trkpt>
      <trkpt lat="10.37889" lon="123.86724">
        <ele>455.3</ele>
      </trkpt>
      <trkpt lat="10.3789" lon="123.86726">
        <ele>454.54</ele>
      </trkpt>
      <trkpt lat="10.37897" lon="123.8673">
        <ele>453.13</ele>
      </trkpt>
      <trkpt lat="10.37894" lon="123.86734">
        <ele>451.44</ele>
      </trkpt>
      <trkpt lat="10.37883" lon="123.86753">
        <ele>445.15</ele>
      </trkpt>
      <trkpt lat="10.37879" lon="123.86766">
        <ele>445.99</ele>
      </trkpt>
      <trkpt lat="10.37879" lon="123.86784">
        <ele>447.1</ele>
      </trkpt>
      <trkpt lat="10.37885" lon="123.86822">
        <ele>448.32</ele>
      </trkpt>
      <trkpt lat="10.37887" lon="123.86833">
        <ele>448.39</ele>
      </trkpt>
      <trkpt lat="10.37889" lon="123.86841">
        <ele>450.46</ele>
      </trkpt>
      <trkpt lat="10.37896" lon="123.86853">
        <ele>453.02</ele>
      </trkpt>
      <trkpt lat="10.37899" lon="123.86856">
        <ele>453.46</ele>
      </trkpt>
      <trkpt lat="10.37905" lon="123.86862">
        <ele>454.39</ele>
      </trkpt>
      <trkpt lat="10.37921" lon="123.86878">
        <ele>456.35</ele>
      </trkpt>
      <trkpt lat="10.37931" lon="123.86867">
        <ele>450.59</ele>
      </trkpt>
    </trkseg>
  </trk>
</gpx>
