<?xml version="1.0"?>
<gpx xmlns="http://www.topografix.com/GPX/1/1" xmlns:xsi="http://www.w3.org/2001/XMLSchema-instance" version="1.1" creator="AllTrails.com" xsi:schemaLocation="http://www.topografix.com/GPX/1/1 http://www.topografix.com/GPX/1/1/gpx.xsd">
  <metadata>
    <name><![CDATA[Mount Labalasan]]></name>
    <desc><![CDATA[]]></desc>
    <link href="http://www.alltrails.com">
      <text>AllTrails, LLC</text>
    </link>
    <bounds minlat="9.79128" minlon="123.40864" maxlat="9.81949" maxlon="123.44265"/>
  </metadata>
  <trk>
    <name><![CDATA[Mount Labalasan]]></name>
    <src>AllTrails</src>
    <trkseg>
      <trkpt lat="9.79578" lon="123.4088">
        <ele>468.21</ele>
      </trkpt>
      <trkpt lat="9.79579" lon="123.4088">
        <ele>468.21</ele>
      </trkpt>
      <trkpt lat="9.79579" lon="123.4088">
        <ele>468.21</ele>
      </trkpt>
      <trkpt lat="9.79582" lon="123.40864">
        <ele>473.88</ele>
      </trkpt>
      <trkpt lat="9.79609" lon="123.4091">
        <ele>458.4</ele>
      </trkpt>
      <trkpt lat="9.7962" lon="123.40936">
        <ele>460.6</ele>
      </trkpt>
      <trkpt lat="9.79603" lon="123.40968">
        <ele>458.41</ele>
      </trkpt>
      <trkpt lat="9.79588" lon="123.4101">
        <ele>468.32</ele>
      </trkpt>
      <trkpt lat="9.79574" lon="123.41045">
        <ele>478.89</ele>
      </trkpt>
      <trkpt lat="9.79554" lon="123.41081">
        <ele>500.44</ele>
      </trkpt>
      <trkpt lat="9.79543" lon="123.41117">
        <ele>526.58</ele>
      </trkpt>
      <trkpt lat="9.79524" lon="123.41155">
        <ele>534.47</ele>
      </trkpt>
      <trkpt lat="9.79505" lon="123.41175">
        <ele>523.55</ele>
      </trkpt>
      <trkpt lat="9.79513" lon="123.41195">
        <ele>535.43</ele>
      </trkpt>
      <trkpt lat="9.795" lon="123.41187">
        <ele>524.05</ele>
      </trkpt>
      <trkpt lat="9.79472" lon="123.412">
        <ele>514.95</ele>
      </trkpt>
      <trkpt lat="9.79445" lon="123.41217">
        <ele>505.94</ele>
      </trkpt>
      <trkpt lat="9.79451" lon="123.41224">
        <ele>507.76</ele>
      </trkpt>
      <trkpt lat="9.79449" lon="123.4126">
        <ele>515.08</ele>
      </trkpt>
      <trkpt lat="9.79439" lon="123.41277">
        <ele>515.28</ele>
      </trkpt>
      <trkpt lat="9.79409" lon="123.41293">
        <ele>524.6</ele>
      </trkpt>
      <trkpt lat="9.79384" lon="123.41282">
        <ele>531.77</ele>
      </trkpt>
      <trkpt lat="9.79356" lon="123.41286">
        <ele>545.99</ele>
      </trkpt>
      <trkpt lat="9.79335" lon="123.413">
        <ele>558.96</ele>
      </trkpt>
      <trkpt lat="9.79293" lon="123.41325">
        <ele>568.08</ele>
      </trkpt>
      <trkpt lat="9.79259" lon="123.41346">
        <ele>582.81</ele>
      </trkpt>
      <trkpt lat="9.79216" lon="123.41379">
        <ele>592.98</ele>
      </trkpt>
      <trkpt lat="9.79184" lon="123.41403">
        <ele>587.7</ele>
      </trkpt>
      <trkpt lat="9.79169" lon="123.41445">
        <ele>580.06</ele>
      </trkpt>
      <trkpt lat="9.7916" lon="123.41473">
        <ele>579.81</ele>
      </trkpt>
      <trkpt lat="9.79175" lon="123.41499">
        <ele>583.75</ele>
      </trkpt>
      <trkpt lat="9.79191" lon="123.41559">
        <ele>602.45</ele>
      </trkpt>
      <trkpt lat="9.79203" lon="123.41607">
        <ele>622.06</ele>
      </trkpt>
      <trkpt lat="9.79213" lon="123.41641">
        <ele>636.9</ele>
      </trkpt>
      <trkpt lat="9.79223" lon="123.41659">
        <ele>647.79</ele>
      </trkpt>
      <trkpt lat="9.79231" lon="123.41674">
        <ele>654.43</ele>
      </trkpt>
      <trkpt lat="9.79229" lon="123.4169">
        <ele>652.31</ele>
      </trkpt>
      <trkpt lat="9.79221" lon="123.41705">
        <ele>651.08</ele>
      </trkpt>
      <trkpt lat="9.79233" lon="123.41713">
        <ele>654.85</ele>
      </trkpt>
      <trkpt lat="9.79222" lon="123.41746">
        <ele>666.71</ele>
      </trkpt>
      <trkpt lat="9.79217" lon="123.41771">
        <ele>675.52</ele>
      </trkpt>
      <trkpt lat="9.7922" lon="123.41792">
        <ele>680.31</ele>
      </trkpt>
      <trkpt lat="9.79228" lon="123.41824">
        <ele>695.33</ele>
      </trkpt>
      <trkpt lat="9.79249" lon="123.41853">
        <ele>718.54</ele>
      </trkpt>
      <trkpt lat="9.79267" lon="123.41879">
        <ele>720.86</ele>
      </trkpt>
      <trkpt lat="9.79267" lon="123.4189">
        <ele>720.84</ele>
      </trkpt>
      <trkpt lat="9.79268" lon="123.41904">
        <ele>719.48</ele>
      </trkpt>
      <trkpt lat="9.79272" lon="123.41932">
        <ele>717.72</ele>
      </trkpt>
      <trkpt lat="9.79297" lon="123.41954">
        <ele>717.81</ele>
      </trkpt>
      <trkpt lat="9.79307" lon="123.41978">
        <ele>715.26</ele>
      </trkpt>
      <trkpt lat="9.79306" lon="123.42002">
        <ele>711.03</ele>
      </trkpt>
      <trkpt lat="9.79299" lon="123.4203">
        <ele>702.07</ele>
      </trkpt>
      <trkpt lat="9.793" lon="123.42054">
        <ele>701.23</ele>
      </trkpt>
      <trkpt lat="9.79294" lon="123.42074">
        <ele>702.11</ele>
      </trkpt>
      <trkpt lat="9.79292" lon="123.42099">
        <ele>702.44</ele>
      </trkpt>
      <trkpt lat="9.79279" lon="123.42141">
        <ele>710.04</ele>
      </trkpt>
      <trkpt lat="9.79248" lon="123.42175">
        <ele>747.52</ele>
      </trkpt>
      <trkpt lat="9.79216" lon="123.4221">
        <ele>766.11</ele>
      </trkpt>
      <trkpt lat="9.7918" lon="123.42258">
        <ele>774.72</ele>
      </trkpt>
      <trkpt lat="9.79161" lon="123.42296">
        <ele>776.54</ele>
      </trkpt>
      <trkpt lat="9.79141" lon="123.42338">
        <ele>787.26</ele>
      </trkpt>
      <trkpt lat="9.79128" lon="123.42363">
        <ele>796.19</ele>
      </trkpt>
      <trkpt lat="9.79133" lon="123.424">
        <ele>796.77</ele>
      </trkpt>
      <trkpt lat="9.79144" lon="123.42423">
        <ele>796.31</ele>
      </trkpt>
      <trkpt lat="9.79159" lon="123.42451">
        <ele>794.55</ele>
      </trkpt>
      <trkpt lat="9.79177" lon="123.42477">
        <ele>795.1</ele>
      </trkpt>
      <trkpt lat="9.79183" lon="123.42498">
        <ele>795.06</ele>
      </trkpt>
      <trkpt lat="9.79205" lon="123.42522">
        <ele>800.32</ele>
      </trkpt>
      <trkpt lat="9.79217" lon="123.42533">
        <ele>802.35</ele>
      </trkpt>
      <trkpt lat="9.79229" lon="123.42555">
        <ele>806.4</ele>
      </trkpt>
      <trkpt lat="9.79261" lon="123.42572">
        <ele>808.12</ele>
      </trkpt>
      <trkpt lat="9.79281" lon="123.42599">
        <ele>813.77</ele>
      </trkpt>
      <trkpt lat="9.79298" lon="123.42612">
        <ele>815.73</ele>
      </trkpt>
      <trkpt lat="9.79312" lon="123.42625">
        <ele>816.8</ele>
      </trkpt>
      <trkpt lat="9.79333" lon="123.42646">
        <ele>817.08</ele>
      </trkpt>
      <trkpt lat="9.79343" lon="123.42674">
        <ele>827.33</ele>
      </trkpt>
      <trkpt lat="9.79342" lon="123.427">
        <ele>835.48</ele>
      </trkpt>
      <trkpt lat="9.79355" lon="123.42717">
        <ele>846.03</ele>
      </trkpt>
      <trkpt lat="9.79367" lon="123.42748">
        <ele>859.15</ele>
      </trkpt>
      <trkpt lat="9.79407" lon="123.4281">
        <ele>870.25</ele>
      </trkpt>
      <trkpt lat="9.7941" lon="123.42827">
        <ele>869.44</ele>
      </trkpt>
      <trkpt lat="9.79406" lon="123.42838">
        <ele>870.05</ele>
      </trkpt>
      <trkpt lat="9.79405" lon="123.42869">
        <ele>871.34</ele>
      </trkpt>
      <trkpt lat="9.79404" lon="123.42892">
        <ele>872.8</ele>
      </trkpt>
      <trkpt lat="9.79409" lon="123.42919">
        <ele>871.99</ele>
      </trkpt>
      <trkpt lat="9.79414" lon="123.42945">
        <ele>869.86</ele>
      </trkpt>
      <trkpt lat="9.79418" lon="123.42959">
        <ele>869.43</ele>
      </trkpt>
      <trkpt lat="9.79427" lon="123.42966">
        <ele>872.14</ele>
      </trkpt>
      <trkpt lat="9.79446" lon="123.42972">
        <ele>877.41</ele>
      </trkpt>
      <trkpt lat="9.79464" lon="123.42981">
        <ele>880.76</ele>
      </trkpt>
      <trkpt lat="9.79476" lon="123.42987">
        <ele>882.74</ele>
      </trkpt>
      <trkpt lat="9.79494" lon="123.43004">
        <ele>883.76</ele>
      </trkpt>
      <trkpt lat="9.79501" lon="123.43016">
        <ele>884.04</ele>
      </trkpt>
      <trkpt lat="9.79514" lon="123.43028">
        <ele>885.5</ele>
      </trkpt>
      <trkpt lat="9.79518" lon="123.43045">
        <ele>884.2</ele>
      </trkpt>
      <trkpt lat="9.79531" lon="123.43074">
        <ele>882.2</ele>
      </trkpt>
      <trkpt lat="9.79535" lon="123.4309">
        <ele>882.51</ele>
      </trkpt>
      <trkpt lat="9.79543" lon="123.43111">
        <ele>885.89</ele>
      </trkpt>
      <trkpt lat="9.79562" lon="123.43129">
        <ele>885.87</ele>
      </trkpt>
      <trkpt lat="9.7957" lon="123.43157">
        <ele>885.48</ele>
      </trkpt>
      <trkpt lat="9.79582" lon="123.4317">
        <ele>882.67</ele>
      </trkpt>
      <trkpt lat="9.79607" lon="123.43192">
        <ele>886.86</ele>
      </trkpt>
      <trkpt lat="9.79623" lon="123.43216">
        <ele>891.28</ele>
      </trkpt>
      <trkpt lat="9.79637" lon="123.43238">
        <ele>893.49</ele>
      </trkpt>
      <trkpt lat="9.79647" lon="123.43246">
        <ele>892.74</ele>
      </trkpt>
      <trkpt lat="9.79657" lon="123.43273">
        <ele>892.15</ele>
      </trkpt>
      <trkpt lat="9.7967" lon="123.43293">
        <ele>891.03</ele>
      </trkpt>
      <trkpt lat="9.79697" lon="123.43298">
        <ele>895.05</ele>
      </trkpt>
      <trkpt lat="9.7972" lon="123.43311">
        <ele>897.58</ele>
      </trkpt>
      <trkpt lat="9.79727" lon="123.43323">
        <ele>897.78</ele>
      </trkpt>
      <trkpt lat="9.79737" lon="123.43336">
        <ele>898.05</ele>
      </trkpt>
      <trkpt lat="9.79753" lon="123.43351">
        <ele>897.12</ele>
      </trkpt>
      <trkpt lat="9.79771" lon="123.43363">
        <ele>896.65</ele>
      </trkpt>
      <trkpt lat="9.79797" lon="123.43366">
        <ele>898.45</ele>
      </trkpt>
      <trkpt lat="9.79814" lon="123.43379">
        <ele>900.34</ele>
      </trkpt>
      <trkpt lat="9.79841" lon="123.43372">
        <ele>900.35</ele>
      </trkpt>
      <trkpt lat="9.79862" lon="123.43377">
        <ele>898.62</ele>
      </trkpt>
      <trkpt lat="9.79894" lon="123.43372">
        <ele>894.84</ele>
      </trkpt>
      <trkpt lat="9.79909" lon="123.43378">
        <ele>893.44</ele>
      </trkpt>
      <trkpt lat="9.79916" lon="123.43384">
        <ele>892.9</ele>
      </trkpt>
      <trkpt lat="9.79919" lon="123.43408">
        <ele>892.61</ele>
      </trkpt>
      <trkpt lat="9.79927" lon="123.43441">
        <ele>894.09</ele>
      </trkpt>
      <trkpt lat="9.79926" lon="123.43466">
        <ele>897.24</ele>
      </trkpt>
      <trkpt lat="9.79932" lon="123.43472">
        <ele>897.32</ele>
      </trkpt>
      <trkpt lat="9.79942" lon="123.43477">
        <ele>896.94</ele>
      </trkpt>
      <trkpt lat="9.79963" lon="123.43484">
        <ele>895.98</ele>
      </trkpt>
      <trkpt lat="9.79975" lon="123.43494">
        <ele>896.7</ele>
      </trkpt>
      <trkpt lat="9.79987" lon="123.43528">
        <ele>903.99</ele>
      </trkpt>
      <trkpt lat="9.79998" lon="123.43534">
        <ele>904.7</ele>
      </trkpt>
      <trkpt lat="9.80015" lon="123.43532">
        <ele>905.23</ele>
      </trkpt>
      <trkpt lat="9.80035" lon="123.43521">
        <ele>903.95</ele>
      </trkpt>
      <trkpt lat="9.80074" lon="123.43523">
        <ele>907.78</ele>
      </trkpt>
      <trkpt lat="9.80089" lon="123.43526">
        <ele>909.26</ele>
      </trkpt>
      <trkpt lat="9.80122" lon="123.43559">
        <ele>914.69</ele>
      </trkpt>
      <trkpt lat="9.80133" lon="123.43564">
        <ele>913.4</ele>
      </trkpt>
      <trkpt lat="9.80152" lon="123.43567">
        <ele>910.18</ele>
      </trkpt>
      <trkpt lat="9.80162" lon="123.43574">
        <ele>908.67</ele>
      </trkpt>
      <trkpt lat="9.80169" lon="123.43585">
        <ele>908.14</ele>
      </trkpt>
      <trkpt lat="9.8019" lon="123.43626">
        <ele>915.38</ele>
      </trkpt>
      <trkpt lat="9.80197" lon="123.43639">
        <ele>917.93</ele>
      </trkpt>
      <trkpt lat="9.80201" lon="123.43643">
        <ele>918.65</ele>
      </trkpt>
      <trkpt lat="9.80206" lon="123.43644">
        <ele>918.69</ele>
      </trkpt>
      <trkpt lat="9.80235" lon="123.43645">
        <ele>917.96</ele>
      </trkpt>
      <trkpt lat="9.80273" lon="123.43647">
        <ele>915.9</ele>
      </trkpt>
      <trkpt lat="9.80299" lon="123.43658">
        <ele>915.62</ele>
      </trkpt>
      <trkpt lat="9.80312" lon="123.43663">
        <ele>914.74</ele>
      </trkpt>
      <trkpt lat="9.80322" lon="123.43671">
        <ele>915.35</ele>
      </trkpt>
      <trkpt lat="9.80331" lon="123.4368">
        <ele>917.62</ele>
      </trkpt>
      <trkpt lat="9.80345" lon="123.43696">
        <ele>923.13</ele>
      </trkpt>
      <trkpt lat="9.80345" lon="123.43696">
        <ele>923.13</ele>
      </trkpt>
      <trkpt lat="9.80349" lon="123.437">
        <ele>924.3</ele>
      </trkpt>
      <trkpt lat="9.8036" lon="123.43704">
        <ele>924.83</ele>
      </trkpt>
      <trkpt lat="9.80391" lon="123.43711">
        <ele>922.58</ele>
      </trkpt>
      <trkpt lat="9.80399" lon="123.43718">
        <ele>920.44</ele>
      </trkpt>
      <trkpt lat="9.80409" lon="123.43721">
        <ele>916.89</ele>
      </trkpt>
      <trkpt lat="9.80426" lon="123.43729">
        <ele>913.52</ele>
      </trkpt>
      <trkpt lat="9.80434" lon="123.43737">
        <ele>914.02</ele>
      </trkpt>
      <trkpt lat="9.80442" lon="123.43741">
        <ele>913.58</ele>
      </trkpt>
      <trkpt lat="9.80462" lon="123.43743">
        <ele>911.84</ele>
      </trkpt>
      <trkpt lat="9.8048" lon="123.43739">
        <ele>910.3</ele>
      </trkpt>
      <trkpt lat="9.80504" lon="123.4373">
        <ele>911.11</ele>
      </trkpt>
      <trkpt lat="9.80509" lon="123.43728">
        <ele>912.98</ele>
      </trkpt>
      <trkpt lat="9.80514" lon="123.43728">
        <ele>915.17</ele>
      </trkpt>
      <trkpt lat="9.80523" lon="123.43734">
        <ele>919.48</ele>
      </trkpt>
      <trkpt lat="9.80527" lon="123.43744">
        <ele>921.51</ele>
      </trkpt>
      <trkpt lat="9.80531" lon="123.43749">
        <ele>922.36</ele>
      </trkpt>
      <trkpt lat="9.80535" lon="123.43754">
        <ele>924.25</ele>
      </trkpt>
      <trkpt lat="9.80542" lon="123.43761">
        <ele>926.87</ele>
      </trkpt>
      <trkpt lat="9.80551" lon="123.43768">
        <ele>928.49</ele>
      </trkpt>
      <trkpt lat="9.8056" lon="123.4378">
        <ele>929.86</ele>
      </trkpt>
      <trkpt lat="9.80565" lon="123.43789">
        <ele>930.31</ele>
      </trkpt>
      <trkpt lat="9.8057" lon="123.43797">
        <ele>930.1</ele>
      </trkpt>
      <trkpt lat="9.80579" lon="123.43812">
        <ele>928.66</ele>
      </trkpt>
      <trkpt lat="9.80608" lon="123.43869">
        <ele>931.22</ele>
      </trkpt>
      <trkpt lat="9.80615" lon="123.43881">
        <ele>932.72</ele>
      </trkpt>
      <trkpt lat="9.80627" lon="123.43886">
        <ele>933.01</ele>
      </trkpt>
      <trkpt lat="9.80645" lon="123.43891">
        <ele>933.3</ele>
      </trkpt>
      <trkpt lat="9.80664" lon="123.43894">
        <ele>933.74</ele>
      </trkpt>
      <trkpt lat="9.80685" lon="123.43899">
        <ele>934.7</ele>
      </trkpt>
      <trkpt lat="9.80726" lon="123.43899">
        <ele>935.23</ele>
      </trkpt>
      <trkpt lat="9.80776" lon="123.43883">
        <ele>928.75</ele>
      </trkpt>
      <trkpt lat="9.80811" lon="123.43881">
        <ele>924.97</ele>
      </trkpt>
      <trkpt lat="9.80844" lon="123.43884">
        <ele>926.02</ele>
      </trkpt>
      <trkpt lat="9.80859" lon="123.43904">
        <ele>924.72</ele>
      </trkpt>
      <trkpt lat="9.80879" lon="123.43949">
        <ele>914.17</ele>
      </trkpt>
      <trkpt lat="9.80888" lon="123.43992">
        <ele>910.27</ele>
      </trkpt>
      <trkpt lat="9.8091" lon="123.44016">
        <ele>908.41</ele>
      </trkpt>
      <trkpt lat="9.80922" lon="123.44025">
        <ele>913.76</ele>
      </trkpt>
      <trkpt lat="9.80948" lon="123.4404">
        <ele>932.14</ele>
      </trkpt>
      <trkpt lat="9.80975" lon="123.44055">
        <ele>933.68</ele>
      </trkpt>
      <trkpt lat="9.80978" lon="123.44065">
        <ele>935.86</ele>
      </trkpt>
      <trkpt lat="9.80974" lon="123.44086">
        <ele>938.36</ele>
      </trkpt>
      <trkpt lat="9.80983" lon="123.44094">
        <ele>937.21</ele>
      </trkpt>
      <trkpt lat="9.81" lon="123.44086">
        <ele>938.9</ele>
      </trkpt>
      <trkpt lat="9.8101" lon="123.4409">
        <ele>941.71</ele>
      </trkpt>
      <trkpt lat="9.81024" lon="123.44104">
        <ele>947.52</ele>
      </trkpt>
      <trkpt lat="9.81041" lon="123.44109">
        <ele>951.85</ele>
      </trkpt>
      <trkpt lat="9.81089" lon="123.44127">
        <ele>956.99</ele>
      </trkpt>
      <trkpt lat="9.81126" lon="123.4416">
        <ele>955.55</ele>
      </trkpt>
      <trkpt lat="9.81152" lon="123.44169">
        <ele>956.21</ele>
      </trkpt>
      <trkpt lat="9.81174" lon="123.44189">
        <ele>959.76</ele>
      </trkpt>
      <trkpt lat="9.81187" lon="123.44193">
        <ele>963.15</ele>
      </trkpt>
      <trkpt lat="9.81213" lon="123.44193">
        <ele>970.43</ele>
      </trkpt>
      <trkpt lat="9.81242" lon="123.44203">
        <ele>976.62</ele>
      </trkpt>
      <trkpt lat="9.81268" lon="123.44228">
        <ele>978.43</ele>
      </trkpt>
      <trkpt lat="9.81304" lon="123.44249">
        <ele>986.46</ele>
      </trkpt>
      <trkpt lat="9.81323" lon="123.44265">
        <ele>989.94</ele>
      </trkpt>
      <trkpt lat="9.81326" lon="123.44253">
        <ele>992.99</ele>
      </trkpt>
      <trkpt lat="9.81331" lon="123.44247">
        <ele>995.26</ele>
      </trkpt>
      <trkpt lat="9.8135" lon="123.44244">
        <ele>1003.54</ele>
      </trkpt>
      <trkpt lat="9.81366" lon="123.44246">
        <ele>1010.02</ele>
      </trkpt>
      <trkpt lat="9.81387" lon="123.44239">
        <ele>1014.19</ele>
      </trkpt>
      <trkpt lat="9.81409" lon="123.44231">
        <ele>1007.87</ele>
      </trkpt>
      <trkpt lat="9.81453" lon="123.44207">
        <ele>995.21</ele>
      </trkpt>
      <trkpt lat="9.81468" lon="123.44205">
        <ele>990.49</ele>
      </trkpt>
      <trkpt lat="9.81492" lon="123.44192">
        <ele>985.3</ele>
      </trkpt>
      <trkpt lat="9.81508" lon="123.44193">
        <ele>983.32</ele>
      </trkpt>
      <trkpt lat="9.81526" lon="123.44187">
        <ele>984.44</ele>
      </trkpt>
      <trkpt lat="9.81543" lon="123.44172">
        <ele>986.61</ele>
      </trkpt>
      <trkpt lat="9.81568" lon="123.44176">
        <ele>988.19</ele>
      </trkpt>
      <trkpt lat="9.81591" lon="123.44187">
        <ele>988.44</ele>
      </trkpt>
      <trkpt lat="9.8161" lon="123.44197">
        <ele>985.92</ele>
      </trkpt>
      <trkpt lat="9.81655" lon="123.44204">
        <ele>997.4</ele>
      </trkpt>
      <trkpt lat="9.81693" lon="123.44208">
        <ele>1001.56</ele>
      </trkpt>
      <trkpt lat="9.81729" lon="123.44204">
        <ele>1003.92</ele>
      </trkpt>
      <trkpt lat="9.81792" lon="123.442">
        <ele>1003.28</ele>
      </trkpt>
      <trkpt lat="9.81822" lon="123.44191">
        <ele>1002.11</ele>
      </trkpt>
      <trkpt lat="9.81868" lon="123.44191">
        <ele>1002.19</ele>
      </trkpt>
      <trkpt lat="9.81909" lon="123.44208">
        <ele>1005.41</ele>
      </trkpt>
      <trkpt lat="9.81938" lon="123.44249">
        <ele>1016.44</ele>
      </trkpt>
      <trkpt lat="9.81949" lon="123.44258">
        <ele>1019.47</ele>
      </trkpt>
      <trkpt lat="9.81938" lon="123.44249">
        <ele>1016.44</ele>
      </trkpt>
      <trkpt lat="9.81909" lon="123.44208">
        <ele>1005.41</ele>
      </trkpt>
      <trkpt lat="9.81868" lon="123.44191">
        <ele>1002.19</ele>
      </trkpt>
      <trkpt lat="9.81822" lon="123.44191">
        <ele>1002.11</ele>
      </trkpt>
      <trkpt lat="9.81792" lon="123.442">
        <ele>1003.28</ele>
      </trkpt>
      <trkpt lat="9.81729" lon="123.44204">
        <ele>1003.92</ele>
      </trkpt>
      <trkpt lat="9.81693" lon="123.44208">
        <ele>1001.56</ele>
      </trkpt>
      <trkpt lat="9.81655" lon="123.44204">
        <ele>997.4</ele>
      </trkpt>
      <trkpt lat="9.8161" lon="123.44197">
        <ele>985.92</ele>
      </trkpt>
      <trkpt lat="9.81591" lon="123.44187">
        <ele>988.44</ele>
      </trkpt>
      <trkpt lat="9.81568" lon="123.44176">
        <ele>988.19</ele>
      </trkpt>
      <trkpt lat="9.81543" lon="123.44172">
        <ele>986.61</ele>
      </trkpt>
      <trkpt lat="9.81526" lon="123.44187">
        <ele>984.44</ele>
      </trkpt>
      <trkpt lat="9.81508" lon="123.44193">
        <ele>983.32</ele>
      </trkpt>
      <trkpt lat="9.81492" lon="123.44192">
        <ele>985.3</ele>
      </trkpt>
      <trkpt lat="9.81468" lon="123.44205">
        <ele>990.49</ele>
      </trkpt>
      <trkpt lat="9.81453" lon="123.44207">
        <ele>995.21</ele>
      </trkpt>
      <trkpt lat="9.81409" lon="123.44231">
        <ele>1007.87</ele>
      </trkpt>
      <trkpt lat="9.81387" lon="123.44239">
        <ele>1014.19</ele>
      </trkpt>
      <trkpt lat="9.81366" lon="123.44246">
        <ele>1010.02</ele>
      </trkpt>
      <trkpt lat="9.8135" lon="123.44244">
        <ele>1003.54</ele>
      </trkpt>
      <trkpt lat="9.81331" lon="123.44247">
        <ele>995.26</ele>
      </trkpt>
      <trkpt lat="9.81326" lon="123.44253">
        <ele>992.99</ele>
      </trkpt>
      <trkpt lat="9.81323" lon="123.44265">
        <ele>989.94</ele>
      </trkpt>
      <trkpt lat="9.81304" lon="123.44249">
        <ele>986.46</ele>
      </trkpt>
      <trkpt lat="9.81268" lon="123.44228">
        <ele>978.43</ele>
      </trkpt>
      <trkpt lat="9.81242" lon="123.44203">
        <ele>976.62</ele>
      </trkpt>
      <trkpt lat="9.81213" lon="123.44193">
        <ele>970.43</ele>
      </trkpt>
      <trkpt lat="9.81187" lon="123.44193">
        <ele>963.15</ele>
      </trkpt>
      <trkpt lat="9.81174" lon="123.44189">
        <ele>959.76</ele>
      </trkpt>
      <trkpt lat="9.81152" lon="123.44169">
        <ele>956.21</ele>
      </trkpt>
      <trkpt lat="9.81126" lon="123.4416">
        <ele>955.55</ele>
      </trkpt>
      <trkpt lat="9.81089" lon="123.44127">
        <ele>956.99</ele>
      </trkpt>
      <trkpt lat="9.81041" lon="123.44109">
        <ele>951.85</ele>
      </trkpt>
      <trkpt lat="9.81024" lon="123.44104">
        <ele>947.52</ele>
      </trkpt>
      <trkpt lat="9.8101" lon="123.4409">
        <ele>941.71</ele>
      </trkpt>
      <trkpt lat="9.81" lon="123.44086">
        <ele>938.9</ele>
      </trkpt>
      <trkpt lat="9.80983" lon="123.44094">
        <ele>937.21</ele>
      </trkpt>
      <trkpt lat="9.80974" lon="123.44086">
        <ele>938.36</ele>
      </trkpt>
      <trkpt lat="9.80978" lon="123.44065">
        <ele>935.86</ele>
      </trkpt>
      <trkpt lat="9.80975" lon="123.44055">
        <ele>933.68</ele>
      </trkpt>
      <trkpt lat="9.80948" lon="123.4404">
        <ele>932.14</ele>
      </trkpt>
      <trkpt lat="9.80922" lon="123.44025">
        <ele>913.76</ele>
      </trkpt>
      <trkpt lat="9.8091" lon="123.44016">
        <ele>908.41</ele>
      </trkpt>
      <trkpt lat="9.80888" lon="123.43992">
        <ele>910.27</ele>
      </trkpt>
      <trkpt lat="9.80879" lon="123.43949">
        <ele>914.17</ele>
      </trkpt>
      <trkpt lat="9.80859" lon="123.43904">
        <ele>924.72</ele>
      </trkpt>
      <trkpt lat="9.80844" lon="123.43884">
        <ele>926.02</ele>
      </trkpt>
      <trkpt lat="9.80811" lon="123.43881">
        <ele>924.97</ele>
      </trkpt>
      <trkpt lat="9.80776" lon="123.43883">
        <ele>928.75</ele>
      </trkpt>
      <trkpt lat="9.80726" lon="123.43899">
        <ele>935.23</ele>
      </trkpt>
      <trkpt lat="9.80685" lon="123.43899">
        <ele>934.7</ele>
      </trkpt>
      <trkpt lat="9.80664" lon="123.43894">
        <ele>933.74</ele>
      </trkpt>
      <trkpt lat="9.80645" lon="123.43891">
        <ele>933.3</ele>
      </trkpt>
      <trkpt lat="9.80627" lon="123.43886">
        <ele>933.01</ele>
      </trkpt>
      <trkpt lat="9.80615" lon="123.43881">
        <ele>932.72</ele>
      </trkpt>
      <trkpt lat="9.80608" lon="123.43869">
        <ele>931.22</ele>
      </trkpt>
      <trkpt lat="9.80579" lon="123.43812">
        <ele>928.66</ele>
      </trkpt>
      <trkpt lat="9.8057" lon="123.43797">
        <ele>930.1</ele>
      </trkpt>
      <trkpt lat="9.80565" lon="123.43789">
        <ele>930.31</ele>
      </trkpt>
      <trkpt lat="9.8056" lon="123.4378">
        <ele>929.86</ele>
      </trkpt>
      <trkpt lat="9.80551" lon="123.43768">
        <ele>928.49</ele>
      </trkpt>
      <trkpt lat="9.80542" lon="123.43761">
        <ele>926.87</ele>
      </trkpt>
      <trkpt lat="9.80535" lon="123.43754">
        <ele>924.25</ele>
      </trkpt>
      <trkpt lat="9.80531" lon="123.43749">
        <ele>922.36</ele>
      </trkpt>
      <trkpt lat="9.80527" lon="123.43744">
        <ele>921.51</ele>
      </trkpt>
      <trkpt lat="9.80523" lon="123.43734">
        <ele>919.48</ele>
      </trkpt>
      <trkpt lat="9.80514" lon="123.43728">
        <ele>915.17</ele>
      </trkpt>
      <trkpt lat="9.80509" lon="123.43728">
        <ele>912.98</ele>
      </trkpt>
      <trkpt lat="9.80504" lon="123.4373">
        <ele>911.11</ele>
      </trkpt>
      <trkpt lat="9.8048" lon="123.43739">
        <ele>910.3</ele>
      </trkpt>
      <trkpt lat="9.80462" lon="123.43743">
        <ele>911.84</ele>
      </trkpt>
      <trkpt lat="9.80442" lon="123.43741">
        <ele>913.58</ele>
      </trkpt>
      <trkpt lat="9.80434" lon="123.43737">
        <ele>914.02</ele>
      </trkpt>
      <trkpt lat="9.80426" lon="123.43729">
        <ele>913.52</ele>
      </trkpt>
      <trkpt lat="9.80409" lon="123.43721">
        <ele>916.89</ele>
      </trkpt>
      <trkpt lat="9.80399" lon="123.43718">
        <ele>920.44</ele>
      </trkpt>
      <trkpt lat="9.80391" lon="123.43711">
        <ele>922.58</ele>
      </trkpt>
      <trkpt lat="9.8036" lon="123.43704">
        <ele>924.83</ele>
      </trkpt>
      <trkpt lat="9.80349" lon="123.437">
        <ele>924.3</ele>
      </trkpt>
      <trkpt lat="9.80345" lon="123.43696">
        <ele>923.13</ele>
      </trkpt>
      <trkpt lat="9.80345" lon="123.43696">
        <ele>923.13</ele>
      </trkpt>
      <trkpt lat="9.80331" lon="123.4368">
        <ele>917.62</ele>
      </trkpt>
      <trkpt lat="9.80322" lon="123.43671">
        <ele>915.35</ele>
      </trkpt>
      <trkpt lat="9.80312" lon="123.43663">
        <ele>914.74</ele>
      </trkpt>
      <trkpt lat="9.80299" lon="123.43658">
        <ele>915.62</ele>
      </trkpt>
      <trkpt lat="9.80273" lon="123.43647">
        <ele>915.9</ele>
      </trkpt>
      <trkpt lat="9.80235" lon="123.43645">
        <ele>917.96</ele>
      </trkpt>
      <trkpt lat="9.80206" lon="123.43644">
        <ele>918.69</ele>
      </trkpt>
      <trkpt lat="9.80201" lon="123.43643">
        <ele>918.65</ele>
      </trkpt>
      <trkpt lat="9.80197" lon="123.43639">
        <ele>917.93</ele>
      </trkpt>
      <trkpt lat="9.8019" lon="123.43626">
        <ele>915.38</ele>
      </trkpt>
      <trkpt lat="9.80169" lon="123.43585">
        <ele>908.14</ele>
      </trkpt>
      <trkpt lat="9.80162" lon="123.43574">
        <ele>908.67</ele>
      </trkpt>
      <trkpt lat="9.80152" lon="123.43567">
        <ele>910.18</ele>
      </trkpt>
      <trkpt lat="9.80133" lon="123.43564">
        <ele>913.4</ele>
      </trkpt>
      <trkpt lat="9.80122" lon="123.43559">
        <ele>914.69</ele>
      </trkpt>
      <trkpt lat="9.80089" lon="123.43526">
        <ele>909.26</ele>
      </trkpt>
      <trkpt lat="9.80074" lon="123.43523">
        <ele>907.78</ele>
      </trkpt>
      <trkpt lat="9.80035" lon="123.43521">
        <ele>903.95</ele>
      </trkpt>
      <trkpt lat="9.80015" lon="123.43532">
        <ele>905.23</ele>
      </trkpt>
      <trkpt lat="9.79998" lon="123.43534">
        <ele>904.7</ele>
      </trkpt>
      <trkpt lat="9.79987" lon="123.43528">
        <ele>903.99</ele>
      </trkpt>
      <trkpt lat="9.79975" lon="123.43494">
        <ele>896.7</ele>
      </trkpt>
      <trkpt lat="9.79963" lon="123.43484">
        <ele>895.98</ele>
      </trkpt>
      <trkpt lat="9.79942" lon="123.43477">
        <ele>896.94</ele>
      </trkpt>
      <trkpt lat="9.79932" lon="123.43472">
        <ele>897.32</ele>
      </trkpt>
      <trkpt lat="9.79926" lon="123.43466">
        <ele>897.24</ele>
      </trkpt>
      <trkpt lat="9.79927" lon="123.43441">
        <ele>894.09</ele>
      </trkpt>
      <trkpt lat="9.79919" lon="123.43408">
        <ele>892.61</ele>
      </trkpt>
      <trkpt lat="9.79916" lon="123.43384">
        <ele>892.9</ele>
      </trkpt>
      <trkpt lat="9.79909" lon="123.43378">
        <ele>893.44</ele>
      </trkpt>
      <trkpt lat="9.79894" lon="123.43372">
        <ele>894.84</ele>
      </trkpt>
      <trkpt lat="9.79862" lon="123.43377">
        <ele>898.62</ele>
      </trkpt>
      <trkpt lat="9.79841" lon="123.43372">
        <ele>900.35</ele>
      </trkpt>
      <trkpt lat="9.79814" lon="123.43379">
        <ele>900.34</ele>
      </trkpt>
      <trkpt lat="9.79797" lon="123.43366">
        <ele>898.45</ele>
      </trkpt>
      <trkpt lat="9.79771" lon="123.43363">
        <ele>896.65</ele>
      </trkpt>
      <trkpt lat="9.79753" lon="123.43351">
        <ele>897.12</ele>
      </trkpt>
      <trkpt lat="9.79737" lon="123.43336">
        <ele>898.05</ele>
      </trkpt>
      <trkpt lat="9.79727" lon="123.43323">
        <ele>897.78</ele>
      </trkpt>
      <trkpt lat="9.7972" lon="123.43311">
        <ele>897.58</ele>
      </trkpt>
      <trkpt lat="9.79697" lon="123.43298">
        <ele>895.05</ele>
      </trkpt>
      <trkpt lat="9.7967" lon="123.43293">
        <ele>891.03</ele>
      </trkpt>
      <trkpt lat="9.79657" lon="123.43273">
        <ele>892.15</ele>
      </trkpt>
      <trkpt lat="9.79647" lon="123.43246">
        <ele>892.74</ele>
      </trkpt>
      <trkpt lat="9.79637" lon="123.43238">
        <ele>893.49</ele>
      </trkpt>
      <trkpt lat="9.79623" lon="123.43216">
        <ele>891.28</ele>
      </trkpt>
      <trkpt lat="9.79607" lon="123.43192">
        <ele>886.86</ele>
      </trkpt>
      <trkpt lat="9.79582" lon="123.4317">
        <ele>882.67</ele>
      </trkpt>
      <trkpt lat="9.7957" lon="123.43157">
        <ele>885.48</ele>
      </trkpt>
      <trkpt lat="9.79562" lon="123.43129">
        <ele>885.87</ele>
      </trkpt>
      <trkpt lat="9.79543" lon="123.43111">
        <ele>885.89</ele>
      </trkpt>
      <trkpt lat="9.79535" lon="123.4309">
        <ele>882.51</ele>
      </trkpt>
      <trkpt lat="9.79531" lon="123.43074">
        <ele>882.2</ele>
      </trkpt>
      <trkpt lat="9.79518" lon="123.43045">
        <ele>884.2</ele>
      </trkpt>
      <trkpt lat="9.79514" lon="123.43028">
        <ele>885.5</ele>
      </trkpt>
      <trkpt lat="9.79501" lon="123.43016">
        <ele>884.04</ele>
      </trkpt>
      <trkpt lat="9.79494" lon="123.43004">
        <ele>883.76</ele>
      </trkpt>
      <trkpt lat="9.79476" lon="123.42987">
        <ele>882.74</ele>
      </trkpt>
      <trkpt lat="9.79464" lon="123.42981">
        <ele>880.76</ele>
      </trkpt>
      <trkpt lat="9.79446" lon="123.42972">
        <ele>877.41</ele>
      </trkpt>
      <trkpt lat="9.79427" lon="123.42966">
        <ele>872.14</ele>
      </trkpt>
      <trkpt lat="9.79418" lon="123.42959">
        <ele>869.43</ele>
      </trkpt>
      <trkpt lat="9.79414" lon="123.42945">
        <ele>869.86</ele>
      </trkpt>
      <trkpt lat="9.79409" lon="123.42919">
        <ele>871.99</ele>
      </trkpt>
      <trkpt lat="9.79404" lon="123.42892">
        <ele>872.8</ele>
      </trkpt>
      <trkpt lat="9.79405" lon="123.42869">
        <ele>871.34</ele>
      </trkpt>
      <trkpt lat="9.79406" lon="123.42838">
        <ele>870.05</ele>
      </trkpt>
      <trkpt lat="9.7941" lon="123.42827">
        <ele>869.44</ele>
      </trkpt>
      <trkpt lat="9.79407" lon="123.4281">
        <ele>870.25</ele>
      </trkpt>
      <trkpt lat="9.79367" lon="123.42748">
        <ele>859.15</ele>
      </trkpt>
      <trkpt lat="9.79355" lon="123.42717">
        <ele>846.03</ele>
      </trkpt>
      <trkpt lat="9.79342" lon="123.427">
        <ele>835.48</ele>
      </trkpt>
      <trkpt lat="9.79343" lon="123.42674">
        <ele>827.33</ele>
      </trkpt>
      <trkpt lat="9.79333" lon="123.42646">
        <ele>817.08</ele>
      </trkpt>
      <trkpt lat="9.79312" lon="123.42625">
        <ele>816.8</ele>
      </trkpt>
      <trkpt lat="9.79298" lon="123.42612">
        <ele>815.73</ele>
      </trkpt>
      <trkpt lat="9.79281" lon="123.42599">
        <ele>813.77</ele>
      </trkpt>
      <trkpt lat="9.79261" lon="123.42572">
        <ele>808.12</ele>
      </trkpt>
      <trkpt lat="9.79229" lon="123.42555">
        <ele>806.4</ele>
      </trkpt>
      <trkpt lat="9.79217" lon="123.42533">
        <ele>802.35</ele>
      </trkpt>
      <trkpt lat="9.79205" lon="123.42522">
        <ele>800.32</ele>
      </trkpt>
      <trkpt lat="9.79183" lon="123.42498">
        <ele>795.06</ele>
      </trkpt>
      <trkpt lat="9.79177" lon="123.42477">
        <ele>795.1</ele>
      </trkpt>
      <trkpt lat="9.79159" lon="123.42451">
        <ele>794.55</ele>
      </trkpt>
      <trkpt lat="9.79144" lon="123.42423">
        <ele>796.31</ele>
      </trkpt>
      <trkpt lat="9.79133" lon="123.424">
        <ele>796.77</ele>
      </trkpt>
      <trkpt lat="9.79128" lon="123.42363">
        <ele>796.19</ele>
      </trkpt>
      <trkpt lat="9.79141" lon="123.42338">
        <ele>787.26</ele>
      </trkpt>
      <trkpt lat="9.79161" lon="123.42296">
        <ele>776.54</ele>
      </trkpt>
      <trkpt lat="9.7918" lon="123.42258">
        <ele>774.72</ele>
      </trkpt>
      <trkpt lat="9.79216" lon="123.4221">
        <ele>766.11</ele>
      </trkpt>
      <trkpt lat="9.79248" lon="123.42175">
        <ele>747.52</ele>
      </trkpt>
      <trkpt lat="9.79279" lon="123.42141">
        <ele>710.04</ele>
      </trkpt>
      <trkpt lat="9.79292" lon="123.42099">
        <ele>702.44</ele>
      </trkpt>
      <trkpt lat="9.79294" lon="123.42074">
        <ele>702.11</ele>
      </trkpt>
      <trkpt lat="9.793" lon="123.42054">
        <ele>701.23</ele>
      </trkpt>
      <trkpt lat="9.79299" lon="123.4203">
        <ele>702.07</ele>
      </trkpt>
      <trkpt lat="9.79306" lon="123.42002">
        <ele>711.03</ele>
      </trkpt>
      <trkpt lat="9.79307" lon="123.41978">
        <ele>715.26</ele>
      </trkpt>
      <trkpt lat="9.79297" lon="123.41954">
        <ele>717.81</ele>
      </trkpt>
      <trkpt lat="9.79272" lon="123.41932">
        <ele>717.72</ele>
      </trkpt>
      <trkpt lat="9.79268" lon="123.41904">
        <ele>719.48</ele>
      </trkpt>
      <trkpt lat="9.79267" lon="123.4189">
        <ele>720.84</ele>
      </trkpt>
      <trkpt lat="9.79267" lon="123.41879">
        <ele>720.86</ele>
      </trkpt>
      <trkpt lat="9.79249" lon="123.41853">
        <ele>718.54</ele>
      </trkpt>
      <trkpt lat="9.79228" lon="123.41824">
        <ele>695.33</ele>
      </trkpt>
      <trkpt lat="9.7922" lon="123.41792">
        <ele>680.31</ele>
      </trkpt>
      <trkpt lat="9.79217" lon="123.41771">
        <ele>675.52</ele>
      </trkpt>
      <trkpt lat="9.79222" lon="123.41746">
        <ele>666.71</ele>
      </trkpt>
      <trkpt lat="9.79233" lon="123.41713">
        <ele>654.85</ele>
      </trkpt>
      <trkpt lat="9.79221" lon="123.41705">
        <ele>651.08</ele>
      </trkpt>
      <trkpt lat="9.79229" lon="123.4169">
        <ele>652.31</ele>
      </trkpt>
      <trkpt lat="9.79231" lon="123.41674">
        <ele>654.43</ele>
      </trkpt>
      <trkpt lat="9.79223" lon="123.41659">
        <ele>647.79</ele>
      </trkpt>
      <trkpt lat="9.79213" lon="123.41641">
        <ele>636.9</ele>
      </trkpt>
      <trkpt lat="9.79203" lon="123.41607">
        <ele>622.06</ele>
      </trkpt>
      <trkpt lat="9.79191" lon="123.41559">
        <ele>602.45</ele>
      </trkpt>
      <trkpt lat="9.79175" lon="123.41499">
        <ele>583.75</ele>
      </trkpt>
      <trkpt lat="9.7916" lon="123.41473">
        <ele>579.81</ele>
      </trkpt>
      <trkpt lat="9.79169" lon="123.41445">
        <ele>580.06</ele>
      </trkpt>
      <trkpt lat="9.79184" lon="123.41403">
        <ele>587.7</ele>
      </trkpt>
      <trkpt lat="9.79216" lon="123.41379">
        <ele>592.98</ele>
      </trkpt>
      <trkpt lat="9.79259" lon="123.41346">
        <ele>582.81</ele>
      </trkpt>
      <trkpt lat="9.79293" lon="123.41325">
        <ele>568.08</ele>
      </trkpt>
      <trkpt lat="9.79335" lon="123.413">
        <ele>558.96</ele>
      </trkpt>
      <trkpt lat="9.79356" lon="123.41286">
        <ele>545.99</ele>
      </trkpt>
      <trkpt lat="9.79384" lon="123.41282">
        <ele>531.77</ele>
      </trkpt>
      <trkpt lat="9.79409" lon="123.41293">
        <ele>524.6</ele>
      </trkpt>
      <trkpt lat="9.79439" lon="123.41277">
        <ele>515.28</ele>
      </trkpt>
      <trkpt lat="9.79449" lon="123.4126">
        <ele>515.08</ele>
      </trkpt>
      <trkpt lat="9.79451" lon="123.41224">
        <ele>507.76</ele>
      </trkpt>
      <trkpt lat="9.79445" lon="123.41217">
        <ele>505.94</ele>
      </trkpt>
      <trkpt lat="9.79472" lon="123.412">
        <ele>514.95</ele>
      </trkpt>
      <trkpt lat="9.795" lon="123.41187">
        <ele>524.05</ele>
      </trkpt>
      <trkpt lat="9.79513" lon="123.41195">
        <ele>535.43</ele>
      </trkpt>
      <trkpt lat="9.79505" lon="123.41175">
        <ele>523.55</ele>
      </trkpt>
      <trkpt lat="9.79524" lon="123.41155">
        <ele>534.47</ele>
      </trkpt>
      <trkpt lat="9.79543" lon="123.41117">
        <ele>526.58</ele>
      </trkpt>
      <trkpt lat="9.79554" lon="123.41081">
        <ele>500.44</ele>
      </trkpt>
      <trkpt lat="9.79574" lon="123.41045">
        <ele>478.89</ele>
      </trkpt>
      <trkpt lat="9.79588" lon="123.4101">
        <ele>468.32</ele>
      </trkpt>
      <trkpt lat="9.79603" lon="123.40968">
        <ele>458.41</ele>
      </trkpt>
      <trkpt lat="9.7962" lon="123.40936">
        <ele>460.6</ele>
      </trkpt>
      <trkpt lat="9.79609" lon="123.4091">
        <ele>458.4</ele>
      </trkpt>
      <trkpt lat="9.79582" lon="123.40864">
        <ele>473.88</ele>
      </trkpt>
      <trkpt lat="9.79579" lon="123.4088">
        <ele>468.21</ele>
      </trkpt>
      <trkpt lat="9.79579" lon="123.4088">
        <ele>468.21</ele>
      </trkpt>
      <trkpt lat="9.79578" lon="123.4088">
        <ele>468.21</ele>
      </trkpt>
    </trkseg>
  </trk>
</gpx>
