<?xml version="1.0" encoding="UTF-8"?>
<gpx creator="Wikiloc - https://www.wikiloc.com" version="1.1" xmlns="http://www.topografix.com/GPX/1/1" xmlns:xsi="http://www.w3.org/2001/XMLSchema-instance" xsi:schemaLocation="http://www.topografix.com/GPX/1/1 http://www.topografix.com/GPX/1/1/gpx.xsd">
  <metadata>
    <name>Wikiloc - Budlaan-Sirao</name>
    <link href="https://www.wikiloc.com/hiking-trails/budlaan-sirao-18865872">
      <text>Budlaan-Sirao on Wikiloc</text>
    </link>
    <time>2017-04-23T10:26:30Z</time>
  </metadata>
  <trk>
    <name>Budlaan-Sirao</name>
    <cmt></cmt>
    <desc></desc>
    <trkseg>
      <trkpt lat="10.384090" lon="123.886991">
        <ele>276.573</ele>
        <time>2017-04-23T07:18:18Z</time>
      </trkpt>
      <trkpt lat="10.383932" lon="123.886816">
        <ele>282.185</ele>
        <time>2017-04-23T07:18:37Z</time>
      </trkpt>
      <trkpt lat="10.383607" lon="123.885750">
        <ele>283.113</ele>
        <time>2017-04-23T07:20:40Z</time>
      </trkpt>
      <trkpt lat="10.383241" lon="123.885468">
        <ele>288.108</ele>
        <time>2017-04-23T07:21:04Z</time>
      </trkpt>
      <trkpt lat="10.382674" lon="123.884264">
        <ele>284.268</ele>
        <time>2017-04-23T07:22:40Z</time>
      </trkpt>
      <trkpt lat="10.383351" lon="123.883648">
        <ele>278.095</ele>
        <time>2017-04-23T07:23:58Z</time>
      </trkpt>
      <trkpt lat="10.383598" lon="123.883539">
        <ele>274.755</ele>
        <time>2017-04-23T07:24:14Z</time>
      </trkpt>
      <trkpt lat="10.383642" lon="123.882773">
        <ele>250.093</ele>
        <time>2017-04-23T07:25:11Z</time>
      </trkpt>
      <trkpt lat="10.383510" lon="123.882415">
        <ele>260.712</ele>
        <time>2017-04-23T07:27:30Z</time>
      </trkpt>
      <trkpt lat="10.383814" lon="123.882179">
        <ele>262.735</ele>
        <time>2017-04-23T07:28:04Z</time>
      </trkpt>
      <trkpt lat="10.384433" lon="123.882330">
        <ele>269.774</ele>
        <time>2017-04-23T07:28:58Z</time>
      </trkpt>
      <trkpt lat="10.384737" lon="123.882105">
        <ele>277.189</ele>
        <time>2017-04-23T07:29:31Z</time>
      </trkpt>
      <trkpt lat="10.385247" lon="123.882328">
        <ele>281.166</ele>
        <time>2017-04-23T07:30:22Z</time>
      </trkpt>
      <trkpt lat="10.385749" lon="123.882329">
        <ele>283.429</ele>
        <time>2017-04-23T07:31:10Z</time>
      </trkpt>
      <trkpt lat="10.385888" lon="123.882402">
        <ele>284.021</ele>
        <time>2017-04-23T07:31:22Z</time>
      </trkpt>
      <trkpt lat="10.386119" lon="123.882384">
        <ele>286.908</ele>
        <time>2017-04-23T07:31:44Z</time>
      </trkpt>
      <trkpt lat="10.386423" lon="123.882227">
        <ele>289.547</ele>
        <time>2017-04-23T07:32:16Z</time>
      </trkpt>
      <trkpt lat="10.386604" lon="123.881669">
        <ele>304.034</ele>
        <time>2017-04-23T07:33:13Z</time>
      </trkpt>
      <trkpt lat="10.386957" lon="123.881406">
        <ele>305.624</ele>
        <time>2017-04-23T07:33:50Z</time>
      </trkpt>
      <trkpt lat="10.387206" lon="123.881329">
        <ele>297.552</ele>
        <time>2017-04-23T07:34:13Z</time>
      </trkpt>
      <trkpt lat="10.387498" lon="123.880994">
        <ele>304.371</ele>
        <time>2017-04-23T07:34:56Z</time>
      </trkpt>
      <trkpt lat="10.387620" lon="123.880966">
        <ele>299.954</ele>
        <time>2017-04-23T07:35:13Z</time>
      </trkpt>
      <trkpt lat="10.387667" lon="123.880568">
        <ele>304.023</ele>
        <time>2017-04-23T07:35:35Z</time>
      </trkpt>
      <trkpt lat="10.387567" lon="123.880364">
        <ele>315.578</ele>
        <time>2017-04-23T07:36:05Z</time>
      </trkpt>
      <trkpt lat="10.387702" lon="123.880091">
        <ele>297.729</ele>
        <time>2017-04-23T07:36:57Z</time>
      </trkpt>
      <trkpt lat="10.387927" lon="123.879908">
        <ele>278.500</ele>
        <time>2017-04-23T07:37:33Z</time>
      </trkpt>
      <trkpt lat="10.388006" lon="123.879982">
        <ele>270.920</ele>
        <time>2017-04-23T07:38:29Z</time>
      </trkpt>
      <trkpt lat="10.388168" lon="123.879893">
        <ele>258.808</ele>
        <time>2017-04-23T07:38:51Z</time>
      </trkpt>
      <trkpt lat="10.388339" lon="123.879753">
        <ele>247.473</ele>
        <time>2017-04-23T07:40:13Z</time>
      </trkpt>
      <trkpt lat="10.388362" lon="123.879619">
        <ele>248.270</ele>
        <time>2017-04-23T07:42:21Z</time>
      </trkpt>
      <trkpt lat="10.388453" lon="123.879723">
        <ele>243.740</ele>
        <time>2017-04-23T07:43:20Z</time>
      </trkpt>
      <trkpt lat="10.388471" lon="123.879597">
        <ele>245.288</ele>
        <time>2017-04-23T07:44:15Z</time>
      </trkpt>
      <trkpt lat="10.388433" lon="123.879697">
        <ele>242.097</ele>
        <time>2017-04-23T07:44:54Z</time>
      </trkpt>
      <trkpt lat="10.388333" lon="123.879567">
        <ele>247.330</ele>
        <time>2017-04-23T07:46:00Z</time>
      </trkpt>
      <trkpt lat="10.388401" lon="123.879050">
        <ele>263.359</ele>
        <time>2017-04-23T07:47:50Z</time>
      </trkpt>
      <trkpt lat="10.388257" lon="123.879131">
        <ele>262.054</ele>
        <time>2017-04-23T07:48:54Z</time>
      </trkpt>
      <trkpt lat="10.388266" lon="123.878899">
        <ele>264.651</ele>
        <time>2017-04-23T07:49:55Z</time>
      </trkpt>
      <trkpt lat="10.388107" lon="123.878807">
        <ele>267.601</ele>
        <time>2017-04-23T07:51:16Z</time>
      </trkpt>
      <trkpt lat="10.388063" lon="123.878622">
        <ele>273.111</ele>
        <time>2017-04-23T07:51:41Z</time>
      </trkpt>
      <trkpt lat="10.388264" lon="123.878576">
        <ele>267.208</ele>
        <time>2017-04-23T07:52:55Z</time>
      </trkpt>
      <trkpt lat="10.388313" lon="123.878484">
        <ele>270.896</ele>
        <time>2017-04-23T07:53:11Z</time>
      </trkpt>
      <trkpt lat="10.388297" lon="123.878256">
        <ele>275.813</ele>
        <time>2017-04-23T07:53:43Z</time>
      </trkpt>
      <trkpt lat="10.388414" lon="123.878141">
        <ele>277.653</ele>
        <time>2017-04-23T07:54:14Z</time>
      </trkpt>
      <trkpt lat="10.388463" lon="123.877790">
        <ele>288.781</ele>
        <time>2017-04-23T07:54:43Z</time>
      </trkpt>
      <trkpt lat="10.388660" lon="123.877766">
        <ele>299.940</ele>
        <time>2017-04-23T07:55:14Z</time>
      </trkpt>
      <trkpt lat="10.388868" lon="123.877624">
        <ele>317.963</ele>
        <time>2017-04-23T07:56:03Z</time>
      </trkpt>
      <trkpt lat="10.388883" lon="123.877484">
        <ele>318.972</ele>
        <time>2017-04-23T07:56:24Z</time>
      </trkpt>
      <trkpt lat="10.388946" lon="123.877550">
        <ele>318.477</ele>
        <time>2017-04-23T08:02:52Z</time>
      </trkpt>
      <trkpt lat="10.388901" lon="123.877493">
        <ele>318.073</ele>
        <time>2017-04-23T08:02:58Z</time>
      </trkpt>
      <trkpt lat="10.388972" lon="123.877461">
        <ele>318.385</ele>
        <time>2017-04-23T08:03:12Z</time>
      </trkpt>
      <trkpt lat="10.389033" lon="123.877551">
        <ele>319.513</ele>
        <time>2017-04-23T08:03:40Z</time>
      </trkpt>
      <trkpt lat="10.389034" lon="123.877449">
        <ele>317.908</ele>
        <time>2017-04-23T08:03:53Z</time>
      </trkpt>
      <trkpt lat="10.389202" lon="123.877510">
        <ele>323.328</ele>
        <time>2017-04-23T08:04:20Z</time>
      </trkpt>
      <trkpt lat="10.389248" lon="123.877015">
        <ele>319.295</ele>
        <time>2017-04-23T08:05:46Z</time>
      </trkpt>
      <trkpt lat="10.389538" lon="123.876916">
        <ele>321.965</ele>
        <time>2017-04-23T08:06:18Z</time>
      </trkpt>
      <trkpt lat="10.389736" lon="123.876529">
        <ele>329.453</ele>
        <time>2017-04-23T08:07:17Z</time>
      </trkpt>
      <trkpt lat="10.390004" lon="123.876333">
        <ele>334.022</ele>
        <time>2017-04-23T08:08:01Z</time>
      </trkpt>
      <trkpt lat="10.390123" lon="123.876409">
        <ele>337.265</ele>
        <time>2017-04-23T08:08:23Z</time>
      </trkpt>
      <trkpt lat="10.390465" lon="123.876225">
        <ele>344.654</ele>
        <time>2017-04-23T08:09:09Z</time>
      </trkpt>
      <trkpt lat="10.390829" lon="123.875937">
        <ele>349.529</ele>
        <time>2017-04-23T08:10:03Z</time>
      </trkpt>
      <trkpt lat="10.390933" lon="123.875683">
        <ele>350.525</ele>
        <time>2017-04-23T08:10:46Z</time>
      </trkpt>
      <trkpt lat="10.391430" lon="123.875248">
        <ele>354.926</ele>
        <time>2017-04-23T08:12:33Z</time>
      </trkpt>
      <trkpt lat="10.391679" lon="123.875251">
        <ele>359.608</ele>
        <time>2017-04-23T08:13:02Z</time>
      </trkpt>
      <trkpt lat="10.392619" lon="123.875565">
        <ele>373.308</ele>
        <time>2017-04-23T08:14:52Z</time>
      </trkpt>
      <trkpt lat="10.392934" lon="123.875549">
        <ele>381.773</ele>
        <time>2017-04-23T08:15:25Z</time>
      </trkpt>
      <trkpt lat="10.393234" lon="123.875757">
        <ele>383.570</ele>
        <time>2017-04-23T08:16:00Z</time>
      </trkpt>
      <trkpt lat="10.393518" lon="123.876122">
        <ele>383.810</ele>
        <time>2017-04-23T08:16:44Z</time>
      </trkpt>
      <trkpt lat="10.393525" lon="123.876334">
        <ele>384.328</ele>
        <time>2017-04-23T08:17:06Z</time>
      </trkpt>
      <trkpt lat="10.393653" lon="123.876503">
        <ele>385.597</ele>
        <time>2017-04-23T08:17:28Z</time>
      </trkpt>
      <trkpt lat="10.393539" lon="123.876631">
        <ele>384.960</ele>
        <time>2017-04-23T08:18:01Z</time>
      </trkpt>
      <trkpt lat="10.393743" lon="123.876959">
        <ele>386.319</ele>
        <time>2017-04-23T08:18:37Z</time>
      </trkpt>
      <trkpt lat="10.394115" lon="123.877337">
        <ele>394.394</ele>
        <time>2017-04-23T08:19:57Z</time>
      </trkpt>
      <trkpt lat="10.394506" lon="123.877449">
        <ele>405.833</ele>
        <time>2017-04-23T08:20:30Z</time>
      </trkpt>
      <trkpt lat="10.395090" lon="123.876857">
        <ele>420.123</ele>
        <time>2017-04-23T08:21:41Z</time>
      </trkpt>
      <trkpt lat="10.395112" lon="123.876583">
        <ele>421.915</ele>
        <time>2017-04-23T08:22:10Z</time>
      </trkpt>
      <trkpt lat="10.395350" lon="123.876226">
        <ele>425.908</ele>
        <time>2017-04-23T08:22:46Z</time>
      </trkpt>
      <trkpt lat="10.395644" lon="123.876003">
        <ele>429.914</ele>
        <time>2017-04-23T08:23:19Z</time>
      </trkpt>
      <trkpt lat="10.395597" lon="123.875851">
        <ele>429.521</ele>
        <time>2017-04-23T08:23:48Z</time>
      </trkpt>
      <trkpt lat="10.395928" lon="123.875342">
        <ele>436.171</ele>
        <time>2017-04-23T08:24:43Z</time>
      </trkpt>
      <trkpt lat="10.396229" lon="123.875096">
        <ele>439.049</ele>
        <time>2017-04-23T08:25:16Z</time>
      </trkpt>
      <trkpt lat="10.396459" lon="123.874579">
        <ele>440.718</ele>
        <time>2017-04-23T08:26:11Z</time>
      </trkpt>
      <trkpt lat="10.396424" lon="123.874261">
        <ele>447.181</ele>
        <time>2017-04-23T08:26:55Z</time>
      </trkpt>
      <trkpt lat="10.396777" lon="123.873775">
        <ele>460.880</ele>
        <time>2017-04-23T08:27:41Z</time>
      </trkpt>
      <trkpt lat="10.396778" lon="123.873162">
        <ele>469.455</ele>
        <time>2017-04-23T08:28:54Z</time>
      </trkpt>
      <trkpt lat="10.397415" lon="123.873048">
        <ele>479.816</ele>
        <time>2017-04-23T08:30:24Z</time>
      </trkpt>
      <trkpt lat="10.397931" lon="123.872592">
        <ele>496.676</ele>
        <time>2017-04-23T08:31:41Z</time>
      </trkpt>
      <trkpt lat="10.398949" lon="123.872098">
        <ele>537.813</ele>
        <time>2017-04-23T08:48:14Z</time>
      </trkpt>
      <trkpt lat="10.399317" lon="123.872033">
        <ele>550.208</ele>
        <time>2017-04-23T08:49:33Z</time>
      </trkpt>
      <trkpt lat="10.399232" lon="123.872194">
        <ele>543.652</ele>
        <time>2017-04-23T08:49:55Z</time>
      </trkpt>
      <trkpt lat="10.399445" lon="123.872333">
        <ele>541.599</ele>
        <time>2017-04-23T08:50:17Z</time>
      </trkpt>
      <trkpt lat="10.399560" lon="123.872241">
        <ele>546.749</ele>
        <time>2017-04-23T08:50:28Z</time>
      </trkpt>
      <trkpt lat="10.399884" lon="123.872238">
        <ele>556.227</ele>
        <time>2017-04-23T08:51:01Z</time>
      </trkpt>
      <trkpt lat="10.399877" lon="123.872126">
        <ele>561.316</ele>
        <time>2017-04-23T08:51:23Z</time>
      </trkpt>
      <trkpt lat="10.400191" lon="123.871983">
        <ele>574.299</ele>
        <time>2017-04-23T08:53:26Z</time>
      </trkpt>
      <trkpt lat="10.400327" lon="123.871796">
        <ele>575.278</ele>
        <time>2017-04-23T08:53:51Z</time>
      </trkpt>
      <trkpt lat="10.401435" lon="123.871884">
        <ele>586.263</ele>
        <time>2017-04-23T08:55:30Z</time>
      </trkpt>
      <trkpt lat="10.401764" lon="123.871788">
        <ele>589.715</ele>
        <time>2017-04-23T08:56:03Z</time>
      </trkpt>
      <trkpt lat="10.401928" lon="123.871639">
        <ele>591.965</ele>
        <time>2017-04-23T08:56:25Z</time>
      </trkpt>
      <trkpt lat="10.402090" lon="123.871236">
        <ele>596.611</ele>
        <time>2017-04-23T08:57:24Z</time>
      </trkpt>
      <trkpt lat="10.402046" lon="123.871158">
        <ele>599.508</ele>
        <time>2017-04-23T08:57:37Z</time>
      </trkpt>
      <trkpt lat="10.402446" lon="123.870617">
        <ele>622.372</ele>
        <time>2017-04-23T08:59:33Z</time>
      </trkpt>
      <trkpt lat="10.403108" lon="123.870233">
        <ele>636.249</ele>
        <time>2017-04-23T09:01:24Z</time>
      </trkpt>
      <trkpt lat="10.402465" lon="123.869931">
        <ele>659.169</ele>
        <time>2017-04-23T09:04:36Z</time>
      </trkpt>
      <trkpt lat="10.402131" lon="123.869152">
        <ele>673.647</ele>
        <time>2017-04-23T09:07:33Z</time>
      </trkpt>
      <trkpt lat="10.402420" lon="123.868306">
        <ele>700.296</ele>
        <time>2017-04-23T09:09:45Z</time>
      </trkpt>
      <trkpt lat="10.402630" lon="123.868059">
        <ele>713.549</ele>
        <time>2017-04-23T09:11:16Z</time>
      </trkpt>
      <trkpt lat="10.402783" lon="123.867327">
        <ele>723.378</ele>
        <time>2017-04-23T09:24:09Z</time>
      </trkpt>
      <trkpt lat="10.402793" lon="123.867590">
        <ele>722.593</ele>
        <time>2017-04-23T09:25:03Z</time>
      </trkpt>
      <trkpt lat="10.403146" lon="123.867718">
        <ele>725.627</ele>
        <time>2017-04-23T09:25:36Z</time>
      </trkpt>
      <trkpt lat="10.403274" lon="123.867891">
        <ele>729.968</ele>
        <time>2017-04-23T09:26:09Z</time>
      </trkpt>
      <trkpt lat="10.403526" lon="123.867971">
        <ele>734.814</ele>
        <time>2017-04-23T09:26:53Z</time>
      </trkpt>
      <trkpt lat="10.403670" lon="123.868114">
        <ele>734.408</ele>
        <time>2017-04-23T09:27:26Z</time>
      </trkpt>
      <trkpt lat="10.403666" lon="123.868040">
        <ele>735.373</ele>
        <time>2017-04-23T09:28:20Z</time>
      </trkpt>
      <trkpt lat="10.403225" lon="123.867892">
        <ele>727.960</ele>
        <time>2017-04-23T09:29:33Z</time>
      </trkpt>
      <trkpt lat="10.403220" lon="123.867785">
        <ele>726.660</ele>
        <time>2017-04-23T09:29:55Z</time>
      </trkpt>
      <trkpt lat="10.402997" lon="123.867643">
        <ele>722.258</ele>
        <time>2017-04-23T09:30:28Z</time>
      </trkpt>
      <trkpt lat="10.402992" lon="123.867558">
        <ele>722.167</ele>
        <time>2017-04-23T09:30:39Z</time>
      </trkpt>
      <trkpt lat="10.403283" lon="123.867369">
        <ele>720.120</ele>
        <time>2017-04-23T09:31:12Z</time>
      </trkpt>
      <trkpt lat="10.403614" lon="123.867673">
        <ele>730.049</ele>
        <time>2017-04-23T09:32:40Z</time>
      </trkpt>
      <trkpt lat="10.403297" lon="123.867396">
        <ele>720.554</ele>
        <time>2017-04-23T10:02:55Z</time>
      </trkpt>
      <trkpt lat="10.403513" lon="123.867228">
        <ele>714.359</ele>
        <time>2017-04-23T10:03:31Z</time>
      </trkpt>
      <trkpt lat="10.403586" lon="123.866886">
        <ele>700.103</ele>
        <time>2017-04-23T10:05:59Z</time>
      </trkpt>
      <trkpt lat="10.403541" lon="123.866736">
        <ele>694.423</ele>
        <time>2017-04-23T10:07:07Z</time>
      </trkpt>
      <trkpt lat="10.403425" lon="123.866752">
        <ele>696.008</ele>
        <time>2017-04-23T10:07:19Z</time>
      </trkpt>
      <trkpt lat="10.403615" lon="123.866338">
        <ele>673.686</ele>
        <time>2017-04-23T10:08:12Z</time>
      </trkpt>
      <trkpt lat="10.403577" lon="123.865456">
        <ele>643.293</ele>
        <time>2017-04-23T10:12:29Z</time>
      </trkpt>
      <trkpt lat="10.403398" lon="123.865344">
        <ele>639.833</ele>
        <time>2017-04-23T10:12:51Z</time>
      </trkpt>
      <trkpt lat="10.403375" lon="123.865175">
        <ele>635.861</ele>
        <time>2017-04-23T10:13:13Z</time>
      </trkpt>
      <trkpt lat="10.403077" lon="123.864981">
        <ele>628.130</ele>
        <time>2017-04-23T10:13:35Z</time>
      </trkpt>
      <trkpt lat="10.402538" lon="123.864426">
        <ele>627.263</ele>
        <time>2017-04-23T10:14:42Z</time>
      </trkpt>
      <trkpt lat="10.402212" lon="123.864263">
        <ele>621.662</ele>
        <time>2017-04-23T10:15:40Z</time>
      </trkpt>
      <trkpt lat="10.401891" lon="123.864224">
        <ele>618.527</ele>
        <time>2017-04-23T10:16:03Z</time>
      </trkpt>
      <trkpt lat="10.402005" lon="123.864014">
        <ele>606.789</ele>
        <time>2017-04-23T10:16:26Z</time>
      </trkpt>
      <trkpt lat="10.401266" lon="123.863278">
        <ele>585.606</ele>
        <time>2017-04-23T10:17:24Z</time>
      </trkpt>
      <trkpt lat="10.401131" lon="123.863179">
        <ele>583.726</ele>
        <time>2017-04-23T10:17:31Z</time>
      </trkpt>
      <trkpt lat="10.400419" lon="123.863053">
        <ele>580.708</ele>
        <time>2017-04-23T10:18:07Z</time>
      </trkpt>
      <trkpt lat="10.400100" lon="123.862701">
        <ele>578.359</ele>
        <time>2017-04-23T10:18:26Z</time>
      </trkpt>
      <trkpt lat="10.399668" lon="123.862038">
        <ele>575.736</ele>
        <time>2017-04-23T10:18:59Z</time>
      </trkpt>
      <trkpt lat="10.399498" lon="123.860950">
        <ele>579.916</ele>
        <time>2017-04-23T10:19:45Z</time>
      </trkpt>
      <trkpt lat="10.398730" lon="123.858792">
        <ele>596.024</ele>
        <time>2017-04-23T10:22:39Z</time>
      </trkpt>
      <trkpt lat="10.397692" lon="123.858697">
        <ele>598.033</ele>
        <time>2017-04-23T10:24:07Z</time>
      </trkpt>
      <trkpt lat="10.397186" lon="123.859011">
        <ele>595.796</ele>
        <time>2017-04-23T10:24:51Z</time>
      </trkpt>
      <trkpt lat="10.396145" lon="123.859141">
        <ele>592.945</ele>
        <time>2017-04-23T10:25:46Z</time>
      </trkpt>
      <trkpt lat="10.395722" lon="123.859416">
        <ele>591.420</ele>
        <time>2017-04-23T10:26:30Z</time>
      </trkpt>
    </trkseg>
  </trk></gpx>